"CCUS ID";"MT ID";"Name";"Address";"City";"State";"zip";;;;
104940;217981;"Newton KinderCare";"202 N 3rd Ave. W";"Newton";"IA";50208;"(877) 959-6679";;;
108067;217931;"West Cedar Rapids KinderCare";"310 Burdette Dr. SW";"Cedar Rapids";"IA";52404;"(877) 959-6679";;;
108068;217941;"East Cedar Rapids KinderCare";"5351 North Park Place North East";"Cedar Rapids";"IA";52402;"(877) 959-6679";;;
108931;217961;"Bettendorf KinderCare";"2330 Tech Dr.";"Bettendorf";"IA";52722;"(877) 959-6679";;;
109302;217951;"Davenport KinderCare Preschool";"2108 East Locust St.";"Davenport";"IA";52803;"(877) 959-6679";;;
533920;48914;"West Boca Raton KinderCare";"20650 95th Ave. South";"Boca Raton";"FL";33434;"(877) 959-6679";;;
661842;149721;"KinderCare at South Brunswick";"15 Stouts Lane";"Monmouth Junction";"NJ";8852;"(877) 959-6679";;;
661896;150171;"KinderCare at Millstone Twp.";"36 Trenton-Lakewood Rd.";"Millstone Township";"NJ";8510;"(877) 959-6679";;;
662019;150761;"KinderCare at Manalapan";"293 Gordon's Corner Rd.";"Englishtown";"NJ";7726;"(877) 959-6679";;;
662894;156621;"KinderCare at Branchburg";"212 Raritan Valley College Dr.";"Somerville";"NJ";8876;"(877) 959-6679";;;
689651;219111;"KinderCare of Wildwood";"16375 Pierside Lane";"Grover";"MO";63040;"(877) 959-6679";;;
707614;33653;"KinderCare Mt Lebanon";"1610 N Highland Rd.";"Pittsburgh";"PA";15228;"(877) 959-6679";;;
707726;33457;"KinderCare of Murrysville";"400 Old Abers Creek Rd.";"Pittsburgh";"PA";15239;"(877) 959-6679";;;
708794;36676;"State College KinderCare";"228 Farmstead Lane";"State College";"PA";16803;"(877) 959-6679";;;
709033;34035;"Great Valley KinderCare";"65 General Warren Blvd.";"Malvern";"PA";19355;"(877) 959-6679";;;
710026;33211;"KinderCare Boothwyn";"6 Creek Pkwy";"Marcus Hook";"PA";19061;"(877) 959-6679";;;
715330;35577;"East York KinderCare";"120 South Northern Way";"York";"PA";17402;"(877) 959-6679";;;
732642;219911;"KinderCare Midwest City";"9105 Apple Dr.";"Oklahoma City";"OK";73130;"(877) 959-6679";;;
837836;220411;"KinderCare at Fieldstone Farms";"2111 Fieldstone Pkwy";"Franklin";"TN";37069;"(877) 959-6679";;;
848438;217351;"Oakridge KinderCare";"4703 McMurry  Ave.";"Fort Collins";"CO";80525;"(877) 959-6679";;;
1009383;215831;"Torbett Street KinderCare";"306 Torbett St.";"Richland";"WA";99352;"(877) 959-6679";;;
1009384;215661;"Lakewood KinderCare";"8610 Phillips Road Southwest";"Lakewood";"WA";98498;"(877) 959-6679";;;
1009385;215601;"31st Avenue KinderCare";"123 31st Ave. SE";"Puyallup";"WA";98374;"(877) 959-6679";;;
1009389;215651;"University Place KinderCare";"5424 Orchard St. West";"University Place";"WA";98467;"(877) 959-6679";;;
1009391;215621;"Bonney Lake KinderCare";"9010 Main St. East";"Bonney Lake";"WA";98391;"(877) 959-6679";;;
1009394;215271;"Issaquah II KinderCare";"4341 W. Lake Sammamish Pkwy SE";"Issaquah";"WA";98027;"(877) 959-6679";;;
1009398;215791;"Mullan KinderCare";"North 422 Mullan Rd.";"Spokane";"WA";99206;"(877) 959-6679";;;
1065395;61751;"S Arlington Heights KinderCare";"1003 South Arlington Heights Rd.";"Arlington Heights";"IL";60005;"(877) 959-6679";;;
1065425;68661;"Belleville KinderCare";"2511 Eastview Dr.";"Belleville";"IL";62221;"(877) 959-6679";;;
1065449;70101;"Bensenville KinderCare";"324 East Green St.";"Bensenville";"IL";60106;"(877) 959-6679";;;
1065460;68341;"Washington Street KinderCare";"2410 East Washington St.";"Bloomington";"IL";61704;"(877) 959-6679";;;
1065468;73081;"Seneca Lane KinderCare";"530 Seneca Lane";"Bolingbrook";"IL";60440;"(877) 959-6679";;;
1065478;64931;"Bourbonnais KinderCare";"150 W. John Casey Rd.";"Bourbonnais";"IL";60914;"(877) 959-6679";;;
1065530;71581;"Devonshire KinderCare";"410 Devonshire Dr.";"Champaign";"IL";61820;"(877) 959-6679";;;
1065822;64411;"Berkshire Drive KinderCare";"14 Berkshire Dr.";"Crystal Lake";"IL";60014;"(877) 959-6679";;;
1065840;67201;"Hillcrest Drive KinderCare";"207 E Hillcrest Dr.";"Dekalb";"IL";60115;"(877) 959-6679";;;
1065886;72621;"Edwardsville KinderCare";"500 Goshen Rd.";"Edwardsville";"IL";62025;"(877) 959-6679";;;
1065930;64461;"East Geneva KinderCare";"1400 Hill Rd.";"Geneva";"IL";60134;"(877) 959-6679";;;
1065938;66721;"Glen Ellyn KinderCare";"2 South 726 Route 53";"Glen Ellyn";"IL";60137;"(877) 959-6679";;;
1065942;64821;"Glendale Heights KinderCare";"1470 Bloomingdale Rd.";"Glendale Heights";"IL";60139;"(877) 959-6679";;;
1065955;76141;"Grayslake KinderCare";"790 N Lake St.";"Grayslake";"IL";60030;"(877) 959-6679";;;
1066017;68891;"Joliet KinderCare";"2605 Black Rd.";"Joliet";"IL";60435;"(877) 959-6679";;;
1066044;73361;"Lake Zurich KinderCare";"550 W. Cuba Rd.";"Lake Zurich";"IL";60047;"(877) 959-6679";;;
1066063;74521;"Lisle College Rd KinderCare";"6420 College Rd.";"Lisle";"IL";60532;"(877) 959-6679";;;
1066103;66101;"Matteson KinderCare";"18 Central Ave.";"Matteson";"IL";60443;"(877) 959-6679";;;
1066203;65341;"Oak Forest KinderCare";"15700 Central Ave.";"Oak Forest";"IL";60452;"(877) 959-6679";;;
1066232;68841;"Merchants Drive KinderCare";"260 North Merchants Dr.";"Oswego";"IL";60543;"(877) 959-6679";;;
1066255;63021;"Florence KinderCare";"1125 West Florence Ave.";"Peoria";"IL";61604;"(877) 959-6679";;;
1066307;70341;"Rock Island KinderCare";"3316 Blackhawk Rd.";"Rock Island";"IL";61201;"(877) 959-6679";;;
1066327;96881;"Northridge KinderCare";"3890 Northridge Dr.";"Rockford";"IL";61114;"(877) 959-6679";;;
1066353;62971;"Westover Lane KinderCare";"1122 Westover Lane";"Schaumburg";"IL";60193;"(877) 959-6679";;;
1066370;65841;"South Holland KinderCare";"17025 South Park Ave.";"South Holland";"IL";60473;"(877) 959-6679";;;
1066412;72101;"Vernon Hills KinderCare";"451 Creekside Dr.";"Vernon Hills";"IL";60061;"(877) 959-6679";;;
1066460;62071;"Lake Cook KinderCare";"1025 East Lake Cook Rd.";"Wheeling";"IL";60090;"(877) 959-6679";;;
1066897;34996;"Center City KinderCare";"1700 Market St.";"Philadelphia";"PA";19103;"(877) 959-6679";;;
1068297;215161;"First Avenue KinderCare";"32324 First Ave. South";"Federal Way";"WA";98003;"(877) 959-6679";;;
1068298;215291;"Kent KinderCare";"23921 112th Ave. South East";"Kent";"WA";98031;"(877) 959-6679";;;
1068299;215421;"Renton II KinderCare";"11010 S.E. Petrovitsky";"Renton";"WA";98055;"(877) 959-6679";;;
1068301;215141;"Auburn KinderCare";"2916 Auburn Way North";"Auburn";"WA";98002;"(877) 959-6679";;;
1068303;215311;"Midway KinderCare";"25400 Pacific Highway South";"Kent";"WA";98032;"(877) 959-6679";;;
1068304;215441;"Petrovitsky KinderCare";"14725 Southeast Petrovitsky Rd.";"Renton";"WA";98058;"(877) 959-6679";;;
1068305;215451;"Renton Highlands KinderCare";"1225 Anacortes Ave. NE";"Renton";"WA";98059;"(877) 959-6679";;;
1068308;215371;"Covington KinderCare";"27050 174th Place SE";"Kent";"WA";98042;"(877) 959-6679";;;
1068309;215501;"Normandy Park KinderCare";"18020 Des Moines Memorial Dr.";"Seattle";"WA";98148;"(877) 959-6679";;;
1068310;215361;"Maple Valley KinderCare";"22040 Southeast Wax Rd.";"Maple Valley";"WA";98038;"(877) 959-6679";;;
1068311;215431;"Kennydale KinderCare";"1795 NE 44th St.";"Renton";"WA";98056;"(877) 959-6679";;;
1068312;215241;"Brown's Point KinderCare";"34110 Hoyt Rd. SW";"Federal Way";"WA";98023;"(877) 959-6679";;;
1068313;215391;"Redmond KinderCare";"6534 E. Lake Sammamish Pkwy NE";"Redmond";"WA";98052;"(877) 959-6679";;;
1068314;215611;"Silverdale KinderCare";"3500 Northwest Randall Way";"Silverdale";"WA";98383;"(877) 959-6679";;;
1068315;215821;"South Hill KinderCare";"East 3201 26th Ave.";"Spokane";"WA";99223;"(877) 959-6679";;;
1077875;217311;"Stonegate I KinderCare";"16975 Village Center Dr. E.";"Parker";"CO";80134;"(877) 959-6679";;;
1077877;217371;"Redstone KinderCare";"9314 Commerce Center St.";"Littleton";"CO";80129;"(877) 959-6679";;;
1077895;217301;"Mountain Shadows KinderCare";"6610 Flying W Ranch Rd.";"Colorado Springs";"CO";80919;"(877) 959-6679";;;
1077896;217221;"Vickers KinderCare";"3325 Vickers Dr.";"Colorado Springs";"CO";80918;"(877) 959-6679";;;
1077898;221041;"Mesa KinderCare";"1204 Mesa Rd.";"Colorado Springs";"CO";80904;"(877) 959-6679";;;
1077899;340331;"Monument KinderCare";"1150 W. Baptist Rd.";"Colorado Springs";"CO";80921;"(877) 959-6679";;;
1077900;221071;"Stetson Hills KinderCare";"5797 Jackpot Dr.";"Colorado Springs";"CO";80922;"(877) 959-6679";;;
1077931;217261;"Church Ranch KinderCare";"7395 Church Ranch Blvd.";"Broomfield";"CO";80021;"(877) 959-6679";;;
1077947;221121;"Rocky Mountain KinderCare";"1100 Rocky Mountain Way";"Fort Collins";"CO";80526;"(877) 959-6679";;;
1068306;215281;"Panther Lake KinderCare";"20845 108th Ave. SE";"Kent";"WA";98031;"(877) 959-6679";;;
1068307;215151;"Redondo KinderCare";"28715 18th Ave. South";"Federal Way";"WA";98003;"(877) 959-6679";;;
1068300;215171;"West Campus KinderCare";"33504 13th Place South";"Federal Way";"WA";98003;"(877) 959-6679";;;
1077901;217411;"Northgate KinderCare";"1004 Middle Creek Pkwy";"Colorado Springs";"CO";80921;"(877) 959-6679";;;
1077897;217381;"Northwoods KinderCare";"7035 Lexington Dr.";"Colorado Springs";"CO";80918;"(877) 959-6679";;;
86257;28029;"Forest Crossing KinderCare";"9005 Forest Crossing Dr.";"Spring";"TX";77381;"(877) 959-6679";;;
86432;28011;"Clear Lake KinderCare";"14777 El Camino Real";"Houston";"TX";77062;"(877) 959-6679";;;
86432;28210;"Clear Lake KinderCare";"16610 Sea Lark Rd.";"Houston";"TX";77062;"(877) 959-6679";;;
104768;217971;"Country Club KinderCare";"7210 Vista Dr.";"West Des Moines";"IA";50266;"(877) 959-6679";;;
126977;216951;"Alma Mesa KinderCare";"2862 South Alma School Rd.";"Mesa";"AZ";85210;"(877) 959-6679";;;
127076;216821;"La Canada KinderCare";"10455 N La Canada Dr";"Tucson";"AZ";85737;"(877) 959-6679";;;
145269;8137;"County Kids Place KinderCare";"2916 Hope St.";"Los Angeles";"CA";90007;"(877) 959-6679";;;
146435;6862;"Kidango Sharon Jones Center";"4700 Calaveras Avenue";"Fremont";"CA";94538;"(877) 959-6679";;;
146967;340751;"Harbor-UCLA KinderCare";"975 West Carson St.";"Torrance";"CA";90502;"(877) 959-6679";;;
147283;7688;"Kidango Helen Turner Center";"23640 Reed Way";"Hayward";"CA";94541;"(877) 959-6679";;;
147524;11125;"City of Industry KinderCare";"1650 Stoner Creek Rd.";"Rowland Heights";"CA";91748;"(877) 959-6679";;;
147551;10244;"KinderCare Santa Clara";"840 Bing Dr.";"Santa Clara";"CA";95051;"(877) 959-6679";;;
147565;6866;"Calaveras KinderCare Fremont";"4727 Calaveras Ave.";"Fremont";"CA";94538;"(877) 959-6679";;;
147588;13540;"Las Flores KinderCare";"28672 Deerpath";"Rancho Santa Margarita";"CA";92688;"(877) 959-6679";;;
147608;8909;"Herndon Avenue KinderCare";"1190 West Herndon Ave.";"Fresno";"CA";93650;"(877) 959-6679";;;
147616;8342;"Jacklin Commons KinderCare Milpitas";"860 N. Hillview Dr.";"Milpitas";"CA";95035;"(877) 959-6679";;;
147635;10597;"KinderCare Sunnyvale";"1155 East Arques Ave.";"Sunnyvale";"CA";94085;"(877) 959-6679";;;
147661;9716;"Carmel Mountain KinderCare San Diego";"12135 World Trade Dr.";"San Diego";"CA";92128;"(877) 959-6679";;;
147666;10192;"El Sobrante KinderCare";"3240 San Pablo Dam Rd.";"El Sobrante";"CA";94803;"(877) 959-6679";;;
147708;15186;"Foster City KinderCare";"1006 Metro Center Blvd.";"San Mateo";"CA";94404;"(877) 959-6679";;;
147717;9720;"Del Mar Highlands KinderCare San Diego";"3790 Townsgate Dr.";"San Diego";"CA";92130;"(877) 959-6679";;;
195927;339751;"Middlebelt Road KinderCare";"25005 Middlebelt Rd.";"Farmington";"MI";48336;"(877) 959-6679";;;
198935;42885;"Jade Child Development Center";"41128 Palmer Rd.";"Canton";"MI";48188;"(877) 959-6679";;;
202671;340461;"Farmington Hills KinderCare";"29375 Halsted Rd.";"Farmington";"MI";48331;"(877) 959-6679";;;
533867;47450;"Miami Lakes KinderCare";"8001 Oak Lane";"Hialeah";"FL";33016;"(877) 959-6679";;;
533870;44064;"KinderCare Indian Harbour Bch";"200 Riverside Park Dr.";"Satellite Beach";"FL";32937;"(877) 959-6679";;;
533872;44769;"Eagle Harbor Pkwy KinderCare";"1735 Eagle Harbor Pkwy";"Fleming Island";"FL";32003;"(877) 959-6679";;;
533879;48708;"Celebration KinderCare";"400 Celebration Blvd.";"Kissimmee";"FL";34747;"(877) 959-6679";;;
533894;44386;"Coconut Creek KinderCare";"4601 Northwest 30th St.";"Pompano Beach";"FL";33063;"(877) 959-6679";;;
533900;44388;"Kimberly Boulevard KinderCare";"7460 Kimberly Blvd.";"Pompano Beach";"FL";33068;"(877) 959-6679";;;
533901;44389;"Holiday Springs KinderCare";"3225 Holiday Springs Blvd.";"Pompano Beach";"FL";33063;"(877) 959-6679";;;
533918;48912;"Greenacres KinderCare";"3035 Jog Rd";"Lake Worth";"FL";33467;"(877) 959-6679";;;
533919;48916;"East Boca Raton KinderCare";"6550 Broken Sound Pkwy NW";"Boca Raton";"FL";33487;"(877) 959-6679";;;
553292;217651;"KinderCare Dunwoody";"5695 Chamblee Dunwoody Rd.";"Atlanta";"GA";30338;"(877) 959-6679";;;
586645;110531;"Kingstowne KinderCare";"6301 Kingstowne Commons Dr.";"Alexandria";"VA";22315;"(877) 959-6679";;;
586672;110821;"Parham Road KinderCare";"2240 East Parham Rd.";"Henrico";"VA";23228;"(877) 959-6679";;;
586702;111081;"Newport News/Denbigh KinderCare";"12707 Jefferson Ave.";"Newport News";"VA";23602;"(877) 959-6679";;;
592705;215231;"Mill Creek KinderCare";"15711 Mill Creek Blvd.";"Bothell";"WA";98012;"(877) 959-6679";;;
592772;215711;"Hazel Dell KinderCare South Vancouver WA";"7114 NE Hazel Dell Ave.";"Vancouver";"WA";98665;"(877) 959-6679";;;
592773;339491;"Cascade Park KinderCare Vancouver WA";"400 Southeast 120th Ave.";"Vancouver";"WA";98683;"(877) 959-6679";;;
594105;215741;"Fisher's Landing KinderCare Vancouver WA";"16808 S.E. McGillivray Blvd.";"Vancouver";"WA";98683;"(877) 959-6679";;;
595191;215721;"Orchards KinderCare Vancouver WA";"7715 NE 119th Place";"Vancouver";"WA";98682;"(877) 959-6679";;;
596799;215751;"Hazel Dell KinderCare North Vancouver WA";"10021 N.E. Hazel Dell Ave.";"Vancouver";"WA";98685;"(877) 959-6679";;;
610297;38741;"High School Road  KinderCare";"4009 North High School Rd.";"Indianapolis";"IN";46254;"(877) 959-6679";;;
659561;136741;"Old Tappan KinderCare";"176 Old Tappan Rd.";"Westwood";"NJ";7675;"(877) 959-6679";;;
659775;137971;"Delran KinderCare";"1 Tenby Chase Dr.";"Riverside";"NJ";8075;"(877) 959-6679";;;
660828;142701;"Logan Township KinderCare";"1603 Center Square Rd.";"Swedesboro";"NJ";8085;"(877) 959-6679";;;
661438;146861;"Knowledge Beginnings";"450 College Rd. East";"Princeton";"NJ";8540;"(877) 959-6679";;;
661868;149961;"Aberdeen KinderCare";"1330 Highway 34";"Matawan";"NJ";7747;"(877) 959-6679";;;
664417;175521;"Eldersburg KinderCare";"1641 Liberty Rd.";"Sykesville";"MD";21784;"(877) 959-6679";;;
665734;180901;"Lake Arbor KinderCare";"10280 Lake Arbor Way";"Bowie";"MD";20721;"(877) 959-6679";;;
680692;216681;"KinderCare at East Blvd.";"3025 Buckboard Rd.";"Montgomery";"AL";36116;"(877) 959-6679";;;
680696;216711;"KinderCare at Meadowbrook";"1700 Corporate Dr.";"Birmingham";"AL";35242;"(877) 959-6679";;;
689263;221201;"O'Fallon KinderCare";"6016 Weldon Spring Parkway";"Saint Charles";"MO";63304;"(877) 959-6679";;;
689645;218891;"Kirkwood West KinderCare";"13550 Big Bend Rd.";"Saint Louis";"MO";63122;"(877) 959-6679";;;
689646;219131;"Creve Coeur KinderCare";"12821 Portulaca Dr.";"Saint Louis";"MO";63146;"(877) 959-6679";;;
689653;219121;"Florissant KinderCare";"3815 Shackelford Rd.";"Florissant";"MO";63034;"(877) 959-6679";;;
689656;219151;"Fenton KinderCare";"1481 Hawkins Rd.";"Fenton";"MO";63026;"(877) 959-6679";;;
707657;33494;"East Pittsburgh KinderCare";"201 Twin Oak Dr.";"Pittsburgh";"PA";15235;"(877) 959-6679";;;
708272;35940;"Newtown KinderCare";"9 Pheasant Run";"Newtown";"PA";18940;"(877) 959-6679";;;
711749;36319;"Main Street KinderCare";"1810 S. Main St.";"Wilkes Barre";"PA";18702;"(877) 959-6679";;;
712178;35079;"KinderCare at Harcum College";"750 Montgomery Ave.";"Bryn Mawr";"PA";19010;"(877) 959-6679";;;
732665;221241;"Moore KinderCare";"1812 North Eastern Ave.";"Oklahoma City";"OK";73160;"(877) 959-6679";;;
732785;219871;"12th Avenue KinderCare Norman OK";"505 12th Ave. Southeast";"Norman";"OK";73071;"(877) 959-6679";;;
733422;219771;"East 43rd Avenue KinderCare Tulsa OK";"12928 East 43rd Place S";"Tulsa";"OK";74134;"(877) 959-6679";;;
733444;219831;"71st Street KinderCare Tulsa OK";"5110 E. 71st St. South";"Tulsa";"OK";74136;"(877) 959-6679";;;
733464;219841;"31st Street KinderCare Tulsa OK";"11633 E. 31st St. South";"Tulsa";"OK";74146;"(877) 959-6679";;;
776634;64051;"Jones Road KinderCare";"1275 Jones Rd.";"Schaumburg";"IL";60195;"(877) 959-6679";;;
777555;65491;"Oak Park Ave. KinderCare";"16100 Oak Park Ave.";"Tinley Park";"IL";60477;"(877) 959-6679";;;
779982;73841;"Lindenhurst KinderCare";"599 Falling Waters Way";"Lake Villa";"IL";60046;"(877) 959-6679";;;
812129;340431;"Eden Prairie KinderCare North";"13033 Valley View Rd.";"Eden Prairie";"MN";55344;"(877) 959-6679";;;
812131;340451;"Eden Prairie KinderCare Aztec";"8825 Aztec Dr.";"Eden Prairie";"MN";55347;"(877) 959-6679";;;
812132;187971;"Brooklyn Blvd. KinderCare";"7660 Kentucky Ave. North";"Minneapolis";"MN";55428;"(877) 959-6679";;;
812133;340291;"Arden Hills KinderCare";"4545 N. Hamline Ave.";"Saint Paul";"MN";55112;"(877) 959-6679";;;
812135;356;"Lexington Avenue KinderCare";"3420 Lexington Ave. N.";"Saint Paul";"MN";55126;"(877) 959-6679";;;
812137;187991;"Fernbrook KinderCare";"3050 Fernbrook Lane North";"Minneapolis";"MN";55441;"(877) 959-6679";;;
812138;188001;"Green Meadows KinderCare Rochester MN";"1815 Greenview Pl. SW";"Rochester";"MN";55902;"(877) 959-6679";;;
812141;188011;"Brookdale KinderCare";"6020 Earle Brown Dr.";"Minneapolis";"MN";55430;"(877) 959-6679";;;
812142;188021;"Cedar KinderCare";"8800 Cedar Ave. South";"Minneapolis";"MN";55425;"(877) 959-6679";;;
812143;340441;"Eagan North KinderCare";"1101 Town Centre Dr.";"Saint Paul";"MN";55123;"(877) 959-6679";;;
812144;340471;"Fridley KinderCare";"5310 Monroe St. North East";"Minneapolis";"MN";55421;"(877) 959-6679";;;
812145;340551;"Maplewood KinderCare II";"2036 County Rd. D E";"Saint Paul";"MN";55109;"(877) 959-6679";;;
812146;188031;"14th Street KinderCare Rochester MN";"402 14th St. North West";"Rochester";"MN";55901;"(877) 959-6679";;;
812149;340671;"East St. Paul KinderCare";"2070 Burns Ave.";"Saint Paul";"MN";55119;"(877) 959-6679";;;
812274;188091;"MoundsView KinderCare";"2791 County Rd.10 NE";"Saint Paul";"MN";55112;"(877) 959-6679";;;
812275;188101;"Bloomington KinderCare";"8950 France Ave. South";"Minneapolis";"MN";55431;"(877) 959-6679";;;
812276;188111;"Eagan Krestwood KinderCare";"3620 Krestwood Lane";"Saint Paul";"MN";55123;"(877) 959-6679";;;
812277;188121;"Maple Grove KinderCare";"6270 Sycamore Lane North";"Osseo";"MN";55369;"(877) 959-6679";;;
812278;188131;"Grove Drive KinderCare";"13380 Grove Dr.";"Osseo";"MN";55369;"(877) 959-6679";;;
812279;339781;"Meadowlands KinderCare";"1000 Meadowlands Dr.";"Saint Paul";"MN";55127;"(877) 959-6679";;;
812281;188151;"Jefferson Street KinderCare";"10851 Jefferson St. Northeast";"Minneapolis";"MN";55434;"(877) 959-6679";;;
812282;188161;"Coon Rapids Blvd KinderCare";"1800 Coon Rapids Blvd. NW";"Minneapolis";"MN";55433;"(877) 959-6679";;;
812283;188171;"Osseo KinderCare";"9745 Revere Lane North";"Osseo";"MN";55369;"(877) 959-6679";;;
812288;188221;"City Centre KinderCare";"8425 City Centre Dr.";"Saint Paul";"MN";55125;"(877) 959-6679";;;
812289;188231;"Brooklyn Park KinderCare";"7924 Brooklyn Blvd.";"Minneapolis";"MN";55445;"(877) 959-6679";;;
812291;188251;"Maplewood KinderCare";"1925 County Rd. D E";"Saint Paul";"MN";55109;"(877) 959-6679";;;
812295;188271;"County Road KinderCare";"4475 Highway 169 N";"Minneapolis";"MN";55442;"(877) 959-6679";;;
812296;188281;"Apple Valley KinderCare";"7691 145th St. W.";"Saint Paul";"MN";55124;"(877) 959-6679";;;
812608;188301;"Hanson Blvd KinderCare";"1755 121st Ave. Northwest";"Minneapolis";"MN";55448;"(877) 959-6679";;;
812830;188351;"Eden Prairie KinderCare Dell";"18295 Cascade Dr.";"Eden Prairie";"MN";55347;"(877) 959-6679";;;
812853;188371;"Eagan Cliff Road KinderCare";"1865  Plaza Dr.";"Saint Paul";"MN";55122;"(877) 959-6679";;;
812854;188381;"Carver Lake KinderCare";"6435 Lake Rd. Terrace";"Saint Paul";"MN";55125;"(877) 959-6679";;;
813123;188481;"Eagan Knowledge Beginnings";"4155 Lexington Ave. S.";"Saint Paul";"MN";55123;"(877) 959-6679";;;
813124;341011;"Oak Grove Knowledge Beginnings";"570 Oak Grove Pkwy";"Saint Paul";"MN";55127;"(877) 959-6679";;;
813158;188491;"Oakdale KinderCare";"7380 10th St. North";"Saint Paul";"MN";55128;"(877) 959-6679";;;
813543;188551;"Dodd Blvd Lakeville KinderCare";"17420 Dodd Blvd.";"Lakeville";"MN";55044;"(877) 959-6679";;;
822803;5001;"Fairlawn KinderCare";"4050 Embassy Pkwy";"Akron";"OH";44333;"(877) 959-6679";;;
823621;2870;"Cherry Way KinderCare";"1341 Cherry Way Dr.";"Columbus";"OH";43230;"(877) 959-6679";;;
823638;340491;"Gahanna KinderCare";"520 Morrison Rd.";"Columbus";"OH";43230;"(877) 959-6679";;;
823639;2871;"North Stygler KinderCare";"139 North Stygler Rd.";"Columbus";"OH";43230;"(877) 959-6679";;;
823642;340301;"Alpha Park KinderCare";"679-H Alpha Dr.";"Cleveland";"OH";44143;"(877) 959-6679";;;
823649;1663;"Landerhaven KinderCare";"200 Allen Bradley Dr.";"Cleveland";"OH";44124;"(877) 959-6679";;;
823650;3743;"N Ridgeville KinderCare";"7171 Lear Nagel Rd.";"North Ridgeville";"OH";44039;"(877) 959-6679";;;
823652;5042;"North Canton KinderCare";"6625 Market Ave. North";"Canton";"OH";44721;"(877) 959-6679";;;
823663;2940;"Park Road KinderCare";"401 Park Rd.";"Columbus";"OH";43085;"(877) 959-6679";;;
823666;5043;"Canton KinderCare";"4540 Dressler Rd. Northwest";"Canton";"OH";44718;"(877) 959-6679";;;
823671;4475;"Kettering KinderCare";"1111 East Stroop Rd.";"Dayton";"OH";45429;"(877) 959-6679";;;
823681;2513;"Lyndhurst KinderCare";"5684 Mayfield Rd.";"Cleveland";"OH";44124;"(877) 959-6679";;;
823703;339691;"Anderson Township Kindercare";"1184 Witt Rd.";"Cincinnati";"OH";45255;"(877) 959-6679";;;
823706;339511;"Hard Road KinderCare";"2001 Hard Rd.";"Columbus";"OH";43235;"(877) 959-6679";;;
823721;4474;"Ebert KinderCare";"1875 Ebert Ave.";"Dayton";"OH";45439;"(877) 959-6679";;;
823722;4377;"Garnet Drive KinderCare";"8150 Garnet Dr.";"Dayton";"OH";45458;"(877) 959-6679";;;
823724;2369;"Beavercreek KinderCare";"2221 N. Fairfield Rd.";"Dayton";"OH";45431;"(877) 959-6679";;;
823726;4463;"Huber Heights KinderCare";"7305 Old Troy Pike";"Dayton";"OH";45424;"(877) 959-6679";;;
823728;340481;"Forest Park West KinderCare";"2291 Reliance Dr.";"Cincinnati";"OH";45240;"(877) 959-6679";;;
834937;220241;"Cedar Bluff KinderCare";"9200 Gulf Park Dr.";"Knoxville";"TN";37923;"(877) 959-6679";;;
836579;220321;"Bartlett KinderCare";"6000 Bartlett Center Dr.";"Memphis";"TN";38134;"(877) 959-6679";;;
837672;220291;"Johnson City KinderCare";"906 Sunset Dr.";"Johnson City";"TN";37604;"(877) 959-6679";;;
837837;220361;"Franklin KinderCare";"205 Bedford Way";"Franklin";"TN";37064;"(877) 959-6679";;;
848230;217231;"Park Meadows KinderCare";"8100 Park Meadows Dr.";"Lone Tree";"CO";80124;"(877) 959-6679";;;
848236;221101;"Green Mountain KinderCare";"1139 South Alkire St.";"Denver";"CO";80228;"(877) 959-6679";;;
848267;217241;"Northglenn KinderCare";"701 West 114th Ave.";"Denver";"CO";80234;"(877) 959-6679";;;
848332;217281;"East Thornton KinderCare";"4200 East 128th Ave.";"Denver";"CO";80241;"(877) 959-6679";;;
848352;217211;"Kipling Parkway KinderCare";"975 South Kipling Pkwy";"Denver";"CO";80226;"(877) 959-6679";;;
859273;219551;"Merrimack KinderCare DW HWY";"325 Daniel Webster Highway";"Merrimack";"NH";3054;"(877) 959-6679";;;
879546;220711;"Northside Kindercare";"2017 Londonderry Dr.";"Madison";"WI";53704;"(877) 959-6679";;;
879606;220701;"Monona KinderCare";"6109 Monona Dr.";"Madison";"WI";53716;"(877) 959-6679";;;
881640;220681;"61st Street KinderCare";"2374 S. 61St St.";"Milwaukee";"WI";53219;"(877) 959-6679";;;
881973;220901;"Greenfield KinderCare";"8650 West Forest Home Ave.";"Milwaukee";"WI";53228;"(877) 959-6679";;;
881987;220821;"Brown Deer KinderCare";"8750 North 51st St.";"Milwaukee";"WI";53223;"(877) 959-6679";;;
882330;220601;"Mequon KinderCare";"10813 N Port Washington Rd.";"Thiensville";"WI";53092;"(877) 959-6679";;;
883533;220611;"Main Street KinderCare";"N88 W15240 Main St.";"Menomonee Falls";"WI";53051;"(877) 959-6679";;;
893373;219461;"Millard KinderCare";"5636 South 147th St.";"Omaha";"NE";68137;"(877) 959-6679";;;
894207;219531;"Northeast KinderCare Lincoln NE";"6900 Huntington Ave.";"Lincoln";"NE";68507;"(877) 959-6679";;;
897297;219671;"Fielday School KinderCare Las Vegas";"3570 N. Buffalo Dr.";"Las Vegas";"NV";89129;"(877) 959-6679";;;
903656;220071;"Hall Boulevard KinderCare";"11533 Southwest Hall Blvd.";"Portland";"OR";97223;"(877) 959-6679";;;
903764;74341;"Fairview KinderCare";"6222 Fairview Ave.";"Downers Grove";"IL";60516;"(877) 959-6679";;;
960127;152841;"KinderCare of Mt. Olive";"7R Naughright Rd.";"Hackettstown";"NJ";7840;"(877) 959-6679";;;
975156;218571;"Needham Heights KinderCare";"1000 Highland Ave.";"Needham Heights";"MA";2494;"(877) 959-6679";;;
975408;340841;"Needham Knowledge Beginnings";"206 A St.";"Needham Heights";"MA";2494;"(877) 959-6679";;;
1008625;217741;"Fayetteville KinderCare";"5252 West Fayetteville Rd.";"Atlanta";"GA";30349;"(877) 959-6679";;;
1008626;217751;"Dresden Drive KinderCare";"2459 Dresden Dr. Northeast";"Atlanta";"GA";30341;"(877) 959-6679";;;
1019212;340231;"Champlin Park KinderCare";"9700 Schreiber Terrace";"Minneapolis";"MN";55445;"(877) 959-6679";;;
1065411;75841;"Long Grove KinderCare";"745 Long Grove Dr.";"Aurora";"IL";60504;"(877) 959-6679";;;
1068318;215331;"Juanita KinderCare";"14230 Juanita-Woodinville Way NE";"Kirkland";"WA";98034;"(877) 959-6679";;;
1052474;220081;"West Union KinderCare";"18275 NW West Union Rd.";"Portland";"OR";97229;"(877) 959-6679";;;
1052473;220041;"Chambers KinderCare";"1410 Chambers St.";"Eugene";"OR";97402;"(877) 959-6679";;;
1052472;219721;"McCarran KinderCare";"1285 N McCarran Blvd.";"Sparks";"NV";89431;"(877) 959-6679";;;
1052470;219731;"Lakeside KinderCare";"3615 Lakeside Dr.";"Reno";"NV";89509;"(877) 959-6679";;;
1052469;218631;"Cambridge KinderCare";"100 Cambridge Park Dr.";"Cambridge";"MA";2138;"(877) 959-6679";;;
1047197;219621;"Lower Terrace KinderCare";"4515 Lower Terrace Circle NE";"Albuquerque";"NM";87111;"(877) 959-6679";;;
1047140;219601;"Taylor Ranch KinderCare";"5101 Montano Rd. NW";"Albuquerque";"NM";87120;"(877) 959-6679";;;
1047134;219591;"McLeod KinderCare";"5701 McLeod Rd. NE";"Albuquerque";"NM";87109;"(877) 959-6679";;;
1047133;219611;"Rio Rancho KinderCare";"4031 Barbara Loop Southeast";"Rio Rancho";"NM";87124;"(877) 959-6679";;;
1047132;219631;"Panorama KinderCare";"300 Panorama Place North East";"Albuquerque";"NM";87123;"(877) 959-6679";;;
1045539;219961;"Salem KinderCare";"875 Promontory Place SE";"Salem";"OR";97302;"(877) 959-6679";;;
1045077;340991;"Hillsboro Knowledge Beginnings";"3585 NW 215th Ave.";"Hillsboro";"OR";97124;"(877) 959-6679";;;
1044677;219941;"Sunnyside KinderCare";"10501 S.E. Sunnyside Rd.";"Clackamas";"OR";97015;"(877) 959-6679";;;
1036228;246221;"KLASCHOOLS of Walnut Creek";"292 N Wiget Ln";"Walnut Creek";"CA";94598;"(877) 959-6679";;;
1021479;340091;"East Granby KinderCare";"17 Connecticut South Dr.";"East Granby";"CT";6026;"(877) 959-6679";;;
1020667;217631;"Paxson Lane KinderCare";"100 Paxson Dr.";"Newark";"DE";19702;"(877) 959-6679";;;
1017178;40841;"North East KinderCare";"6018 Coit Ave. Northeast";"Grand Rapids";"MI";49525;"(877) 959-6679";;;
1016144;40669;"Portage KinderCare";"7455 Oakland Dr.";"Portage";"MI";49024;"(877) 959-6679";;;
1015961;39923;"Mall Drive KinderCare";"416 Mall Dr. South";"Lansing";"MI";48917;"(877) 959-6679";;;
1014885;340631;"Plymouth Canton KinderCare";"7437 Sheldon Rd.";"Canton";"MI";48187;"(877) 959-6679";;;
1014727;42704;"Ann Arbor KinderCare";"2300 South Huron Pkwy";"Ann Arbor";"MI";48104;"(877) 959-6679";;;
1014644;41985;"Southfield KinderCare";"25761 Greenfield Rd.";"Southfield";"MI";48075;"(877) 959-6679";;;
1010547;216931;"East Irvington KinderCare";"1802 East Irvington Rd.";"Tucson";"AZ";85714;"(877) 959-6679";;;
1010546;216791;"East Mesa KinderCare";"9310 E Guadalupe Rd.";"Mesa";"AZ";85212;"(877) 959-6679";;;
1009397;215811;"Wandermere KinderCare";"1625 East Farwell Rd.";"Spokane";"WA";99208;"(877) 959-6679";;;
1009396;215471;"Sammamish KinderCare";"22931 NE 4th St.";"Sammamish";"WA";98074;"(877) 959-6679";;;
1009395;215841;"North Richland KinderCare";"2995 Einstein";"Richland";"WA";99354;"(877) 959-6679";;;
1009393;215211;"Bothell KinderCare";"15816 116th Ave. N.E.";"Bothell";"WA";98011;"(877) 959-6679";;;
1009392;215591;"Meridian KinderCare";"10221 152nd St. E";"Puyallup";"WA";98374;"(877) 959-6679";;;
1009390;215581;"Gig Harbor KinderCare";"3811 Grandview St.";"Gig Harbor";"WA";98335;"(877) 959-6679";;;
1009388;215771;"Yakima KinderCare";"5110 Summitview Ave.";"Yakima";"WA";98908;"(877) 959-6679";;;
1009387;215571;"Bremerton KinderCare";"7597 Concord Lane NE";"Bremerton";"WA";98311;"(877) 959-6679";;;
1009386;215631;"Tacoma KinderCare";"4715 S. 12th St.";"Tacoma";"WA";98405;"(877) 959-6679";;;
1008630;217781;"Roswell Road KinderCare";"8095 Roswell Rd.";"Atlanta";"GA";30350;"(877) 959-6679";;;
1008628;217911;"Suwanee KinderCare";"2725 Lawrenceville-Suwanee  Rd.";"Suwanee";"GA";30024;"(877) 959-6679";;;
1008627;217761;"Smyrna KinderCare";"555 Concord Rd. SE";"Smyrna";"GA";30082;"(877) 959-6679";;;
1008624;217731;"Lake Harbin KinderCare";"2048 Lake Harbin Rd.";"Morrow";"GA";30260;"(877) 959-6679";;;
1008623;221131;"Bentley KinderCare";"2675 Bentley Rd. SE";"Marietta";"GA";30067;"(877) 959-6679";;;
1008622;217721;"Old Chamblee-Tucker KinderCare";"3520 Old Chamblee-Tucker Rd.";"Atlanta";"GA";30340;"(877) 959-6679";;;
1008621;217711;"Jonesboro KinderCare";"273 Arrowhead Blvd.";"Jonesboro";"GA";30236;"(877) 959-6679";;;
1008620;217701;"Buford KinderCare";"2865 Buford Highway Northeast";"Atlanta";"GA";30329;"(877) 959-6679";;;
1008619;217901;"Barrett Parkway KinderCare";"2615 Bells Ferry Rd.";"Marietta";"GA";30066;"(877) 959-6679";;;
1008618;217891;"Towne Lake KinderCare";"3051 Parkbrooke Circle";"Woodstock";"GA";30189;"(877) 959-6679";;;
1008617;217881;"Sugarloaf Parkway KinderCare";"1720 Marathon Blvd.";"Lawrenceville";"GA";30045;"(877) 959-6679";;;
1008616;217871;"Bluegrass Valley KinderCare";"115 Bluegrass Valley Pkwy";"Alpharetta";"GA";30005;"(877) 959-6679";;;
1008615;217861;"Concourse Parkway KinderCare";"9 Concourse Pkwy Northeast";"Atlanta";"GA";30328;"(877) 959-6679";;;
1008614;217851;"Alpharetta KinderCare";"3580 Old Alabama Rd.";"Alpharetta";"GA";30022;"(877) 959-6679";;;
1008612;217831;"Powder Springs KinderCare";"2380 Powder Springs Rd. SW";"Marietta";"GA";30064;"(877) 959-6679";;;
1008611;217821;"Kennesaw KinderCare";"3670 Cherokee St.";"Kennesaw";"GA";30144;"(877) 959-6679";;;
1008610;217811;"Galleria Parkway KinderCare";"1650 Galleria Pkwy";"Atlanta";"GA";30339;"(877) 959-6679";;;
1008609;217801;"Liddell KinderCare";"2120 West Liddell Rd.";"Duluth";"GA";30096;"(877) 959-6679";;;
1008608;217791;"Riverdale KinderCare";"6960 Highway 85";"Riverdale";"GA";30274;"(877) 959-6679";;;
986898;217401;"Allen Street KinderCare";"4981 Metzler Way";"Castle Rock";"CO";80108;"(877) 959-6679";;;
981548;220481;"Farmington KinderCare";"1208 N. Shepard Creek Pkwy";"Farmington";"UT";84025;"(877) 959-6679";;;
976882;36448;"Washington Hospital KinderCare";"63-67 Wilson Ave.";"Washington";"PA";15301;"(877) 959-6679";;;
976796;34044;"West Chester KinderCare";"1154 West Chester Pike";"West Chester";"PA";19382;"(877) 959-6679";;;
976034;33295;"Aston KinderCare";"5016 Pennell Rd.";"Aston";"PA";19014;"(877) 959-6679";;;
975617;340561;"Marshfield KinderCare";"495 School St.";"Marshfield";"MA";2050;"(877) 959-6679";;;
975600;218681;"Mercantile KinderCare";"117 Atlantic Ave.";"Boston";"MA";2110;"(877) 959-6679";;;
975597;218671;"Wakefield KinderCare";"607 North Ave.";"Wakefield";"MA";1880;"(877) 959-6679";;;
975533;340851;"Brookline Knowledge Beginnings";"5 Brookline Place";"Brookline";"MA";2445;"(877) 959-6679";;;
975425;218741;"Daniel Lucy Way KinderCare";"1 Daniel Lucy Way";"Newburyport";"MA";1950;"(877) 959-6679";;;
975420;218591;"Marlborough KinderCare";"496 Boston Post Rd. East";"Marlborough";"MA";1752;"(877) 959-6679";;;
975418;340961;"Tewksbury Knowledge Beginnings";"200 Old Main St.";"Tewksbury";"MA";1876;"(877) 959-6679";;;
975414;340941;"Knowledge Beginnings South";"261 Billerica Rd.";"Chelmsford";"MA";1824;"(877) 959-6679";;;
975411;218541;"Westwood KinderCare";"411 Providence Highway";"Westwood";"MA";2090;"(877) 959-6679";;;
975410;218711;"Canton KinderCare";"440 Turnpike St.";"Canton";"MA";2021;"(877) 959-6679";;;
975406;340831;"Lexington Knowledge Beginnings";"429 Marrett Rd.";"Lexington";"MA";2421;"(877) 959-6679";;;
975390;340241;"Davis Square KinderCare";"18 Holland St. #48";"Somerville";"MA";2144;"(877) 959-6679";;;
975388;339901;"South Easton KinderCare";"533 Washington St.";"South Easton";"MA";2375;"(877) 959-6679";;;
975384;218361;"Hosmer Street KinderCare";"81 Hosmer St.";"Marlborough";"MA";1752;"(877) 959-6679";;;
975344;218481;"Congress Street KinderCare";"235 Congress St.";"Milford";"MA";1757;"(877) 959-6679";;;
961816;219181;"Dedeaux KinderCare";"15267 Dedeaux Rd.";"Gulfport";"MS";39503;"(877) 959-6679";;;
955710;218161;"Switzer Commons KinderCare";"13445 Switzer Rd.";"Overland Park";"KS";66221;"(877) 959-6679";;;
955707;218011;"Antioch KinderCare";"12521 Antioch Rd.";"Overland Park";"KS";66213;"(877) 959-6679";;;
955706;218151;"Overland Park South KinderCare";"7600 West 150th St.";"Overland Park";"KS";66223;"(877) 959-6679";;;
920069;219641;"Paradise Hills KinderCare";"9111 High Assets Way NW";"Albuquerque";"NM";87120;"(877) 959-6679";;;
910433;221151;"East Boston KinderCare";"9500 E. Boston";"Wichita";"KS";67207;"(877) 959-6679";;;
910421;218101;"Walnut Grove KinderCare";"1720 Walnut Grove Rd.";"Derby";"KS";67037;"(877) 959-6679";;;
910420;221161;"Augusta KinderCare";"1300 N. State St.";"Augusta";"KS";67010;"(877) 959-6679";;;
910417;218061;"Andover KinderCare";"836 N Andover Rd.";"Andover";"KS";67002;"(877) 959-6679";;;
910340;218091;"Thurman KinderCare";"8722 Thurman St.";"Wichita";"KS";67212;"(877) 959-6679";;;
910293;218121;"Hylton Heights KinderCare";"1205 Hylton Heights Rd.";"Manhattan";"KS";66502;"(877) 959-6679";;;
910289;218031;"Shawnee KinderCare";"6350 Long Ave.";"Shawnee";"KS";66216;"(877) 959-6679";;;
910285;218111;"Mastin Street KinderCare";"10456 Mastin St.";"Overland Park";"KS";66212;"(877) 959-6679";;;
910284;218141;"Overland Park KinderCare";"11842 West 112th St.";"Overland Park";"KS";66210;"(877) 959-6679";;;
910238;218071;"West 139th Street KinderCare";"16600 West 139th St.";"Olathe";"KS";66062;"(877) 959-6679";;;
910217;218131;"Crestline KinderCare";"2333 Crestline Dr.";"Lawrence";"KS";66047;"(877) 959-6679";;;
910208;218081;"Mary Street KinderCare";"100 East Mary St.";"Lansing";"KS";66043;"(877) 959-6679";;;
907424;217611;"Meadowood KinderCare";"50 South Meadowood Dr.";"Newark";"DE";19711;"(877) 959-6679";;;
907423;217571;"New Castle KinderCare";"327 Old State Rd.";"New Castle";"DE";19720;"(877) 959-6679";;;
907422;217591;"Naamans Road KinderCare";"2018-C Naamans Rd.";"Wilmington";"DE";19810;"(877) 959-6679";;;
907421;217621;"Hockessin KinderCare";"6696 Lancaster Pike";"Hockessin";"DE";19707;"(877) 959-6679";;;
907420;217581;"Pike Creek KinderCare";"3449 Hillock Lane";"Wilmington";"DE";19808;"(877) 959-6679";;;
907419;217601;"Casho Mill KinderCare";"1520 Casho Mill Rd.";"Newark";"DE";19711;"(877) 959-6679";;;
904318;220021;"Coburg Road KinderCare";"2506 Oakmont Way";"Eugene";"OR";97401;"(877) 959-6679";;;
903832;219971;"Powell KinderCare";"16915 Southeast Naegeli Dr.";"Portland";"OR";97236;"(877) 959-6679";;;
903709;220091;"Cedar Hills KinderCare";"165 SW Cedar Hills Blvd.";"Portland";"OR";97225;"(877) 959-6679";;;
903301;219951;"Clay Street KinderCare";"138 SW Clay St.";"Portland";"OR";97201;"(877) 959-6679";;;
903300;220101;"Downtown Portland KinderCare";"1400 SW 5th Ave.  Suite 100";"Portland";"OR";97201;"(877) 959-6679";;;
903173;220051;"Hillsboro KinderCare";"4600 Northeast Cornell Rd.";"Hillsboro";"OR";97124;"(877) 959-6679";;;
903016;219981;"West Linn KinderCare";"3020 Lazy River Dr.";"West Linn";"OR";97068;"(877) 959-6679";;;
902996;220011;"Tualatin KinderCare";"8140 SW Warm Springs St.";"Tualatin";"OR";97062;"(877) 959-6679";;;
902848;220031;"Lake Grove KinderCare";"3700 Red Cedar Way";"Lake Oswego";"OR";97035;"(877) 959-6679";;;
902847;219931;"Mountain Park KinderCare";"11 Monroe Pkwy";"Lake Oswego";"OR";97035;"(877) 959-6679";;;
902642;221261;"Baseline KinderCare";"18685 SW Baseline Rd.";"Beaverton";"OR";97006;"(877) 959-6679";;;
897190;219701;"Pebble Road KinderCare";"51 Office Park Dr.";"Henderson";"NV";89074;"(877) 959-6679";;;
897189;219681;"Green Valley KinderCare";"1901 N Green Valley Pkwy";"Henderson";"NV";89074;"(877) 959-6679";;;
894374;340931;"Lincoln Knowledge Beginnings";"6700 S. 32nd St.";"Lincoln";"NE";68516;"(877) 959-6679";;;
893519;219501;"Candlewood KinderCare";"1735 North 121st St.";"Omaha";"NE";68154;"(877) 959-6679";;;
893236;219491;"Sunnyslope KinderCare";"10625 Birch St.";"Omaha";"NE";68134;"(877) 959-6679";;;
893135;219511;"West Center KinderCare";"15990 Elm St.";"Omaha";"NE";68130;"(877) 959-6679";;;
893100;219471;"LaVista KinderCare";"8623 Brentwood Dr.";"La Vista";"NE";68128;"(877) 959-6679";;;
892114;219481;"Bellevue KinderCare";"2007 Smith Rd.";"Bellevue";"NE";68005;"(877) 959-6679";;;
883743;220721;"Neenah KinderCare";"776 Birch St.";"Neenah";"WI";54956;"(877) 959-6679";;;
883721;220761;"Appleton KinderCare";"2407 South Oneida St.";"Appleton";"WI";54915;"(877) 959-6679";;;
883565;220951;"North Grandview KinderCare";"2707 North Grandview Blvd.";"Waukesha";"WI";53188;"(877) 959-6679";;;
883539;220621;"North Waukesha KinderCare";"1705 Pine St.";"Waukesha";"WI";53188;"(877) 959-6679";;;
883535;220561;"Beloit Road KinderCare";"13000 W Beloit Rd.";"New Berlin";"WI";53151;"(877) 959-6679";;;
883534;220641;"Pewaukee KinderCare";"1288 Capitol Dr.";"Pewaukee";"WI";53072;"(877) 959-6679";;;
883520;220941;"Bluemound Road KinderCare";"18205 West Bluemound Rd.";"Brookfield";"WI";53045;"(877) 959-6679";;;
883519;220521;"Delafield KinderCare";"3175 Hillside Dr.";"Delafield";"WI";53018;"(877) 959-6679";;;
883498;220851;"Capitol & Calhoun KinderCare";"4080 North Calhoun Rd.";"Brookfield";"WI";53005;"(877) 959-6679";;;
883454;220861;"Sunset Drive KinderCare";"125 East Sunset Dr.";"Waukesha";"WI";53189;"(877) 959-6679";;;
883418;220791;"New Berlin KinderCare";"15340 West National Ave.";"New Berlin";"WI";53151;"(877) 959-6679";;;
883106;220971;"Hudson KinderCare";"2600 Center Dr.";"Hudson";"WI";54016;"(877) 959-6679";;;
882996;220801;"Sheboygan KinderCare";"3706 South 12th St.";"Sheboygan";"WI";53081;"(877) 959-6679";;;
882767;220741;"Janesville KinderCare";"3327 East Milwaukee St.";"Janesville";"WI";53546;"(877) 959-6679";;;
882649;220881;"Racine KinderCare";"700 Three Mile Rd.";"Racine";"WI";53402;"(877) 959-6679";;;
882315;220501;"Cedarburg KinderCare";"W 62 N 218 Washington Ave.";"Cedarburg";"WI";53012;"(877) 959-6679";;;
882250;220731;"Metro Drive KinderCare";"322 N. Metro Dr.";"Appleton";"WI";54913;"(877) 959-6679";;;
882249;220581;"Kimberly KinderCare";"749 Truman St.";"Kimberly";"WI";54136;"(877) 959-6679";;;
882240;220911;"Ballard Road KinderCare";"3036 North Ballard Rd.";"Appleton";"WI";54911;"(877) 959-6679";;;
881989;220831;"Greendale KinderCare";"5230 West Loomis Rd.";"Greendale";"WI";53129;"(877) 959-6679";;;
881988;220931;"Park Place KinderCare";"10715 West Park Place";"Milwaukee";"WI";53224;"(877) 959-6679";;;
881919;220891;"South Milwaukee KinderCare";"1801 East College Ave.";"South Milwaukee";"WI";53172;"(877) 959-6679";;;
881761;220631;"Oak Creek KinderCare";"7677 South Howell Ave.";"Oak Creek";"WI";53154;"(877) 959-6679";;;
881641;220691;"27th Street KinderCare";"4854 S. 27th St.";"Milwaukee";"WI";53221;"(877) 959-6679";;;
881633;220661;"76th Street KinderCare";"6835 N. 76th St.";"Milwaukee";"WI";53223;"(877) 959-6679";;;
881581;220571;"Hales Corners KinderCare";"6350 South 108thSt/Hwy 100";"Franklin";"WI";53132;"(877) 959-6679";;;
880665;220771;"Schofield KinderCare";"5201 Alderson St.";"Schofield";"WI";54476;"(877) 959-6679";;;
879826;220871;"Eau Claire KinderCare";"2115 Fairfax St.";"Eau Claire";"WI";54701;"(877) 959-6679";;;
879624;220751;"Raymond Road KinderCare";"6726 Raymond Rd.";"Madison";"WI";53719;"(877) 959-6679";;;
879468;220921;"Old Sauk Road KinderCare";"7126 Old Sauk Rd.";"Madison";"WI";53717;"(877) 959-6679";;;
878859;220591;"Ledgeview KinderCare";"1553 Arcadian Ln.";"De Pere";"WI";54115;"(877) 959-6679";;;
878802;220811;"Green Bay West KinderCare";"1101 South Taylor St.";"Green Bay";"WI";54304;"(877) 959-6679";;;
878793;220781;"Green Bay East KinderCare";"2280 Finger Rd.";"Green Bay";"WI";54302;"(877) 959-6679";;;
878785;220511;"Cormier KinderCare";"786 Cormier Rd.";"Green Bay";"WI";54304;"(877) 959-6679";;;
878783;220531;"De Pere KinderCare";"784 Scheuring Rd.";"De Pere";"WI";54115;"(877) 959-6679";;;
878782;220491;"Bellevue KinderCare";"1510 Bellevue St";"Green Bay";"WI";54302;"(877) 959-6679";;;
878780;220651;"Security KinderCare";"600 Security Blvd.";"Green Bay";"WI";54313;"(877) 959-6679";;;
869822;217491;"Danbury KinderCare";"123 South King St.";"Danbury";"CT";6811;"(877) 959-6679";;;
869803;217501;"Bethel KinderCare";"174 Old Hawleyville Rd.";"Bethel";"CT";6801;"(877) 959-6679";;;
869773;217461;"Torrington KinderCare";"1260 Winsted Rd.";"Torrington";"CT";6790;"(877) 959-6679";;;
869754;217561;"KinderCare of New Milford";"204 Danbury Rd.";"New Milford";"CT";6776;"(877) 959-6679";;;
869565;217531;"Mt. Carmel KinderCare";"3025 Dixwell Ave.";"Hamden";"CT";6518;"(877) 959-6679";;;
869497;340121;"New Haven KinderCare";"555 Long Wharf Dr.";"New Haven";"CT";6511;"(877) 959-6679";;;
869398;217541;"Shelton KinderCare";"1 Trap Falls Rd.";"Shelton";"CT";6484;"(877) 959-6679";;;
869354;217481;"Oxford KinderCare";"35 Old State Rd. 67";"Oxford";"CT";6478;"(877) 959-6679";;;
869328;339701;"North Haven KinderCare";"70-A Washington Ave.";"North Haven";"CT";6473;"(877) 959-6679";;;
869305;217451;"Moodus KinderCare";"99 Leesville Rd.";"Moodus";"CT";6469;"(877) 959-6679";;;
869299;217521;"Monroe KinderCare";"304 Elm St.";"Monroe";"CT";6468;"(877) 959-6679";;;
869272;340171;"Milford KinderCare";"39 Wellington Rd.";"Milford";"CT";6460;"(877) 959-6679";;;
869224;340081;"Meriden KinderCare";"12 Johnson Ave.";"Meriden";"CT";6451;"(877) 959-6679";;;
869178;340131;"Guilford KinderCare";"1445 Boston Post Rd.";"Guilford";"CT";6437;"(877) 959-6679";;;
869160;340061;"Essex KinderCare";"158 Westbrook Rd.";"Essex";"CT";6426;"(877) 959-6679";;;
869132;340141;"Cromwell KinderCare";"146 Berlin Rd.";"Cromwell";"CT";6416;"(877) 959-6679";;;
869089;340071;"Cheshire KinderCare";"1544 Byam Rd.";"Cheshire";"CT";6410;"(877) 959-6679";;;
869065;340111;"Ansonia KinderCare";"219 Division St.";"Ansonia";"CT";6401;"(877) 959-6679";;;
868848;339911;"Newington KinderCare";"143 Pascone Place";"Newington";"CT";6111;"(877) 959-6679";;;
868713;339761;"South Windsor KinderCare";"494 Chapel Rd.";"South Windsor";"CT";6074;"(877) 959-6679";;;
868689;340161;"Cromwell Avenue KinderCare";"303 Cromwell Ave.";"Rocky Hill";"CT";6067;"(877) 959-6679";;;
868630;217511;"Manchester KinderCare";"481 Spring St.";"Manchester";"CT";6040;"(877) 959-6679";;;
868585;339981;"Glastonbury KinderCare";"30 Nutmeg Lane";"Glastonbury";"CT";6033;"(877) 959-6679";;;
868573;340051;"House Street KinderCare";"194 House St.";"Glastonbury";"CT";6033;"(877) 959-6679";;;
868570;340191;"Farmington KinderCare";"35 South Rd.";"Farmington";"CT";6032;"(877) 959-6679";;;
868564;340101;"Scott Swamp KinderCare";"197 Scott Swamp Rd.";"Farmington";"CT";6032;"(877) 959-6679";;;
859512;219581;"Portsmouth KinderCare";"72 Mirona Rd.";"Portsmouth";"NH";3801;"(877) 959-6679";;;
859069;221231;"Bedford KinderCare";"3 Upjohn St.";"Bedford";"NH";3110;"(877) 959-6679";;;
858903;340581;"Nashua Deerwood Dr. KinderCare";"71 Deerwood Dr.";"Nashua";"NH";3063;"(877) 959-6679";;;
858875;219561;"Nashua KinderCare";"3 Holiday Circle";"Nashua";"NH";3062;"(877) 959-6679";;;
858829;219571;"Merrimack KinderCare";"4 Continental Blvd.";"Merrimack";"NH";3054;"(877) 959-6679";;;
858801;340151;"Londonderry KinderCare";"7 Garden Lane";"Londonderry";"NH";3053;"(877) 959-6679";;;
850605;217151;"Longmont KinderCare";"851 Crisman Dr.";"Longmont";"CO";80501;"(877) 959-6679";;;
848506;341041;"Stapleton Knowledge Beginnings";"10325 E 31st Ave.";"Denver";"CO";80238;"(877) 959-6679";;;
848466;217391;"Himalaya KinderCare";"5678 South Himalaya St.";"Aurora";"CO";80015;"(877) 959-6679";;;
848465;217201;"South Federal KinderCare";"5472 South Federal Circle";"Littleton";"CO";80123;"(877) 959-6679";;;
848454;217181;"Denver KinderCare";"2200 South Holly St.";"Denver";"CO";80222;"(877) 959-6679";;;
848433;217321;"Canyon Point KinderCare";"107 North Rubey Dr.";"Golden";"CO";80403;"(877) 959-6679";;;
848421;340351;"Industrial Way KinderCare";"4721 N Industrial Way";"Castle Rock";"CO";80104;"(877) 959-6679";;;
848418;340421;"Eagle Ridge KinderCare";"18601 Eagle Ridge Dr.";"Golden";"CO";80401;"(877) 959-6679";;;
848370;340921;"Englewood Knowledge Beginnings";"11796 East Oswego St.";"Englewood";"CO";80112;"(877) 959-6679";;;
848368;217271;"Louisville KinderCare";"107 McCaslin Blvd";"Louisville";"CO";80027;"(877) 959-6679";;;
848341;319641;"Greeley KinderCare";"4059 W 11th ST";"Greeley";"CO";80634;"(877) 959-6679";;;
848341;339791;"Greeley KinderCare";"4059 West 11th St.";"Greeley";"CO";80634;"(877) 959-6679";;;
848333;217361;"Westgate KinderCare";"4755 Royal Vista Circle";"Fort Collins";"CO";80528;"(877) 959-6679";;;
848329;221021;"Lafayette KinderCare";"1305 Plaza Court North";"Lafayette";"CO";80026;"(877) 959-6679";;;
848325;217341;"Miramonte KinderCare";"1045 Opal Street";"Broomfield";"CO";80020;"(877) 959-6679";;;
848278;217131;"Arvada West KinderCare";"6255 Simms St.";"Arvada";"CO";80004;"(877) 959-6679";;;
848269;319381;"Coal Mine KinderCare";"9501 W Coal Mine";"Littleton";"CO";80123;"(877) 959-6679";;;
848269;339531;"Coal Mine KinderCare";"9501 West Coal Mine Ave.";"Littleton";"CO";80123;"(877) 959-6679";;;
848241;217291;"West Woods KinderCare";"14449 West 63rd Place";"Arvada";"CO";80004;"(877) 959-6679";;;
848235;221111;"Arvada Lee Drive KinderCare";"8020 Lee Dr.";"Arvada";"CO";80005;"(877) 959-6679";;;
848213;3359;"West Highland KinderCare";"3501 W. Highland Pl.";"Westminster";"CO";80030;"(877) 959-6679";;;
848129;217191;"Chatfield KinderCare";"6923 West Chatfield Ave.";"Littleton";"CO";80128;"(877) 959-6679";;;
848093;221031;"Loveland KinderCare";"2755 N. Garfield Ave.";"Loveland";"CO";80538;"(877) 959-6679";;;
837838;220161;"Cool Springs KinderCare";"208 Seaboard Lane";"Franklin";"TN";37067;"(877) 959-6679";;;
837454;220351;"Goodlettsville KinderCare";"1025 Jackson Rd.";"Goodlettsville";"TN";37072;"(877) 959-6679";;;
837453;220311;"Hendersonville KinderCare";"138 Maple Row Blvd.";"Hendersonville";"TN";37075;"(877) 959-6679";;;
837374;220281;"Kingsport KinderCare";"2000 American Way";"Kingsport";"TN";37660;"(877) 959-6679";;;
836607;220381;"Ridgeway KinderCare";"2941 Ridgeway Rd.";"Memphis";"TN";38115;"(877) 959-6679";;;
836606;220211;"Raines Road KinderCare";"6424 Raines Rd.";"Memphis";"TN";38115;"(877) 959-6679";;;
836605;220201;"Pleasant View KinderCare";"5740 Pleasant View Rd.";"Memphis";"TN";38134;"(877) 959-6679";;;
836604;220181;"Knight Arnold KinderCare";"5960 Knight Arnold Rd.";"Memphis";"TN";38115;"(877) 959-6679";;;
836603;220191;"Mount Moriah KinderCare";"5735 Mt. Moriah Rd.";"Memphis";"TN";38115;"(877) 959-6679";;;
836583;220221;"Winchester KinderCare";"4344 Winchester Rd.";"Memphis";"TN";38118;"(877) 959-6679";;;
836582;220271;"Yale Road KinderCare";"4400 Yale Rd.";"Memphis";"TN";38128;"(877) 959-6679";;;
836581;220331;"Cordova KinderCare";"771 Walnut Knoll Lane";"Cordova";"TN";38018;"(877) 959-6679";;;
836329;220401;"Christian Kids KinderCare";"3038 Johnson Rd.";"Germantown";"TN";38139;"(877) 959-6679";;;
836015;220261;"Sloan Street KinderCare";"1239 Sloan St.";"Murfreesboro";"TN";37130;"(877) 959-6679";;;
834939;220341;"Bluegrass KinderCare";"8908 Bluegrass Rd.";"Knoxville";"TN";37922;"(877) 959-6679";;;
833727;220151;"Bell Road KinderCare";"592 Bell Rd.";"Antioch";"TN";37013;"(877) 959-6679";;;
833726;220171;"Hermitage KinderCare";"4771 Andrew Jackson Pkwy";"Hermitage";"TN";37076;"(877) 959-6679";;;
833722;220371;"Swiss Avenue KinderCare";"410 Swiss Ave.";"Nashville";"TN";37211;"(877) 959-6679";;;
833159;220391;"Maryville KinderCare";"1752 West Lamar Alexander Pkwy";"Maryville";"TN";37801;"(877) 959-6679";;;
823730;340221;"KinderCare of Avon";"35680 Detroit Rd.";"Avon";"OH";44011;"(877) 959-6679";;;
823729;4199;"Medina Road KinderCare";"3330 Medina Rd.";"Medina";"OH";44256;"(877) 959-6679";;;
823727;340321;"Blue Ash KinderCare";"9455 Plainfield Rd.";"Cincinnati";"OH";45236;"(877) 959-6679";;;
823725;4364;"KinderCare Old Salem";"4000 Old Salem Rd.";"Englewood";"OH";45322;"(877) 959-6679";;;
823723;424;"Indian Springs KinderCare";"7939 Morris Rd.";"Hamilton";"OH";45011;"(877) 959-6679";;;
823720;155;"Cornell Road KinderCare";"4500 Cornell Rd.";"Cincinnati";"OH";45241;"(877) 959-6679";;;
823719;340571;"Milford KinderCare";"5857 Cinema Dr";"Milford";"OH";45150;"(877) 959-6679";;;
823718;2927;"Charring Cross KinderCare";"574 Charring Cross Dr.";"Westerville";"OH";43081;"(877) 959-6679";;;
823717;339801;"S. Cleveland Ave. KinderCare";"55 South Cleveland Ave.";"Westerville";"OH";43081;"(877) 959-6679";;;
823716;4415;"Centerville KinderCare";"1074 Governour's Square Dr.";"Dayton";"OH";45458;"(877) 959-6679";;;
823715;4205;"Brunswick KinderCare";"1211 Pearl Rd.";"Brunswick";"OH";44212;"(877) 959-6679";;;
823714;5006;"Hudson KinderCare";"53 Milford Rd.";"Hudson";"OH";44236;"(877) 959-6679";;;
823712;4201;"Wadsworth KinderCare";"135 Smokerise Dr.";"Wadsworth";"OH";44281;"(877) 959-6679";;;
823711;4414;"Burkhardt Road KinderCare";"5387 Burkhardt Rd.";"Dayton";"OH";45431;"(877) 959-6679";;;
823710;339521;"Middletown KinderCare";"1250 Elliott Dr.";"Middletown";"OH";45044;"(877) 959-6679";;;
823709;3891;"Springfield KinderCare";"1561 Henthorne Dr.";"Maumee";"OH";43537;"(877) 959-6679";;;
823708;339741;"Bethel Road KinderCare";"2001 Bethel Rd.";"Columbus";"OH";43220;"(877) 959-6679";;;
823705;339731;"Mentor South KinderCare";"7061 Wayside Dr.";"Mentor";"OH";44060;"(877) 959-6679";;;
823704;4198;"South Medina KinderCare";"190 Northland Dr.";"Medina";"OH";44256;"(877) 959-6679";;;
823702;606;"Arborwood KinderCare";"9959 Arborwood Dr.";"Cincinnati";"OH";45251;"(877) 959-6679";;;
823701;16136;"Harrison KinderCare";"1190 Stone Dr.";"Harrison";"OH";45030;"(877) 959-6679";;;
823700;2646;"Cleveland Ave KinderCare";"5351 Cleveland Ave.";"Columbus";"OH";43231;"(877) 959-6679";;;
823699;339681;"Reynoldsburg KinderCare";"6601 Bartlett Rd.";"Reynoldsburg";"OH";43068;"(877) 959-6679";;;
823698;469;"Loveland KinderCare";"10695 Loveland-Madeira Rd.";"Loveland";"OH";45140;"(877) 959-6679";;;
823697;4413;"Vandalia KinderCare";"8906 North Dixie Dr.";"Dayton";"OH";45414;"(877) 959-6679";;;
823696;2385;"Xenia KinderCare";"2025 Bellbrook Ave.";"Xenia";"OH";45385;"(877) 959-6679";;;
823695;2645;"Cherry Creek KinderCare";"550 Fox Ridge St.";"Columbus";"OH";43228;"(877) 959-6679";;;
823694;2260;"Stonecreek Road KinderCare";"12910 Stonecreek Dr. Northwest";"Pickerington";"OH";43147;"(877) 959-6679";;;
823693;339641;"Hamilton Avenue KinderCare";"10991 Hamilton Ave.";"Cincinnati";"OH";45231;"(877) 959-6679";;;
823692;339631;"Kemper Road KinderCare";"1459 East Kemper Rd.";"Cincinnati";"OH";45246;"(877) 959-6679";;;
823691;339621;"Mentor North KinderCare";"6145 Meadowbrook Dr.";"Mentor";"OH";44060;"(877) 959-6679";;;
823690;339611;"Maple Heights KinderCare";"5890 Lee Rd. South";"Maple Heights";"OH";44137;"(877) 959-6679";;;
823689;2928;"County Line Road KinderCare";"1255 County Line Rd.";"Westerville";"OH";43081;"(877) 959-6679";;;
823687;5027;"Richfield KinderCare";"4195 Kinross Lakes Pkwy";"Richfield";"OH";44286;"(877) 959-6679";;;
823686;2899;"Berry Leaf KinderCare";"3885 Berry Leaf Lane";"Hilliard";"OH";43026;"(877) 959-6679";;;
823685;2259;"Pickerington KinderCare";"1545 Cross Creeks Blvd.";"Pickerington";"OH";43147;"(877) 959-6679";;;
823682;339601;"Derr Road KinderCare";"4560 Derr Rd.";"Springfield";"OH";45503;"(877) 959-6679";;;
823680;3898;"Sylvania KinderCare";"6367 River Crossings";"Sylvania";"OH";43560;"(877) 959-6679";;;
823678;2512;"Solon KinderCare";"6140 Kruse Dr.";"Solon";"OH";44139;"(877) 959-6679";;;
823675;339921;"Mount Carmel KinderCare";"5959 East Broad St.";"Columbus";"OH";43213;"(877) 959-6679";;;
823674;3890;"Maumee KinderCare";"125 Chesterfield Lane";"Maumee";"OH";43537;"(877) 959-6679";;;
823673;5506;"Perrysburg KinderCare";"610 West South Boundary St.";"Perrysburg";"OH";43551;"(877) 959-6679";;;
823672;339871;"Shannon Heights KinderCare";"5757 Shannon Heights Blvd.";"Dublin";"OH";43016;"(877) 959-6679";;;
823670;2852;"Tara Hill KinderCare";"6036 Tara Hill Dr.";"Dublin";"OH";43017;"(877) 959-6679";;;
823669;4455;"Englewood KinderCare";"418 West Wenger Rd.";"Englewood";"OH";45322;"(877) 959-6679";;;
823668;339851;"Centennial KinderCare";"6477 Centennial Dr.";"Reynoldsburg";"OH";43068;"(877) 959-6679";;;
823667;4412;"Brandt Pike KinderCare";"7161 Brandt Pike";"Dayton";"OH";45424;"(877) 959-6679";;;
823665;3718;"Elyria KinderCare";"1216 Abbe Rd. North";"Elyria";"OH";44035;"(877) 959-6679";;;
823664;3932;"Holland-Sylvania KinderCare";"2812 North Holland Sylvania Rd.";"Toledo";"OH";43615;"(877) 959-6679";;;
823661;2686;"Sunbury KinderCare";"1231 Sunbury Rd.";"Westerville";"OH";43081;"(877) 959-6679";;;
823659;2687;"Huber Village KinderCare";"861 Eastwind Dr.";"Westerville";"OH";43081;"(877) 959-6679";;;
823658;340731;"West Chester KinderCare";"7819 West Chester Rd.";"West Chester";"OH";45069;"(877) 959-6679";;;
823657;5035;"Twinsburg KinderCare";"2572 Glenwood Dr";"Twinsburg";"OH";44087;"(877) 959-6679";;;
823656;2920;"Tussing Road KinderCare";"6720 Tussing Rd.";"Reynoldsburg";"OH";43068;"(877) 959-6679";;;
823655;3637;"Taylor Road KinderCare";"8295 Taylor Rd. SW";"Reynoldsburg";"OH";43068;"(877) 959-6679";;;
823651;2680;"New Albany KinderCare";"5524 New Albany Road East";"New Albany";"OH";43054;"(877) 959-6679";;;
823648;340181;"Macedonia KinderCare";"926 E. Aurora Rd.";"Macedonia";"OH";44056;"(877) 959-6679";;;
823647;2161;"Polaris Parkway KinderCare";"8694 Oak Creek Dr.";"Lewis Center";"OH";43035;"(877) 959-6679";;;
823646;5005;"Hudson Darrow Road KinderCare";"5812 Darrow Rd.";"Hudson";"OH";44236;"(877) 959-6679";;;
823645;2896;"Cemetery Road KinderCare";"4780 Cemetery Rd.";"Hilliard";"OH";43026;"(877) 959-6679";;;
823644;2898;"Avery Road KinderCare";"4705 Avery Rd.";"Hilliard";"OH";43026;"(877) 959-6679";;;
823643;2897;"Ridge Mill KinderCare";"3700 Ridge Mill Dr.";"Hilliard";"OH";43026;"(877) 959-6679";;;
823641;2882;"Grove City KinderCare";"2274 Stringtown Rd.";"Grove City";"OH";43123;"(877) 959-6679";;;
823640;2878;"Norton Road KinderCare";"1145 Norton Rd.";"Galloway";"OH";43119;"(877) 959-6679";;;
823637;340701;"Tuttle Crossing KinderCare";"4960 Parkcenter Ave.";"Dublin";"OH";43017;"(877) 959-6679";;;
823635;4411;"Bufort Blvd KinderCare";"4700 Bufort Blvd.";"Dayton";"OH";45424;"(877) 959-6679";;;
823634;4994;"Cuyahoga Falls KinderCare";"3100 State Rd.";"Cuyahoga Falls";"OH";44223;"(877) 959-6679";;;
823633;340741;"West Broad KinderCare";"5381 West Broad St.";"Columbus";"OH";43228;"(877) 959-6679";;;
823632;340041;"Yearling Road KinderCare";"173 S Yearling Rd.";"Columbus";"OH";43213;"(877) 959-6679";;;
823631;340411;"Dublin Granville KinderCare";"2960 E Dublin Granville Rd.";"Columbus";"OH";43231;"(877) 959-6679";;;
823630;340661;"Sawmill Road KinderCare";"4895 Sawmill Rd.";"Columbus";"OH";43235;"(877) 959-6679";;;
823629;340511;"Kimberly Parkway KinderCare";"4235 Kimberly Pkwy North";"Columbus";"OH";43232;"(877) 959-6679";;;
823627;340691;"Tamarack KinderCare";"1955 Tamarack Circle North";"Columbus";"OH";43229;"(877) 959-6679";;;
823626;340311;"Beechmont KinderCare";"7775 Five Mile Rd.";"Cincinnati";"OH";45230;"(877) 959-6679";;;
823625;340401;"Delhi KinderCare";"921 Anderson Ferry Rd.";"Cincinnati";"OH";45238;"(877) 959-6679";;;
823624;1704;"Beachwood KinderCare";"24753 Chagrin Blvd";"Beachwood";"OH";44122;"(877) 959-6679";;;
823624;340211;"Beachwood KinderCare";"24753 Chagrin Blvd.";"Beachwood";"OH";44122;"(877) 959-6679";;;
823623;4979;"Barberton KinderCare";"111 5th St. SE";"Barberton";"OH";44203;"(877) 959-6679";;;
823622;4940;"Green KinderCare";"3405 Massillon Rd.";"Akron";"OH";44312;"(877) 959-6679";;;
823620;339971;"Lewis Center KinderCare";"96 Neverland Dr.";"Lewis Center";"OH";43035;"(877) 959-6679";;;
823619;4410;"Rahn Road KinderCare";"951 East Rahn Rd.";"Dayton";"OH";45429;"(877) 959-6679";;;
823618;1907;"Westlake KinderCare";"30850 Viking Pkwy";"Westlake";"OH";44145;"(877) 959-6679";;;
823617;340711;"Wetherington KinderCare";"7236 Tylers Corner Dr.";"West Chester";"OH";45069;"(877) 959-6679";;;
823608;3712;"Avon Lake KinderCare";"407 Lear Rd.";"Avon Lake";"OH";44012;"(877) 959-6679";;;
813478;188541;"Rogers KinderCare";"14080 Northdale Blvd.";"Rogers";"MN";55374;"(877) 959-6679";;;
813235;188511;"Chanhassen KinderCare";"2800 Corporate Place";"Chanhassen";"MN";55317;"(877) 959-6679";;;
813196;188501;"Shakopee Valley KinderCare";"1308 Greenwood Ct.";"Shakopee";"MN";55379;"(877) 959-6679";;;
813122;188471;"Rochester Knowledge Beginnings";"2801 Superior Dr. NW";"Rochester";"MN";55901;"(877) 959-6679";;;
813035;188451;"Burnsville KinderCare";"1888 East 134th St.";"Burnsville";"MN";55337;"(877) 959-6679";;;
813025;188441;"Prior Lake Savage KinderCare";"14014 Highway 13 South";"Savage";"MN";55378;"(877) 959-6679";;;
812908;188401;"Shannon Park KinderCare";"15080 Shannon Pkwy";"Rosemount";"MN";55068;"(877) 959-6679";;;
812892;188391;"Andover KinderCare";"1485 Bunker Lake Blvd. NW";"Andover";"MN";55304;"(877) 959-6679";;;
812794;188331;"Eden Prairie KinderCare";"12760 Anderson Lakes Pkwy";"Eden Prairie";"MN";55344;"(877) 959-6679";;;
812749;188311;"Champlin KinderCare";"202 E Hayden Lake Rd.";"Champlin";"MN";55316;"(877) 959-6679";;;
812299;188291;"Excelsior KinderCare";"17701 Old Excelsior Blvd.";"Minnetonka";"MN";55345;"(877) 959-6679";;;
812290;188241;"Cottage Grove KinderCare";"8453 East Point Douglas Rd.";"Cottage Grove";"MN";55016;"(877) 959-6679";;;
812284;188181;"Stillwater KinderCare";"6740 Stillwater Blvd. North";"Stillwater";"MN";55082;"(877) 959-6679";;;
812280;188141;"Kenrick Avenue KinderCare";"17455 Kenrick Ave.";"Lakeville";"MN";55044;"(877) 959-6679";;;
812152;188071;"Southwest KinderCare";"3708 W. 44th St.";"Minneapolis";"MN";55410;"(877) 959-6679";;;
812139;340721;"University KinderCare";"525 Huron Blvd. South East";"Minneapolis";"MN";55414;"(877) 959-6679";;;
812128;187961;"Burnsville West KinderCare";"1800 Greenwood Dr.";"Burnsville";"MN";55337;"(877) 959-6679";;;
785720;71141;"North Elston KinderCare";"3855 North Elston";"Chicago";"IL";60618;"(877) 959-6679";;;
785443;65991;"Clybourn KinderCare";"1733 N. Marcey St.";"Chicago";"IL";60614;"(877) 959-6679";;;
785265;65041;"South Loop Kindercare";"1501 South State St";"Chicago";"IL";60605;"(877) 959-6679";;;
785101;83201;"East Riverside KinderCare";"6473 East Riverside Blvd.";"Rockford";"IL";61114;"(877) 959-6679";;;
785002;96811;"Rockford KinderCare";"308 N. Mulford Rd.";"Rockford";"IL";61107;"(877) 959-6679";;;
785000;96801;"Maray Drive KinderCare";"4345 Maray Dr.";"Rockford";"IL";61107;"(877) 959-6679";;;
784435;108541;"New Lenox KinderCare";"507 E. Illinois Hwy.";"New Lenox";"IL";60451;"(877) 959-6679";;;
784427;71071;"East Naperville KinderCare";"380 West 87th St.";"Naperville";"IL";60565;"(877) 959-6679";;;
784409;72781;"Ace Lane KinderCare";"5051 Ace Lane";"Naperville";"IL";60564;"(877) 959-6679";;;
784161;96471;"Weber Road KinderCare";"895 S. Weber Rd.";"Bolingbrook";"IL";60490;"(877) 959-6679";;;
784072;64091;"Barbers Corner KinderCare";"130 Barbers Corner";"Bolingbrook";"IL";60440;"(877) 959-6679";;;
781402;72321;"McHenry KinderCare";"4717 West Crystal Lake Rd.";"Mchenry";"IL";60050;"(877) 959-6679";;;
781328;63921;"KinderCare of Huntley";"12581 Princeton Dr.";"Huntley";"IL";60142;"(877) 959-6679";;;
781277;74591;"Crystal Lake KinderCare";"645 Dakota St.";"Crystal Lake";"IL";60012;"(877) 959-6679";;;
781258;70091;"Cary Grove KinderCare";"324 Crystal St.";"Cary";"IL";60013;"(877) 959-6679";;;
781249;72671;"Randall Road KinderCare";"501 Rolls Dr.";"Algonquin";"IL";60102;"(877) 959-6679";;;
780190;72571;"Phillip Road KinderCare";"5 E. Phillip Rd.";"Vernon Hills";"IL";60061;"(877) 959-6679";;;
780037;76271;"Mundelein Meadows KinderCare";"800 S. IL Route 83";"Mundelein";"IL";60060;"(877) 959-6679";;;
780001;75051;"Mundelein KinderCare";"695 S. IL Route 83";"Mundelein";"IL";60060;"(877) 959-6679";;;
779861;72231;"Brookhaven KinderCare";"4574 Brookhaven Rd.";"Gurnee";"IL";60031;"(877) 959-6679";;;
779857;74641;"Hunt Club KinderCare";"6480 Gurnee Mills Circle W";"Gurnee";"IL";60031;"(877) 959-6679";;;
779805;64101;"Center Street KinderCare";"130 South Atkinson Rd.";"Grayslake";"IL";60030;"(877) 959-6679";;;
779781;76621;"Christian Beginnings";"824 Waukegan Rd";"Deerfield";"IL";60015;"(877) 959-6679";;;
779769;74681;"Buffalo Grove KinderCare";"651 Deerfield Pkwy";"Buffalo Grove";"IL";60089;"(877) 959-6679";;;
779606;61591;"West Oswego KinderCare";"100 Pfund Ct.";"Oswego";"IL";60543;"(877) 959-6679";;;
779377;71551;"Wasco KinderCare";"40 W 170 LaFox Rd.";"Saint Charles";"IL";60175;"(877) 959-6679";;;
779352;63891;"Spring Street KinderCare";"1250 W. Spring St.";"South Elgin";"IL";60177;"(877) 959-6679";;;
779306;68131;"West Geneva KinderCare";"2323 Fargo Blvd.";"Geneva";"IL";60134;"(877) 959-6679";;;
779287;68471;"South Street KinderCare";"2485 South St";"Elgin";"IL";60123;"(877) 959-6679";;;
779280;65141;"Main Lane KinderCare";"1520 Main Lane";"Elgin";"IL";60123;"(877) 959-6679";;;
779274;68261;"Bowes Road KinderCare";"2395 Bowes Rd.";"Elgin";"IL";60123;"(877) 959-6679";;;
779234;65061;"Batavia KinderCare";"1505 S. Batavia Ave.";"Batavia";"IL";60510;"(877) 959-6679";;;
779212;76241;"Constitution KinderCare";"80 South Constitution Dr.";"Aurora";"IL";60506;"(877) 959-6679";;;
778451;75851;"Woodridge South KinderCare";"7450 N. Woodward Ave.";"Woodridge";"IL";60517;"(877) 959-6679";;;
778450;75271;"Woodridge North KinderCare";"7040 N. Woodward Ave.";"Woodridge";"IL";60517;"(877) 959-6679";;;
778438;69181;"Winfield KinderCare";"27W151 Geneva Rd.";"Winfield";"IL";60190;"(877) 959-6679";;;
778429;75171;"Willowbrook KinderCare";"700 Plainfield Rd.";"Willowbrook";"IL";60527;"(877) 959-6679";;;
778423;61511;"Wheaton KinderCare";"100 East Loop Rd.";"Wheaton";"IL";60187;"(877) 959-6679";;;
778379;67121;"West Chicago KinderCare";"2044 Franciscan Way";"West Chicago";"IL";60185;"(877) 959-6679";;;
778326;62481;"West Roselle KinderCare";"1080 W. Lake St.";"Roselle";"IL";60172;"(877) 959-6679";;;
778305;76481;"W 75th St Knowledge Beginnings";"812 W. 75th St.";"Naperville";"IL";60540;"(877) 959-6679";;;
778283;80961;"West Naperville KinderCare";"4335 Montgomery Rd.";"Naperville";"IL";60564;"(877) 959-6679";;;
778275;340591;"Benedetti Drive KinderCare";"889 Benedetti Dr.";"Naperville";"IL";60563;"(877) 959-6679";;;
778267;63791;"Naperville West KinderCare";"1228 W. Ogden Ave.";"Naperville";"IL";60563;"(877) 959-6679";;;
778249;65301;"Naperville KinderCare";"1550 West Diehl Rd.";"Naperville";"IL";60563;"(877) 959-6679";;;
778224;63831;"South Naperville KinderCare";"1239 Rickert Dr.";"Naperville";"IL";60540;"(877) 959-6679";;;
778212;63691;"Meyers Road KinderCare";"1214 South Meyers Rd.";"Lombard";"IL";60148;"(877) 959-6679";;;
778185;68481;"Lombard KinderCare";"249 West St. Charles Rd.";"Lombard";"IL";60148;"(877) 959-6679";;;
778157;65601;"Lisle KinderCare";"1640 Eisenhower Lane";"Lisle";"IL";60532;"(877) 959-6679";;;
778072;73441;"Elmhurst KinderCare";"556 W North Ave.";"Elmhurst";"IL";60126;"(877) 959-6679";;;
778043;71191;"Highland Avenue KinderCare";"3905 South Highland Ave.";"Downers Grove";"IL";60515;"(877) 959-6679";;;
778038;76171;"Darien KinderCare";"7906 South Cass Ave.";"Darien";"IL";60561;"(877) 959-6679";;;
778010;64351;"West Carol Stream KinderCare";"1360 West Army Trail Rd.";"Carol Stream";"IL";60188;"(877) 959-6679";;;
778002;64421;"East Carol Stream KinderCare";"140 N. Gary Ave.";"Carol Stream";"IL";60188;"(877) 959-6679";;;
777973;69291;"Stratford KinderCare";"290 Knollwood Dr.";"Bloomingdale";"IL";60108;"(877) 959-6679";;;
777971;70701;"Bloomingdale KinderCare";"355 S. Glen Ellyn Rd.";"Bloomingdale";"IL";60108;"(877) 959-6679";;;
777944;76201;"Brewster Creek KinderCare";"795 South Route 59";"Bartlett";"IL";60103;"(877) 959-6679";;;
777943;76811;"Bartlett Commons Kids Choice";"860 S. Rt. 59";"Bartlett";"IL";60103;"(877) 959-6679";;;
777895;69721;"Fox Valley KinderCare";"3044 Weber Dr.";"Aurora";"IL";60504;"(877) 959-6679";;;
777884;77511;"Addison KinderCare";"950 N. Lombard Rd.";"Addison";"IL";60101;"(877) 959-6679";;;
777589;76081;"Schoenbeck KinderCare";"780 South Schoenbeck Rd.";"Wheeling";"IL";60090;"(877) 959-6679";;;
777579;61441;"Westbrook KinderCare";"1 Westbrook Corporate Center";"Westchester";"IL";60154;"(877) 959-6679";;;
777567;77471;"La Grange Avenue KinderCare";"9460 179th St.";"Tinley Park";"IL";60487;"(877) 959-6679";;;
777563;76221;"80th Avenue KinderCare";"7965 175th St.";"Tinley Park";"IL";60477;"(877) 959-6679";;;
777399;68231;"West Schaumburg KinderCare";"2350 Bode Rd.";"Schaumburg";"IL";60194;"(877) 959-6679";;;
777397;62041;"Salem Plaza KinderCare";"1021 North Salem Dr.";"Schaumburg";"IL";60194;"(877) 959-6679";;;
777373;64921;"Wildflower Lane KinderCare";"150 Wildflower Lane";"Schaumburg";"IL";60173;"(877) 959-6679";;;
777368;68881;"North Schaumburg KinderCare";"2601 Quentin Rd.";"Schaumburg";"IL";60173;"(877) 959-6679";;;
777349;77311;"East Roselle KinderCare";"925 E. Nerge Rd.";"Roselle";"IL";60172;"(877) 959-6679";;;
777177;77651;"Palos Hills KinderCare";"9906 South Roberts Rd.";"Palos Hills";"IL";60465;"(877) 959-6679";;;
777160;65671;"Baldwin Road KinderCare";"1653 N. Baldwin Rd.";"Palatine";"IL";60074;"(877) 959-6679";;;
777144;76731;"Quentin Road KinderCare";"838 North Quentin Rd.";"Palatine";"IL";60067;"(877) 959-6679";;;
777132;65091;"Orland Park KinderCare";"15110 Windsor Dr.";"Orland Park";"IL";60462;"(877) 959-6679";;;
777128;64801;"John Humphrey Drive KinderCare";"14632 John Humphrey Dr.";"Orland Park";"IL";60462;"(877) 959-6679";;;
776965;69491;"Kensington KinderCare";"300 West Kensington Rd.";"Mount Prospect";"IL";60056;"(877) 959-6679";;;
776732;63861;"Lemont KinderCare";"12404 S. Archer Ave.";"Lemont";"IL";60439;"(877) 959-6679";;;
776649;72831;"KinderCare at Prairie Stone";"5100 Sedge Blvd.";"Hoffman Estates";"IL";60192;"(877) 959-6679";;;
776645;64321;"Hoffman Estates KinderCare";"1351 Palatine Rd.";"Hoffman Estates";"IL";60192;"(877) 959-6679";;;
776457;340801;"Glenview Knowledge Beginnings";"2401 Compass Rd.";"Glenview";"IL";60026;"(877) 959-6679";;;
776343;66901;"Evanston KinderCare";"2014 Dempster St.";"Evanston";"IL";60202;"(877) 959-6679";;;
776284;76261;"Elk Grove Village KinderCare";"800 South Arlington Heights Rd.";"Elk Grove Village";"IL";60007;"(877) 959-6679";;;
775650;64211;"North Arlington Hts KinderCare";"1320 N. Arlington Heights Rd.";"Arlington Heights";"IL";60004;"(877) 959-6679";;;
733546;219901;"South Mustang Road KinderCare";"401 South Mustang Rd.";"Yukon";"OK";73099;"(877) 959-6679";;;
733058;219791;"76th Street KinderCare";"12922 E. 76th St. N";"Owasso";"OK";74055;"(877) 959-6679";;;
732979;219821;"Northwest KinderCare";"9202 N. Rockwell Ave.";"Oklahoma City";"OK";73132;"(877) 959-6679";;;
732793;219851;"OU Learning Center";"2727 Asp Ave.";"Norman";"OK";73072;"(877) 959-6679";;;
732720;219891;"North Mustang Road KinderCare";"713 North Mustang Rd.";"Mustang";"OK";73064;"(877) 959-6679";;;
729199;219811;"W. Houston Street KinderCare";"1900 W. Houston St.";"Broken Arrow";"OK";74012;"(877) 959-6679";;;
729193;219751;"Broken Arrow KinderCare";"1812 S. Aspen Ave.";"Broken Arrow";"OK";74012;"(877) 959-6679";;;
715410;35599;"West York KinderCare";"1540 Rodney Rd.";"York";"PA";17408;"(877) 959-6679";;;
715067;36218;"North Huntingdon KinderCare";"8895 Norwin Ave.";"Irwin";"PA";15642;"(877) 959-6679";;;
715017;36255;"Greensburg KinderCare";"980 North Main St.";"Greensburg";"PA";15601;"(877) 959-6679";;;
712507;35230;"Pottstown KinderCare";"1550 Industrial Highway";"Pottstown";"PA";19464;"(877) 959-6679";;;
712465;35154;"North Wales KinderCare";"425 N Sumneytown Pike";"North Wales";"PA";19454;"(877) 959-6679";;;
712429;35222;"Lansdale KinderCare";"80 Cowpath Rd.";"Lansdale";"PA";19446;"(877) 959-6679";;;
712389;35267;"Collegeville KinderCare";"100 Campus Dr.";"Collegeville";"PA";19426;"(877) 959-6679";;;
712363;35110;"Blue Bell KinderCare";"1010 DeKalb Pike";"Blue Bell";"PA";19422;"(877) 959-6679";;;
712351;35156;"KinderCare at Renaissance";"2001 Renaissance Blvd.";"King Of Prussia";"PA";19406;"(877) 959-6679";;;
712343;35297;"King of Prussia KinderCare";"211 North Henderson Rd.";"King Of Prussia";"PA";19406;"(877) 959-6679";;;
712337;35218;"Valley Forge KinderCare";"2425 Blvd. of the Generals";"Norristown";"PA";19403;"(877) 959-6679";;;
712315;35383;"East Norriton KinderCare";"451 E Germantown Pike";"Norristown";"PA";19401;"(877) 959-6679";;;
712242;35309;"Horsham KinderCare";"1355 Business Center Dr.";"Horsham";"PA";19044;"(877) 959-6679";;;
712230;35305;"Hatboro KinderCare";"378 South Warminster Rd.";"Hatboro";"PA";19040;"(877) 959-6679";;;
712161;35244;"Belmont Avenue KinderCare";"420 Belmont Ave.";"Bala Cynwyd";"PA";19004;"(877) 959-6679";;;
711569;37435;"17th Street KinderCare";"224 North 17th St.";"Allentown";"PA";18104;"(877) 959-6679";;;
711244;37090;"Crystal Christian Child Care";"900 S 5th Ave";"Lebanon";"PA";17042;"(877) 959-6679";;;
711015;35626;"Charter Lane KinderCare";"1849 Charter Lane";"Lancaster";"PA";17601;"(877) 959-6679";;;
711006;35669;"Eden Road KinderCare";"600-G Eden Rd.";"Lancaster";"PA";17601;"(877) 959-6679";;;
710991;35691;"Lancaster KinderCare";"595 Centerville Rd.";"Lancaster";"PA";17601;"(877) 959-6679";;;
710983;35727;"Willow Street KinderCare";"218 Willow Valley Lakes Dr.";"Willow Street";"PA";17584;"(877) 959-6679";;;
710828;36553;"Quincy KinderCare";"633-635 Quincy Ave.";"Scranton";"PA";18510;"(877) 959-6679";;;
710815;36530;"Scranton KinderCare";"511 Morgan Highway";"Scranton";"PA";18508;"(877) 959-6679";;;
710306;36955;"West Lake KinderCare";"4575 West Lake Rd.";"Erie";"PA";16505;"(877) 959-6679";;;
710243;36939;"Erie KinderCare";"625 Holland St.";"Erie";"PA";16501;"(877) 959-6679";;;
710166;33367;"Concordville KinderCare";"261 Brinton Lake Rd.";"Glen Mills";"PA";19342;"(877) 959-6679";;;
709986;33232;"Folcroft KinderCare";"6 School Lane";"Folcroft";"PA";19032;"(877) 959-6679";;;
709917;33170;"Brookhaven KinderCare";"201 Radio Park Lane";"Brookhaven";"PA";19015;"(877) 959-6679";;;
709796;35861;"Jonestown Road KinderCare";"6006 Jonestown Rd.";"Harrisburg";"PA";17112;"(877) 959-6679";;;
709752;35872;"Susquenhanna Twnshp KinderCare";"3701 Vartan Way";"Harrisburg";"PA";17110;"(877) 959-6679";;;
709718;35852;"Londonderry Road KinderCare";"4075 Londonderry Rd.";"Harrisburg";"PA";17109;"(877) 959-6679";;;
709595;35779;"Hershey KinderCare";"667 Cherry Dr.";"Hershey";"PA";17033;"(877) 959-6679";;;
709533;36617;"Mechanicsburg KinderCare";"335 Cumberland Pkwy";"Mechanicsburg";"PA";17055;"(877) 959-6679";;;
709495;36623;"East Pennsboro KinderCare";"730 Wertzville Rd.";"Enola";"PA";17025;"(877) 959-6679";;;
709485;36650;"Carlisle KinderCare";"14 Brookwood Ave.";"Carlisle";"PA";17013;"(877) 959-6679";;;
709443;36621;"Camp Hill KinderCare";"3715 Kohler Place";"Camp Hill";"PA";17011;"(877) 959-6679";;;
709439;36640;"21st Street KinderCare";"457 N. 21st St.";"Camp Hill";"PA";17011;"(877) 959-6679";;;
709141;34036;"Phoenixville KinderCare";"331 Schuylkill Rd.";"Phoenixville";"PA";19460;"(877) 959-6679";;;
709117;34146;"Westtown KinderCare";"400 Skiles Blvd.";"West Chester";"PA";19382;"(877) 959-6679";;;
709088;34156;"Abc Kidz Kare";"1022 Pottstown Pike";"West Chester";"PA";19380;"(877) 959-6679";;;
709067;34074;"Thorndale KinderCare";"3120 C G Zinn Rd.";"Thorndale";"PA";19372;"(877) 959-6679";;;
709044;34171;"Malvern KinderCare";"340 Central Ave.";"Malvern";"PA";19355;"(877) 959-6679";;;
708997;34093;"South Exton KinderCare";"479 Thomas Jones Way";"Exton";"PA";19341;"(877) 959-6679";;;
708989;34048;"North Exton KinderCare";"55 South Village Ave.";"Exton";"PA";19341;"(877) 959-6679";;;
708977;34072;"Downingtown KinderCare";"200 Whitford Hills Rd.";"Downingtown";"PA";19335;"(877) 959-6679";;;
708605;37564;"Cranberry KinderCare";"1321 Freedom Rd.";"Cranberry Twp";"PA";16066;"(877) 959-6679";;;
708446;36061;"Langhorne KinderCare";"390 East Maple Ave.";"Langhorne";"PA";19047;"(877) 959-6679";;;
708431;36007;"Fairless Hills KinderCare";"451 S. Olds Blvd.";"Fairless Hills";"PA";19030;"(877) 959-6679";;;
708393;36107;"Bensalem KinderCare";"3651 Street Road";"Bensalem";"PA";19020;"(877) 959-6679";;;
708383;36011;"Bristol KinderCare";"525 Veterans Highway";"Bristol";"PA";19007;"(877) 959-6679";;;
708367;36038;"Warminster KinderCare";"229 Newtown Rd.";"Warminster";"PA";18974;"(877) 959-6679";;;
708315;36167;"Richboro KinderCare";"1100 Second St. Pike";"Richboro";"PA";18954;"(877) 959-6679";;;
708245;35936;"Chalfont West KinderCare";"489 West Butler Ave.";"Chalfont";"PA";18914;"(877) 959-6679";;;
708091;37163;"Wyomissing KinderCare";"865 Berkshire Blvd.";"Reading";"PA";19610;"(877) 959-6679";;;
708074;37160;"Spring KinderCare";"5 Morgan Dr.";"Reading";"PA";19608;"(877) 959-6679";;;
708060;37206;"Exeter KinderCare";"23 Gibraltar Rd.";"Reading";"PA";19606;"(877) 959-6679";;;
708054;37154;"Muhlenberg KinderCare";"90 George St.";"Reading";"PA";19605;"(877) 959-6679";;;
707924;37105;"Douglassville KinderCare";"195 Old Swede Rd.";"Douglassville";"PA";19518;"(877) 959-6679";;;
707703;33482;"North Hills KinderCare";"5000 Cheryl Dr.";"Pittsburgh";"PA";15237;"(877) 959-6679";;;
707506;33624;"Downtown KinderCare";"600 Grant St.";"Pittsburgh";"PA";15219;"(877) 959-6679";;;
707244;33451;"Monroeville KinderCare";"2630 Pitcairn Rd.";"Monroeville";"PA";15146;"(877) 959-6679";;;
707172;33969;"South Park KinderCare";"2901 Ridge Rd.";"South Park";"PA";15129;"(877) 959-6679";;;
707124;33485;"Moon Township East KinderCare";"700 Commerce Ave.";"Coraopolis";"PA";15108;"(877) 959-6679";;;
707112;33496;"Moon Township West KinderCare";"100 Grant Dr.";"Coraopolis";"PA";15108;"(877) 959-6679";;;
707069;33565;"Bethel Park KinderCare";"1040 Clifton Rd.";"Bethel Park";"PA";15102;"(877) 959-6679";;;
707036;33556;"Wexford KinderCare";"106 VIP Dr.";"Wexford";"PA";15090;"(877) 959-6679";;;
706964;33975;"Bridgeville KinderCare";"391 Meeting House Rd.";"Bridgeville";"PA";15017;"(877) 959-6679";;;
690178;218941;"Hampton KinderCare";"2500 Hampton Ave.";"Saint Louis";"MO";63139;"(877) 959-6679";;;
689659;218881;"Reis Ballwin KinderCare";"497 Big Bend Rd.";"Ballwin";"MO";63021;"(877) 959-6679";;;
689658;219161;"Kirkwood KinderCare";"341 South Kirkwood Rd.";"Saint Louis";"MO";63122;"(877) 959-6679";;;
689649;218911;"Fee Fee KinderCare";"12790 Fee Fee";"Saint Louis";"MO";63146;"(877) 959-6679";;;
689648;218921;"Hazelwood KinderCare";"6200 Howdershell Rd.";"Hazelwood";"MO";63042;"(877) 959-6679";;;
689647;218901;"Chesterfield KinderCare";"2275 Village Green Pkwy";"Chesterfield";"MO";63017;"(877) 959-6679";;;
689643;218971;"Tesson Ferry KinderCare";"12727 Old Tesson Rd.";"Saint Louis";"MO";63128;"(877) 959-6679";;;
689264;218961;"North St. Peters KinderCare";"4150 S. Cloverleaf Dr.";"Saint Peters";"MO";63376;"(877) 959-6679";;;
688979;219041;"Prairie View KinderCare";"5900 Northwest Prairie View Rd.";"Kansas City";"MO";64151;"(877) 959-6679";;;
687929;219081;"Woods Chapel KinderCare";"821 NW Woods Chapel Rd.";"Blue Springs";"MO";64015;"(877) 959-6679";;;
687928;218931;"Lee's Summit KinderCare";"3801 NE Independence Ave.";"Lees Summit";"MO";64064;"(877) 959-6679";;;
687926;219031;"Locust KinderCare";"9901 Locust St.";"Kansas City";"MO";64131;"(877) 959-6679";;;
687924;219001;"Highway 7 KinderCare";"1404 South Highway 7";"Blue Springs";"MO";64015;"(877) 959-6679";;;
687060;219021;"Chouteau and Parvin KinderCare";"3760 North Jackson Ave.";"Kansas City";"MO";64117;"(877) 959-6679";;;
686664;219011;"St. Joseph KinderCare";"3107 Cook Rd.";"Saint Joseph";"MO";64506;"(877) 959-6679";;;
686536;219071;"Columbia KinderCare";"2416 West Ash St.";"Columbia";"MO";65203;"(877) 959-6679";;;
680697;216701;"Hillcrest Road KinderCare";"2258 Hillcrest Rd.";"Mobile";"AL";36695;"(877) 959-6679";;;
680691;216741;"Halcyon Park KinderCare";"6955 Halcyon Park Dr.";"Montgomery";"AL";36117;"(877) 959-6679";;;
680689;216721;"Hoover KinderCare";"3160 Old Columbiana Rd.";"Birmingham";"AL";35226;"(877) 959-6679";;;
679636;218331;"Picardy KinderCare";"7315 Picardy Ave.";"Baton Rouge";"LA";70808;"(877) 959-6679";;;
679487;218311;"Slidell KinderCare";"1040 Joe Buccaran Dr.";"Slidell";"LA";70458;"(877) 959-6679";;;
678893;218281;"Lake Charles KinderCare";"4630 Nelson Rd.";"Lake Charles";"LA";70605;"(877) 959-6679";;;
677980;221171;"Floynell KinderCare";"4435 Floynell Dr.";"Baton Rouge";"LA";70809;"(877) 959-6679";;;
677962;218291;"Greenwell Springs KinderCare";"11349 Greenwell Springs Rd.";"Baton Rouge";"LA";70814;"(877) 959-6679";;;
677953;218301;"O'Neal KinderCare";"1188 O'Neal Lane";"Baton Rouge";"LA";70816;"(877) 959-6679";;;
665721;180301;"Laurel KinderCare";"14225 Park Center Dr.";"Laurel";"MD";20707;"(877) 959-6679";;;
665675;179901;"Lanham KinderCare";"4880 Forbes Blvd.";"Lanham";"MD";20706;"(877) 959-6679";;;
665602;176401;"Fort Washington KinderCare";"10925 Indian Head Highway";"Fort Washington";"MD";20744;"(877) 959-6679";;;
665466;172381;"Bowie KinderCare";"3560 Mitchelleville Rd.";"Bowie";"MD";20716;"(877) 959-6679";;;
665444;171361;"Calverton KinderCare";"11740 Beltsville Dr.";"Beltsville";"MD";20705;"(877) 959-6679";;;
665196;181541;"Olney KinderCare";"3805 Gelding Lane";"Olney";"MD";20832;"(877) 959-6679";;;
665154;177601;"Germantown KinderCare";"19921 Frederick Rd.";"Germantown";"MD";20876;"(877) 959-6679";;;
665150;177561;"KinderCare at Town Center";"19780 Crystal Rock Dr.";"Germantown";"MD";20874;"(877) 959-6679";;;
665133;177811;"Great Seneca KinderCare";"13230 Cloppers Mill Dr.";"Germantown";"MD";20874;"(877) 959-6679";;;
665118;177261;"KinderCare on Sioux Lane";"18000 Sioux Lane";"Gaithersburg";"MD";20878;"(877) 959-6679";;;
664968;340811;"Laurel Knowledge Beginnings";"7551 Montpelier Rd.";"Laurel";"MD";20723;"(877) 959-6679";;;
664908;175571;"Marshalee Drive KinderCare";"6080 Marshalee Dr.";"Elkridge";"MD";21075;"(877) 959-6679";;;
664903;174301;"Little Patuxent KinderCare";"10820 Little Patuxent Pkwy";"Columbia";"MD";21044;"(877) 959-6679";;;
664869;174141;"Columbia KinderCare";"7195 Columbia Gateway Dr.";"Columbia";"MD";21046;"(877) 959-6679";;;
664864;174501;"Hickory Ridge KinderCare";"6185 Sunny Spring";"Columbia";"MD";21044;"(877) 959-6679";;;
664795;175471;"Edgewood KinderCare";"1317 Woodbridge Station Way";"Edgewood";"MD";21040;"(877) 959-6679";;;
664760;166241;"Trellis Lane KinderCare";"3325 Trellis Lane";"Abingdon";"MD";21009;"(877) 959-6679";;;
664759;166211;"Kensington KinderCare";"2901 Kensington Pkwy";"Abingdon";"MD";21009;"(877) 959-6679";;;
664676;176571;"Westview KinderCare";"5220 Chairmans Court";"Frederick";"MD";21703;"(877) 959-6679";;;
664666;176861;"Taney Avenue KinderCare";"1420 Taney Ave.";"Frederick";"MD";21701;"(877) 959-6679";;;
664653;176511;"Ballenger Creek KinderCare";"313 Ballenger Center Dr.";"Frederick";"MD";21703;"(877) 959-6679";;;
664640;176741;"Willowdale KinderCare";"110 Willowdale Dr.";"Frederick";"MD";21702;"(877) 959-6679";;;
664591;186311;"St. Charles KinderCare";"3999 St. Marks Dr.";"Waldorf";"MD";20601;"(877) 959-6679";;;
664579;186351;"KinderCare on Smallwood Drive";"2011 Smallwood Dr. West";"Waldorf";"MD";20603;"(877) 959-6679";;;
664264;182231;"WhiteMarsh KinderCare";"4901 Silver Spring Rd.";"Perry Hall";"MD";21128;"(877) 959-6679";;;
664248;181851;"Owings Mills KinderCare";"9725 Middle Mill Dr.";"Owings Mills";"MD";21117;"(877) 959-6679";;;
663678;184191;"Severna Park KinderCare";"488 Jumpers Hole Rd.";"Severna Park";"MD";21146;"(877) 959-6679";;;
663655;182161;"Postal Court KinderCare";"4229 Postal Court";"Pasadena";"MD";21122;"(877) 959-6679";;;
663619;339961;"Russet KinderCare";"3504 Russet Common";"Laurel";"MD";20724;"(877) 959-6679";;;
663612;339831;"Hanover KinderCare";"8050 Rockenbach Rd.";"Hanover";"MD";21076;"(877) 959-6679";;;
663577;340201;"Gambrills KinderCare";"1069 Md Rt 3, North LA";"Gambrills";"MD";21054;"(877) 959-6679";;;
663534;339721;"KinderCare at Arnold";"283 Peninsula Farm Rd.";"Arnold";"MD";21012;"(877) 959-6679";;;
663220;339561;"KinderCare at Kenilworth";"25 Market St.";"Kenilworth";"NJ";7033;"(877) 959-6679";;;
663133;339951;"Clark KinderCare";"89 Terminal Ave.";"Clark";"NJ";7066;"(877) 959-6679";;;
663033;157571;"KinderCare at Warren";"19 Mountain Blvd.";"Warren";"NJ";7059;"(877) 959-6679";;;
663012;157381;"KinderCare at Somerset";"435 DeMott Lane";"Somerset";"NJ";8873;"(877) 959-6679";;;
662815;155961;"KinderCare at Wayne";"23 Barbour Pond Dr.";"Wayne";"NJ";7470;"(877) 959-6679";;;
662574;154621;"Toms River KinderCare";"915 Hazelwood Rd.";"Toms River";"NJ";8753;"(877) 959-6679";;;
662498;153991;"Jackson Township KinderCare";"10 S New Prospect Rd.";"Jackson";"NJ";8527;"(877) 959-6679";;;
662429;153421;"Whippany KinderCare";"45 Whippany Rd.";"Whippany";"NJ";7981;"(877) 959-6679";;;
662334;152821;"Mt. Arlington KinderCare";"181 Howard Blvd.";"Mount Arlington";"NJ";7856;"(877) 959-6679";;;
662278;339861;"Lincoln Park KinderCare";"146 Main St.";"Lincoln Park";"NJ";7035;"(877) 959-6679";;;
662208;151901;"Denville KinderCare";"162 East Main St.";"Denville";"NJ";7834;"(877) 959-6679";;;
662033;150871;"Wall KinderCare";"2401 Atlantic Ave.";"Manasquan";"NJ";8736;"(877) 959-6679";;;
661942;150391;"KinderCare at Freehold";"205 Elton Adelphia Rd.";"Freehold";"NJ";7728;"(877) 959-6679";;;
661910;340021;"KinderCare at Eatontown";"60 Industrial Way East";"Eatontown";"NJ";7724;"(877) 959-6679";;;
661890;150121;"KinderCare at Middletown";"245 Leonardville Rd.";"Belford";"NJ";7718;"(877) 959-6679";;;
661761;149321;"KinderCare at Old Bridge";"83 Ferry Rd.";"Old Bridge";"NJ";8857;"(877) 959-6679";;;
661582;147991;"KinderCare at East Brunswick";"610 Cranbury Rd.";"East Brunswick";"NJ";8816;"(877) 959-6679";;;
661270;145591;"KinderCare at Flemington";"4 Royal Rd.";"Flemington";"NJ";8822;"(877) 959-6679";;;
660889;143141;"Wenonah KinderCare";"645 Georgetown Rd.";"Wenonah";"NJ";8090;"(877) 959-6679";;;
660857;142901;"Sewell KinderCare";"113 Egg Harbor Rd.";"Sewell";"NJ";8080;"(877) 959-6679";;;
660856;142891;"Washington Township KinderCare";"456 Hurffville Crosskeys Rd.";"Sewell";"NJ";8080;"(877) 959-6679";;;
660417;141871;"St. Barnabas KinderCare";"100 Old Short Hills Rd.";"Livingston";"NJ";7039;"(877) 959-6679";;;
660129;140371;"Voorhees KinderCare";"3 Britton Place";"Voorhees";"NJ";8043;"(877) 959-6679";;;
660102;140171;"Pennsauken KinderCare";"4430 River Rd.";"Pennsauken";"NJ";8110;"(877) 959-6679";;;
660033;139721;"Clementon KinderCare";"35 Broadacres Dr.";"Clementon";"NJ";8021;"(877) 959-6679";;;
660014;139591;"Springdale Road KinderCare";"1815 Springdale Rd.";"Cherry Hill";"NJ";8003;"(877) 959-6679";;;
660013;139581;"Rt. 70 East KinderCare";"1945 Rt. 70 East";"Cherry Hill";"NJ";8003;"(877) 959-6679";;;
659851;138551;"Larchmont KinderCare";"450 Larchmont Blvd.";"Mount Laurel";"NJ";8054;"(877) 959-6679";;;
659815;138301;"Medford KinderCare";"5 Skeet Rd.";"Medford";"NJ";8055;"(877) 959-6679";;;
659814;138291;"Medford Stokes Rd KinderCare";"411 Stokes Rd.";"Medford";"NJ";8055;"(877) 959-6679";;;
659794;138121;"Mt. Holly KinderCare";"240 Madison Ave.";"Lumberton";"NJ";8048;"(877) 959-6679";;;
659754;137841;"Burlington KinderCare";"2004 Salem Rd.";"Burlington";"NJ";8016;"(877) 959-6679";;;
659723;340011;"KinderCare at Woodcliff Lake";"450 Chestnut Ridge Rd.";"Woodcliff Lake";"NJ";7677;"(877) 959-6679";;;
659587;136951;"Paramus KinderCare";"411 Sette Dr.";"Paramus";"NJ";7652;"(877) 959-6679";;;
659512;136411;"KinderCare at Mahwah";"25 Edison Rd.";"Mahwah";"NJ";7430;"(877) 959-6679";;;
659044;218561;"Westford KinderCare";"26 Carlisle Rd.";"Westford";"MA";1886;"(877) 959-6679";;;
658014;218581;"Sharon KinderCare";"700 South Main St.";"Sharon";"MA";2067;"(877) 959-6679";;;
658006;218421;"Newburyport KinderCare";"151 Low St.";"Newburyport";"MA";1950;"(877) 959-6679";;;
657999;218461;"Cooley Street KinderCare";"201 Cooley St.";"Springfield";"MA";1128;"(877) 959-6679";;;
657991;218351;"South Main KinderCare";"511 S Main St.";"Andover";"MA";1810;"(877) 959-6679";;;
657970;218731;"Ashland KinderCare";"367 Pond St.";"Ashland";"MA";1721;"(877) 959-6679";;;
657886;218411;"Marion KinderCare";"381 Front St.";"Marion";"MA";2738;"(877) 959-6679";;;
657879;218721;"Hanover KinderCare";"673 Washington St.";"Hanover";"MA";2339;"(877) 959-6679";;;
657861;218651;"Lakeville Park KinderCare";"4 Lakeville Business Park";"Lakeville";"MA";2347;"(877) 959-6679";;;
657835;218491;"West Bridgewater KinderCare";"199 West Center St.";"West Bridgewater";"MA";2379;"(877) 959-6679";;;
657781;218751;"Plymouth KinderCare";"24 Pilgrim Hill Rd.";"Plymouth";"MA";2360;"(877) 959-6679";;;
657775;339671;"Melrose KinderCare";"832 Lynn Fells Pkwy";"Melrose";"MA";2176;"(877) 959-6679";;;
657740;348185;"The Children's Workshop";"1334 Fall River Ave";"Seekonk";"MA";2771;"(877) 959-6679";;;
657699;340261;"Shrewsbury KinderCare";"177 Main St.";"Shrewsbury";"MA";1545;"(877) 959-6679";;;
657643;340251;"Fall River KinderCare";"620 North Main St.";"Fall River";"MA";2720;"(877) 959-6679";;;
657627;340891;"Westboro Knowledge Beginnings";"95 East Main St.";"Westborough";"MA";1581;"(877) 959-6679";;;
657622;218641;"Taunton KinderCare";"1361 Somerset Ave.";"Taunton";"MA";2780;"(877) 959-6679";;;
657610;218471;"Framingham KinderCare";"73 Harrington Rd.";"Framingham";"MA";1701;"(877) 959-6679";;;
657606;339811;"Longmeadow KinderCare";"28 Dwight Rd.";"Longmeadow";"MA";1106;"(877) 959-6679";;;
657587;340771;"Rockland KinderCare";"330 W Pleasant St.";"Rockland";"MA";2370;"(877) 959-6679";;;
657541;340971;"Mall Rd Knowledge Beginnings";"30 Burlington Mall Rd.";"Burlington";"MA";1803;"(877) 959-6679";;;
657518;218611;"Peabody KinderCare";"520 Lowell St.";"Peabody";"MA";1960;"(877) 959-6679";;;
657468;218521;"North Andover KinderCare";"594 Chickering Rd.";"North Andover";"MA";1845;"(877) 959-6679";;;
657436;340871;"Maynard Knowledge Beginnings";"4 Clock Tower Place";"Maynard";"MA";1754;"(877) 959-6679";;;
657401;380897;"The Children's Workshop";"884 Washington Street ";"Norwood";"MA";2062;"(877) 959-6679";;;
657383;218391;"Walpole KinderCare";"201 Coney St.";"East Walpole";"MA";2032;"(877) 959-6679";;;
657344;340981;"Billerica Knowledge Beginnings";"262 Concord Rd.";"Billerica";"MA";1821;"(877) 959-6679";;;
657258;218431;"Salem KinderCare";"602 Loring Ave.";"Salem";"MA";1970;"(877) 959-6679";;;
657131;218501;"Franklin KinderCare";"42 Pond St.";"Franklin";"MA";2038;"(877) 959-6679";;;
657078;218761;"Plainville KinderCare";"64 Messenger St. (Route 106)";"Plainville";"MA";2762;"(877) 959-6679";;;
657058;218661;"KinderCare Mansfield";"515 West St.";"Mansfield";"MA";2048;"(877) 959-6679";;;
657037;218531;"Norwell KinderCare";"380 Washington St.";"Norwell";"MA";2061;"(877) 959-6679";;;
657018;218551;"Cambridge St. KinderCare";"133 Cambridge St.";"Burlington";"MA";1803;"(877) 959-6679";;;
657016;218451;"Woburn KinderCare";"225 Washington St.";"Woburn";"MA";1801;"(877) 959-6679";;;
657006;218601;"Stoneham KinderCare";"136 Franklin St.";"Stoneham";"MA";2180;"(877) 959-6679";;;
656935;340951;"Knowledge Beginnings North";"11 Research Place";"North Chelmsford";"MA";1863;"(877) 959-6679";;;
656896;340881;"N Reading Knowledge Beginnings";"48 Main St.";"North Reading";"MA";1864;"(877) 959-6679";;;
656834;218701;"Ray Avenue KinderCare";"18 Ray Ave.";"Burlington";"MA";1803;"(877) 959-6679";;;
656830;218371;"Tewksbury KinderCare";"847 North St.";"Tewksbury";"MA";1876;"(877) 959-6679";;;
656770;218511;"North Billerica KinderCare";"179 Boston Rd.";"North Billerica";"MA";1862;"(877) 959-6679";;;
656731;218341;"Hayward Road KinderCare";"90 Hayward Rd.";"Acton";"MA";1720;"(877) 959-6679";;;
656564;218441;"East Weymouth KinderCare";"683 Pleasant St.";"East Weymouth";"MA";2189;"(877) 959-6679";;;
656551;218621;"Braintree KinderCare";"467 Granite St.";"Braintree";"MA";2184;"(877) 959-6679";;;
656550;218381;"West Center Street KinderCare";"393 W. Center St.";"West Bridgewater";"MA";2379;"(877) 959-6679";;;
648937;22826;"Penfield KinderCare";"1606 Penfield Rd.";"Rochester";"NY";14625;"(877) 959-6679";;;
648844;22731;"Webster KinderCare";"856 Holt Rd.";"Webster";"NY";14580;"(877) 959-6679";;;
648828;22715;"Fishers Run KinderCare";"615 Fishers Run";"Victor";"NY";14564;"(877) 959-6679";;;
648766;22657;"Fairport KinderCare";"6839 Pittsford-Palmyra Rd.";"Fairport";"NY";14450;"(877) 959-6679";;;
648619;22512;"Niskayuna KinderCare";"1440 Balltown Rd.";"Schenectady";"NY";12309;"(877) 959-6679";;;
648526;22426;"Clifton KinderCare";"518 Vischer Ferry Rd.";"Clifton Park";"NY";12065;"(877) 959-6679";;;
647371;21287;"Liverpool KinderCare";"3787 Canvasback Dr.";"Liverpool";"NY";13090;"(877) 959-6679";;;
647337;21249;"Campuswood KinderCare";"5009 Campuswood Dr.";"East Syracuse";"NY";13057;"(877) 959-6679";;;
646628;20510;"Smithtown KinderCare";"113 Terry Rd.";"Smithtown";"NY";11787;"(877) 959-6679";;;
646600;20485;"Port Jefferson KinderCare";"356 Terryville Rd.";"Port Jefferson Station";"NY";11776;"(877) 959-6679";;;
646510;20390;"KinderCare at Huntington";"183 East Main St.";"Huntington";"NY";11743;"(877) 959-6679";;;
646498;20379;"KinderCare at Farmingville";"2270 North Ocean Ave.";"Farmingville";"NY";11738;"(877) 959-6679";;;
646425;20307;"Bohemia KinderCare";"3502-3504 Veterans Memorial Hwy";"Bohemia";"NY";11716;"(877) 959-6679";;;
645297;19151;"Montebello KinderCare";"36 Route 59";"Suffern";"NY";10901;"(877) 959-6679";;;
645217;133661;"Montessori Children's Center";"785 Mamaroneck Avenue";"White Plains";"NY";10605;"(877) 959-6679";;;
610439;39247;"Brothers Drive KinderCare";"2233 Brothers Dr.";"Lafayette";"IN";47909;"(877) 959-6679";;;
610438;39246;"Brady KinderCare";"1811 Brady Lane";"Lafayette";"IN";47905;"(877) 959-6679";;;
610387;39153;"Amos Road KinderCare";"1501 Amos Rd.";"Shelbyville";"IN";46176;"(877) 959-6679";;;
610319;38746;"Intech Park KinderCare";"7010 Intech Blvd.";"Indianapolis";"IN";46278;"(877) 959-6679";;;
610315;38740;"West 86th Street KinderCare";"3722 West 86th St.";"Indianapolis";"IN";46268;"(877) 959-6679";;;
610301;38747;"82nd Street KinderCare";"7402 East 82nd St.";"Indianapolis";"IN";46256;"(877) 959-6679";;;
610298;38752;"Eagle View KinderCare";"6750 Eagle View Dr.";"Indianapolis";"IN";46254;"(877) 959-6679";;;
610294;38743;"East 75th KinderCare";"6901 East 75th St.";"Indianapolis";"IN";46250;"(877) 959-6679";;;
610288;38756;"Delegates Row KinderCare";"9155 Delegates Row";"Indianapolis";"IN";46240;"(877) 959-6679";;;
610287;38745;"Woodfield Crossing KinderCare";"8485 Woodfield Crossing Blvd.";"Indianapolis";"IN";46240;"(877) 959-6679";;;
610277;38757;"Geist KinderCare";"7615 Oaklandon Rd.";"Indianapolis";"IN";46236;"(877) 959-6679";;;
610273;38753;"Coronado KinderCare";"29 N. Coronado Rd.";"Indianapolis";"IN";46234;"(877) 959-6679";;;
610269;38755;"Madison KinderCare";"8829 S. Madison Ave.";"Indianapolis";"IN";46227;"(877) 959-6679";;;
610268;38739;"Stop 11 Road KinderCare";"2601 East Stop 11 Rd.";"Indianapolis";"IN";46227;"(877) 959-6679";;;
610262;38748;"45th Street KinderCare";"6901 East 45th St.";"Indianapolis";"IN";46226;"(877) 959-6679";;;
610257;38751;"Whitcomb KinderCare";"1034 North Whitcomb Ave.";"Indianapolis";"IN";46224;"(877) 959-6679";;;
610249;38754;"Graham Road KinderCare";"7030 Graham Rd.";"Indianapolis";"IN";46220;"(877) 959-6679";;;
610248;38742;"East 62nd KinderCare";"4402 East 62nd St.";"Indianapolis";"IN";46220;"(877) 959-6679";;;
610244;38750;"21st Street KinderCare";"8930 East 21st St.";"Indianapolis";"IN";46219;"(877) 959-6679";;;
610237;38758;"Country Woods KinderCare";"25 Country Woods Dr.";"Indianapolis";"IN";46217;"(877) 959-6679";;;
610212;38749;"Beech Grove KinderCare";"52 North 18th Ave.";"Beech Grove";"IN";46107;"(877) 959-6679";;;
610167;38575;"Highland KinderCare";"9735 Prairie Ave.";"Highland";"IN";46322;"(877) 959-6679";;;
610133;38498;"Center Grove KinderCare";"980 South State Rd. 135";"Greenwood";"IN";46143;"(877) 959-6679";;;
610080;38353;"Centennial KinderCare";"15401 Clearbrook St.";"Westfield";"IN";46074;"(877) 959-6679";;;
610076;38346;"Noblesville KinderCare";"250 S. Harbour Dr.";"Noblesville";"IN";46062;"(877) 959-6679";;;
610066;38352;"Fishers Fitness Ln. KinderCare";"9000 Fitness Lane";"Fishers";"IN";46038;"(877) 959-6679";;;
610064;38348;"Fishers Landing KinderCare";"11562 Fishers Landing Dr";"Fishers";"IN";46038;"(877) 959-6679";;;
610063;38349;"Fishers Roberts Dr. KinderCare";"8750 East Roberts Dr.";"Fishers";"IN";46038;"(877) 959-6679";;;
610054;38347;"131st & Hazel Dell KinderCare";"13320 Hazel Dell Pkwy";"Carmel";"IN";46033;"(877) 959-6679";;;
610049;38354;"Rangeline KinderCare";"1001 South Range Line Rd.";"Carmel";"IN";46032;"(877) 959-6679";;;
610016;38259;"DeCamp Avenue KinderCare";"2610 DeCamp Ave.";"Elkhart";"IN";46517;"(877) 959-6679";;;
609998;38234;"Muncie KinderCare";"4001 West Clara Lane";"Muncie";"IN";47304;"(877) 959-6679";;;
609942;38128;"Central Avenue KinderCare";"3625 Central Ave.";"Columbus";"IN";47203;"(877) 959-6679";;;
596847;215491;"Northgate KinderCare";"11395 - 5th Ave. North East";"Seattle";"WA";98125;"(877) 959-6679";;;
596818;215851;"Puyallup KinderCare";"301 43 Ave. SE";"Puyallup";"WA";98374;"(877) 959-6679";;;
595756;215481;"Seattle KinderCare";"1827 Eighth Ave.";"Seattle";"WA";98101;"(877) 959-6679";;;
595654;215531;"Penny Creek KinderCare";"13108 39th Ave. SE";"Everett";"WA";98208;"(877) 959-6679";;;
595126;209211;"Childrens Character Club";"2414 Milton Way";"Milton";"WA";98354;"(877) 959-6679";;;
594800;341021;"Vancouver Knowledge Beginnings";"2907 SE 162nd Ave.";"Vancouver";"WA";98683;"(877) 959-6679";;;
594699;215561;"Harbour Pointe KinderCare";"4224 Harbour Pointe Blvd. SW";"Mukilteo";"WA";98275;"(877) 959-6679";;;
594691;215201;"Lakemont Academy";"5015 Lakemont Blvd. SE";"Bellevue";"WA";98006;"(877) 959-6679";;;
594649;215181;"Yarrow Bay KinderCare";"10733 Northup Way";"Bellevue";"WA";98004;"(877) 959-6679";;;
594483;215461;"Woodinville KinderCare";"13851 NE 171st St.";"Woodinville";"WA";98072;"(877) 959-6679";;;
592873;215681;"Lacey KinderCare";"4504 6th Ave. Southeast";"Lacey";"WA";98503;"(877) 959-6679";;;
592775;339841;"Lynnwood KinderCare";"15212 Highway 99";"Lynnwood";"WA";98037;"(877) 959-6679";;;
592717;215221;"Thrashers Corner KinderCare";"20613 Bothell-Everett Highway";"Bothell";"WA";98012;"(877) 959-6679";;;
592663;215401;"Rose Hill KinderCare";"15202 Redmond Way";"Redmond";"WA";98052;"(877) 959-6679";;;
592662;215321;"Totem Lake KinderCare";"11404 Slater Ave. Northeast";"Kirkland";"WA";98033;"(877) 959-6679";;;
592656;215411;"Overlake KinderCare";"2060 152nd Ave. Northeast";"Redmond";"WA";98052;"(877) 959-6679";;;
592570;215801;"Shasta Way KinderCare";"610 West Shasta Way";"Spokane";"WA";99208;"(877) 959-6679";;;
592553;215551;"Bellingham KinderCare";"2320 Yew St.";"Bellingham";"WA";98226;"(877) 959-6679";;;
592451;215341;"Brier KinderCare";"20420 Larch Way";"Lynnwood";"WA";98036;"(877) 959-6679";;;
592265;215191;"Factoria KinderCare";"12415 Southeast 41st Place";"Bellevue";"WA";98006;"(877) 959-6679";;;
592118;215541;"Silver Lake KinderCare";"1810 100th Place Southeast";"Everett";"WA";98208;"(877) 959-6679";;;
591784;215521;"Everett KinderCare";"5 West Casino Rd.";"Everett";"WA";98204;"(877) 959-6679";;;
591700;215351;"Edmonds KinderCare";"7330 196th St. Southwest";"Lynnwood";"WA";98036;"(877) 959-6679";;;
591548;215671;"West Olympia KinderCare";"2303 9th Avenue SW";"Olympia";"WA";98502;"(877) 959-6679";;;
586703;111091;"Stafford KinderCare";"29 Greenspring Dr.";"Stafford";"VA";22554;"(877) 959-6679";;;
586701;111071;"Magruder KinderCare";"2 Kyle St.";"Hampton";"VA";23666;"(877) 959-6679";;;
586700;111061;"West Springfield KinderCare";"8518 Bauer Dr.";"Springfield";"VA";22152;"(877) 959-6679";;;
586699;110711;"Telegraph Road KinderCare";"7136 Telegraph Rd.";"Alexandria";"VA";22315;"(877) 959-6679";;;
586698;111051;"Manassas KinderCare";"10496 Sudley Manor Dr.";"Manassas";"VA";20109;"(877) 959-6679";;;
586695;111021;"Silverleaf KinderCare";"4300 Silverleaf Dr.";"Virginia Beach";"VA";23462;"(877) 959-6679";;;
586694;111011;"Soapstone Rd. KinderCare";"2300 Soapstone Dr.";"Reston";"VA";20191;"(877) 959-6679";;;
586692;110991;"Pocoshock KinderCare";"2621 Pocoshock Blvd.";"Richmond";"VA";23235;"(877) 959-6679";;;
586690;110971;"Lake Ridge KinderCare";"12781 Harbor Dr.";"Woodbridge";"VA";22192;"(877) 959-6679";;;
586688;126061;"Lee's Hill KinderCare";"10715 Spotsylvania Ave.";"Fredericksburg";"VA";22408;"(877) 959-6679";;;
586687;110951;"Franconia KinderCare";"6323 Grovedale Dr.";"Alexandria";"VA";22310;"(877) 959-6679";;;
586686;110941;"College Park KinderCare";"5925 Providence Rd.";"Virginia Beach";"VA";23464;"(877) 959-6679";;;
586685;110931;"NOVA KinderCare";"1227 North Ivy St.";"Arlington";"VA";22201;"(877) 959-6679";;;
586683;110911;"Chester KinderCare";"4021 W. Hundred Rd.";"Chester";"VA";23831;"(877) 959-6679";;;
586682;110901;"Market Square KinderCare";"4721 Market Square Lane";"Midlothian";"VA";23113;"(877) 959-6679";;;
586681;110891;"Braemar KinderCare";"12121 Caithness Circle";"Bristow";"VA";20136;"(877) 959-6679";;;
586678;110871;"Diamond Springs KinderCare";"990 Diamond Springs Rd.";"Virginia Beach";"VA";23455;"(877) 959-6679";;;
586677;110861;"Railstop KinderCare";"43323 Railstop Terrace";"Ashburn";"VA";20147;"(877) 959-6679";;;
586676;110851;"Isaac Newton Square KinderCare";"1946 Isaac Newton Square W";"Reston";"VA";20190;"(877) 959-6679";;;
586675;110961;"Golden Meadow KinderCare";"43599 Golden Meadow Cir.";"Ashburn";"VA";20147;"(877) 959-6679";;;
586674;110841;"Cascades KinderCare";"20655 Fernbank Court";"Sterling";"VA";20165;"(877) 959-6679";;;
586671;110811;"Cedar Fork Road KinderCare";"75 East Cedar Fork Rd.";"Richmond";"VA";23223;"(877) 959-6679";;;
586670;110801;"Braddock Road KinderCare";"9328 Braddock Rd.";"Burke";"VA";22015;"(877) 959-6679";;;
586669;110791;"Garrisonville Road KinderCare";"318 Garrisonville Rd.";"Stafford";"VA";22554;"(877) 959-6679";;;
586668;110781;"Leesburg KinderCare";"60 Plaza St. NE";"Leesburg";"VA";20176;"(877) 959-6679";;;
586667;110761;"Franconia Road KinderCare";"6123 Gum St.";"Alexandria";"VA";22310;"(877) 959-6679";;;
586666;110751;"Oak Leather KinderCare";"5680 Oak Leather Dr.";"Burke";"VA";22015;"(877) 959-6679";;;
586665;110741;"Springfield KinderCare";"7901 Rolling Rd.";"Springfield";"VA";22153;"(877) 959-6679";;;
586663;110731;"Burke Lake Road KinderCare";"9724 Burke Lake Rd.";"Burke";"VA";22015;"(877) 959-6679";;;
586662;110721;"Vienna KinderCare";"437 Knoll St. N.W.";"Vienna";"VA";22180;"(877) 959-6679";;;
586661;110701;"Sully Station KinderCare";"5124 Woodmere Dr.";"Centreville";"VA";20120;"(877) 959-6679";;;
586660;110691;"Saratoga KinderCare";"8119 Rolling Rd.";"Springfield";"VA";22153;"(877) 959-6679";;;
586659;110681;"Oakton KinderCare";"2869 Hunter Mill Rd.";"Oakton";"VA";22124;"(877) 959-6679";;;
586658;110671;"Big Bethel KinderCare";"406 Big Bethel Rd.";"Hampton";"VA";23666;"(877) 959-6679";;;
586657;110661;"Herndon KinderCare";"801 Locust St.";"Herndon";"VA";20170;"(877) 959-6679";;;
586656;110651;"Woodbridge KinderCare";"14050 Central Loop";"Woodbridge";"VA";22193;"(877) 959-6679";;;
586655;110641;"Colonnade KinderCare";"21019 Forum Terrace";"Sterling";"VA";20166;"(877) 959-6679";;;
586654;110611;"Herndon Parkway KinderCare";"1178 Herndon Pkwy";"Herndon";"VA";20170;"(877) 959-6679";;;
586652;110591;"Franklin Farm KinderCare";"13220 Franklin Farm Rd.";"Herndon";"VA";20171;"(877) 959-6679";;;
586651;110581;"J. Clyde Morris KinderCare";"6 Sierra Dr.";"Newport News";"VA";23606;"(877) 959-6679";;;
586650;110571;"Gainesville KinderCare";"12871 Braemer Village Plaza";"Bristow";"VA";20136;"(877) 959-6679";;;
586649;110561;"Ashburn Village KinderCare";"44051 Ashburn Shopping Plaza";"Ashburn";"VA";20147;"(877) 959-6679";;;
586648;110551;"North Village KinderCare";"1309 North Village Rd.";"Reston";"VA";20194;"(877) 959-6679";;;
586647;110541;"Reston KinderCare";"1802 Old Reston Ave.";"Reston";"VA";20190;"(877) 959-6679";;;
586646;110631;"McLearen Square KinderCare";"3051 Centreville Rd.";"Herndon";"VA";20171;"(877) 959-6679";;;
586644;110521;"Lake Newport KinderCare";"11875 Lake Newport Rd.";"Reston";"VA";20194;"(877) 959-6679";;;
586643;110511;"Fordson Road KinderCare";"7901 Fordson Rd.";"Alexandria";"VA";22306;"(877) 959-6679";;;
586642;110501;"Fairfax KinderCare";"9749 Main St.";"Fairfax";"VA";22031;"(877) 959-6679";;;
586641;110621;"Montclair KinderCare";"4381 Kevin Walker Dr.";"Dumfries";"VA";22025;"(877) 959-6679";;;
586640;110491;"County Pkwy KinderCare";"13228 Franklin Farm Rd.";"Herndon";"VA";20171;"(877) 959-6679";;;
586639;110481;"Stringfellow Road KinderCare";"4216 Stringfellow Rd.";"Chantilly";"VA";20151;"(877) 959-6679";;;
586638;110471;"Buckman Rd KinderCare";"4287 Buckman Rd.";"Alexandria";"VA";22309;"(877) 959-6679";;;
586637;110461;"Centreville KinderCare";"6215 Stone Rd.";"Centreville";"VA";20120;"(877) 959-6679";;;
586636;110451;"Burke KinderCare";"6025 Burke Commons Rd.";"Burke";"VA";22015;"(877) 959-6679";;;
586635;110771;"Broadlands KinderCare";"43083 Waxpool Rd.";"Ashburn";"VA";20148;"(877) 959-6679";;;
586634;110441;"Alexandria KinderCare";"4616 Minor Lane";"Alexandria";"VA";22312;"(877) 959-6679";;;
586633;110431;"Breezewood KinderCare";"604 Breezewood Dr.";"Fredericksburg";"VA";22407;"(877) 959-6679";;;
586632;110421;"Lee Highway KinderCare";"11723 Lee Highway";"Fairfax";"VA";22030;"(877) 959-6679";;;
586631;110391;"Lakeridge KinderCare";"1520 Old Bridge Rd.";"Woodbridge";"VA";22192;"(877) 959-6679";;;
586629;110381;"Newington Forest KinderCare";"8604 Pohick Rd.";"Springfield";"VA";22153;"(877) 959-6679";;;
586628;110371;"Brandermill KinderCare";"2900 Foxchase Lane";"Midlothian";"VA";23112;"(877) 959-6679";;;
586627;110361;"General Booth KinderCare";"1801 General Booth Blvd.";"Virginia Beach";"VA";23454;"(877) 959-6679";;;
586626;110351;"South Independence KinderCare";"2032 South Independence Blvd.";"Virginia Beach";"VA";23456;"(877) 959-6679";;;
586625;110341;"Great Neck KinderCare";"2205 Poplar Point Rd.";"Virginia Beach";"VA";23454;"(877) 959-6679";;;
586624;110291;"Rosemont KinderCare";"3704 Lampl Ave.";"Virginia Beach";"VA";23452;"(877) 959-6679";;;
586623;110321;"Kempsville KinderCare";"704 Hillingdon Court";"Virginia Beach";"VA";23462;"(877) 959-6679";;;
586622;110311;"Greenbrier KinderCare";"725 Greenbrier Pkwy";"Chesapeake";"VA";23320;"(877) 959-6679";;;
586621;110301;"Great Bridge KinderCare";"929 Cedar Rd.";"Chesapeake";"VA";23322;"(877) 959-6679";;;
586620;339591;"Holland Road KinderCare";"3740 Holland Rd.";"Virginia Beach";"VA";23452;"(877) 959-6679";;;
586619;110281;"Haygood KinderCare";"4621 Crossborough Rd.";"Virginia Beach";"VA";23455;"(877) 959-6679";;;
586616;132731;"Silverbrook KinderCare";"8350 White Feather Ct.";"Lorton";"VA";22079;"(877) 959-6679";;;
553348;341071;"JCreek Knowledge Beginnings";"10100 Medlock Bridge Rd.";"Duluth";"GA";30097;"(877) 959-6679";;;
553296;2774;"Wade Green KinderCare";"4503 Wade Green Rd. NW";"Acworth";"GA";30102;"(877) 959-6679";;;
553295;217661;"Nesbit Ferry KinderCare";"9550 Nesbit Ferry Rd.";"Alpharetta";"GA";30022;"(877) 959-6679";;;
553293;217641;"Cooper Lake KinderCare";"1635 Cooper Lake Rd. SE";"Smyrna";"GA";30082;"(877) 959-6679";;;
553291;217671;"Rockbridge Lilburn KinderCare";"641 Rockbridge Rd. SW";"Lilburn";"GA";30047;"(877) 959-6679";;;
553290;217681;"Jimmy Carter KinderCare";"1152 Rockbridge Rd.";"Norcross";"GA";30093;"(877) 959-6679";;;
533922;48458;"Dorscher KinderCare";"644 Dorscher Rd.";"Orlando";"FL";32818;"(877) 959-6679";;;
533921;48913;"KinderCare of Boynton Beach";"4947 Le Chalet Blvd.";"Boynton Beach";"FL";33436;"(877) 959-6679";;;
533917;48915;"Village Boulevard KinderCare";"3220 Commerce Place";"West Palm Beach";"FL";33407;"(877) 959-6679";;;
533916;47452;"140th Avenue KinderCare";"4801 South West 140th Ave.";"Miami";"FL";33175;"(877) 959-6679";;;
533915;48911;"Royal Palm Beach KinderCare";"101 Heatherwood Dr.";"Royal Palm Beach";"FL";33411;"(877) 959-6679";;;
533914;45922;"Tampa Palms KinderCare";"5209 Tampa Palms Blvd.";"Tampa";"FL";33647;"(877) 959-6679";;;
533912;45210;"Atlantic Beach KinderCare";"#2 Atlantic Court";"Atlantic Beach";"FL";32233;"(877) 959-6679";;;
533911;45921;"Seffner KinderCare";"2524 South Parsons Ave.";"Seffner";"FL";33584;"(877) 959-6679";;;
533910;45920;"Gunn KinderCare";"4250 Gunn Highway";"Tampa";"FL";33618;"(877) 959-6679";;;
533909;49365;"Pinellas Park KinderCare";"6520 102nd Ave. North";"Pinellas Park";"FL";33782;"(877) 959-6679";;;
533908;49364;"Clearwater KinderCare";"2644 State Rd. 590";"Clearwater";"FL";33759;"(877) 959-6679";;;
533907;49363;"Largo KinderCare";"3270 East Bay Dr.";"Largo";"FL";33771;"(877) 959-6679";;;
533905;49362;"Oldsmar KinderCare";"113 Forest Lakes Blvd.";"Oldsmar";"FL";34677;"(877) 959-6679";;;
533904;49361;"Dunedin KinderCare";"1990 Main St.";"Dunedin";"FL";34698;"(877) 959-6679";;;
533903;50208;"Longwood KinderCare";"2654 State Rd. 434 West";"Longwood";"FL";32779;"(877) 959-6679";;;
533902;48456;"Goldenrod Road KinderCare";"4035 N. Goldenrod Rd.";"Winter Park";"FL";32792;"(877) 959-6679";;;
533899;43837;"Tower Road KinderCare";"10 Southwest 75th St.";"Gainesville";"FL";32607;"(877) 959-6679";;;
533897;45918;"Webb Road KinderCare";"4934 Webb Rd.";"Tampa";"FL";33615;"(877) 959-6679";;;
533895;48457;"Orange Blossom KinderCare";"12307 South Orange Blossom Trail";"Orlando";"FL";32837;"(877) 959-6679";;;
533893;50206;"Rangeline KinderCare";"270 Range Line Rd.";"Longwood";"FL";32750;"(877) 959-6679";;;
533891;50205;"Alafaya Woods KinderCare";"300 Alafaya Woods Blvd.";"Oviedo";"FL";32765;"(877) 959-6679";;;
533886;45917;"Bell Shoals KinderCare";"4304 Bell Shoals Rd.";"Valrico";"FL";33596;"(877) 959-6679";;;
533885;45916;"Northdale KinderCare";"15609 Premiere Dr.";"Tampa";"FL";33624;"(877) 959-6679";;;
533884;50204;"Winter Springs KinderCare";"1024 Spring Villas Point";"Winter Springs";"FL";32708;"(877) 959-6679";;;
533883;50203;"Lake Mary KinderCare";"910 W.Lake Mary Blvd.";"Sanford";"FL";32773;"(877) 959-6679";;;
533881;50202;"KinderCare at Hunt Club";"625 Executive Park Court";"Apopka";"FL";32703;"(877) 959-6679";;;
533880;47451;"Deerwood KinderCare";"15005 SW 122nd Ave.";"Miami";"FL";33186;"(877) 959-6679";;;
533878;49861;"Julington Creek KinderCare";"200 North Ridgecrest Lane";"Saint Johns";"FL";32259;"(877) 959-6679";;;
533877;49862;"Ponte Vedra KinderCare";"12000 Sawgrass Village Dr.";"Ponte Vedra Beach";"FL";32082;"(877) 959-6679";;;
533876;49183;"KinderCare at Cypress Creek";"2303 Oak Myrtle Lane";"Wesley Chapel";"FL";33544;"(877) 959-6679";;;
533875;45209;"Old St Augustine Rd KinderCare";"4310 Barkoskie Rd.";"Jacksonville";"FL";32258;"(877) 959-6679";;;
533874;45207;"Baymeadows KinderCare";"8401 Baymeadows Way";"Jacksonville";"FL";32256;"(877) 959-6679";;;
533873;45208;"Monument KinderCare";"12040 McCormick Rd.";"Jacksonville";"FL";32225;"(877) 959-6679";;;
533871;44065;"Merritt Island KinderCare";"55 Catalina Isle Dr.";"Merritt Island";"FL";32953;"(877) 959-6679";;;
533869;44066;"Wickham KinderCare";"2220 N. Wickham Rd.";"Melbourne";"FL";32935;"(877) 959-6679";;;
533868;44063;"Barna KinderCare";"2701 Barna Ave.";"Titusville";"FL";32780;"(877) 959-6679";;;
533858;50410;"Ormond Beach KinderCare";"151 Sagebrush Trail";"Ormond Beach";"FL";32174;"(877) 959-6679";;;
533857;50409;"Beville Road KinderCare";"1320 Beville Rd.";"Daytona Beach";"FL";32114;"(877) 959-6679";;;
533856;48454;"KinderCare Orlando";"6537 Vista Park Blvd.";"Orlando";"FL";32829;"(877) 959-6679";;;
532260;49165;"Gulfview Learning Center";"5398 School Road";"New Port Richey";"FL";34652;"(877) 959-6679";;;
530043;49285;"Clearwater Children's Learning";"3245 Ulmerton Rd.";"Clearwater";"FL";33762;"(877) 959-6679";;;
240491;341061;"Raleigh Knowledge Beginnings";"10741 Forest Pines Dr.";"Raleigh";"NC";27614;"(877) 959-6679";;;
240490;219321;"South Square KinderCare";"3703 University Dr.";"Durham";"NC";27707;"(877) 959-6679";;;
239473;219351;"Goldsboro KinderCare";"901 Landmark Dr.";"Goldsboro";"NC";27534;"(877) 959-6679";;;
239472;219201;"Red Bank KinderCare";"1026 Red Banks Rd.";"Greenville";"NC";27858;"(877) 959-6679";;;
239471;219361;"Stantonsburg KinderCare";"2263 Stantonsburg Rd.";"Greenville";"NC";27834;"(877) 959-6679";;;
239468;219331;"Chapel Hill KinderCare";"210 South Elliot Rd.";"Chapel Hill";"NC";27514;"(877) 959-6679";;;
239467;219311;"Kildare Farm KinderCare";"203 Kilmayne Dr.";"Cary";"NC";27511;"(877) 959-6679";;;
239466;219301;"Knightdale KinderCare";"200 Forest Dr.";"Knightdale";"NC";27545;"(877) 959-6679";;;
239465;219261;"Millbrook KinderCare";"223 West Millbrook Rd.";"Raleigh";"NC";27609;"(877) 959-6679";;;
239464;219411;"Stonehenge KinderCare";"2300 Bridgeport Dr.";"Raleigh";"NC";27615;"(877) 959-6679";;;
239463;219401;"Highwoods Park KinderCare";"3129 Poplarwood Court";"Raleigh";"NC";27604;"(877) 959-6679";;;
239462;219391;"Leesville KinderCare";"9325 Leesville Rd.";"Raleigh";"NC";27613;"(877) 959-6679";;;
239461;219341;"Ramsey KinderCare";"4243 Ramsey St.";"Fayetteville";"NC";28311;"(877) 959-6679";;;
239460;219251;"Farm Pond KinderCare";"5750 Farm Pond Lane";"Charlotte";"NC";28212;"(877) 959-6679";;;
239459;219381;"W.T. Harris KinderCare";"6601 East W.T. Harris Blvd.";"Charlotte";"NC";28215;"(877) 959-6679";;;
239458;219241;"Owen Drive KinderCare";"228 Owen Dr.";"Fayetteville";"NC";28304;"(877) 959-6679";;;
239457;219281;"Hope Mills KinderCare";"1521 Hope Mills Rd.";"Fayetteville";"NC";28304;"(877) 959-6679";;;
239456;219291;"Fort Bragg KinderCare";"2014 Fort Bragg Rd.";"Fayetteville";"NC";28303;"(877) 959-6679";;;
239455;219231;"Dixon KinderCare";"1741 Dixon Rd.";"Gastonia";"NC";28054;"(877) 959-6679";;;
239013;219271;"Duke Street KinderCare";"3106 North Duke St.";"Durham";"NC";27704;"(877) 959-6679";;;
236862;341051;"Cary Knowledge Beginnings";"250 Cornerstone Dr.";"Cary";"NC";27519;"(877) 959-6679";;;
236859;219371;"Monroe Road KinderCare";"9500 Monroe Rd.";"Charlotte";"NC";28270;"(877) 959-6679";;;
236858;221221;"Cary Towne KinderCare";"1118 SE Maynard Rd.";"Cary";"NC";27511;"(877) 959-6679";;;
236856;219191;"Idlewild KinderCare";"6603 Idlewild Rd.";"Charlotte";"NC";28212;"(877) 959-6679";;;
236855;219221;"Providence Road KinderCare";"1700 Providence Rd.";"Charlotte";"NC";28207;"(877) 959-6679";;;
236854;219211;"Park Road KinderCare";"3322 Park Rd.";"Charlotte";"NC";28209;"(877) 959-6679";;;
224015;220141;"Johnston KinderCare";"350 Central Ave.";"Johnston";"RI";2919;"(877) 959-6679";;;
223900;220131;"Middletown KinderCare";"70 Corporate Place";"Middletown";"RI";2842;"(877) 959-6679";;;
207670;220471;"Draper KinderCare";"12265 South 1190 East";"Draper";"UT";84020;"(877) 959-6679";;;
207669;220421;"West Jordan KinderCare";"1785 West 7888 South";"West Jordan";"UT";84088;"(877) 959-6679";;;
207668;220431;"Sandy KinderCare";"9165 South 1300 East";"Sandy";"UT";84094;"(877) 959-6679";;;
207667;220441;"Orem KinderCare";"765 East 1200 South";"Orem";"UT";84097;"(877) 959-6679";;;
207666;220451;"North Salt Lake KinderCare";"775 North 400 East";"North Salt Lake";"UT";84054;"(877) 959-6679";;;
207665;220461;"Centerville KinderCare";"518 North 400 West";"Centerville";"UT";84014;"(877) 959-6679";;;
206663;221211;"Meridian KinderCare";"4706 Broadmoor Dr.";"Meridian";"MS";39305;"(877) 959-6679";;;
204676;340001;"Auburn Hills KinderCare";"3268 East Walton Blvd.";"Auburn Hills";"MI";48326;"(877) 959-6679";;;
204563;340791;"Southgate KinderCare";"15500 Reeck Rd.";"Southgate";"MI";48195;"(877) 959-6679";;;
204289;40374;"East Lansing KinderCare";"525 East Saginaw Highway";"East Lansing";"MI";48823;"(877) 959-6679";;;
204256;41399;"Clinton Township KinderCare";"43950 Garfield Rd.";"Clinton Township";"MI";48038;"(877) 959-6679";;;
204188;340391;"Greenfield Road KinderCare";"3381 Greenfield Rd.";"Dearborn";"MI";48120;"(877) 959-6679";;;
202717;340641;"Romulus KinderCare";"27975 Eureka Rd.";"Romulus";"MI";48174;"(877) 959-6679";;;
202634;339881;"Waterford KinderCare";"5758 Cooley Lake Rd.";"Waterford";"MI";48327;"(877) 959-6679";;;
201422;340601;"Novi KinderCare";"24250 Homestead";"Novi";"MI";48374;"(877) 959-6679";;;
201125;607;"Sterling Heights KinderCare";"37201 Ryan Rd.";"Sterling Heights";"MI";48310;"(877) 959-6679";;;
201106;339581;"Silver Spring KinderCare";"20675 Silver Spring Dr.";"Northville";"MI";48167;"(877) 959-6679";;;
201079;339941;"West Bloomfield KinderCare";"6615 Middlebelt Rd.";"West Bloomfield";"MI";48322;"(877) 959-6679";;;
199458;40670;"West Main KinderCare";"3939 West Main St.";"Kalamazoo";"MI";49006;"(877) 959-6679";;;
197808;42898;"Dearborn KinderCare";"4900 Evergreen Rd.";"Dearborn";"MI";48128;"(877) 959-6679";;;
197744;339891;"John R in Troy KinderCare";"5877 John R Rd.";"Troy";"MI";48085;"(877) 959-6679";;;
197735;339571;"Coolidge Highway KinderCare";"5135 Coolidge Highway";"Troy";"MI";48098;"(877) 959-6679";;;
197620;339711;"Ryan Road KinderCare";"33300 Ryan Rd.";"Sterling Heights";"MI";48310;"(877) 959-6679";;;
197616;340651;"Roseville KinderCare";"18377 Martin Rd.";"Roseville";"MI";48066;"(877) 959-6679";;;
196533;41260;"Brighton KinderCare";"7600 Nemco Way";"Brighton";"MI";48116;"(877) 959-6679";;;
195901;41401;"15 & Schoenherr KinderCare";"13777 15 Mile Rd.";"Sterling Heights";"MI";48312;"(877) 959-6679";;;
194716;340611;"North Troy KinderCare";"5480 Rochester Rd.";"Troy";"MI";48085;"(877) 959-6679";;;
194352;609;"Livonia KinderCare";"38880 W. 6 Mile Rd.";"Livonia";"MI";48152;"(877) 959-6679";;;
192876;339771;"Canton KinderCare";"44212 Cherry Hill Rd.";"Canton";"MI";48187;"(877) 959-6679";;;
192814;339821;"Airport Road KinderCare";"3575 Airport Rd.";"Waterford";"MI";48329;"(877) 959-6679";;;
192768;41400;"19 & Schoenherr KinderCare";"13830 19 Mile Rd.";"Sterling Heights";"MI";48313;"(877) 959-6679";;;
150649;11601;"Rancho Los Amigos KinderCare";"7755 Golondrinas St.";"Downey";"CA";90242;"(877) 959-6679";;;
147777;340911;"Roseville Knowledge Beginnings";"1741 Santa Clara Dr.";"Roseville";"CA";95661;"(877) 959-6679";;;
147718;6061;"Poinsettia KinderCare";"1200 Plum Tree Rd.";"Carlsbad";"CA";92011;"(877) 959-6679";;;
147716;6731;"Escondido KinderCare";"2415 South Centre City Pkwy";"Escondido";"CA";92025;"(877) 959-6679";;;
147715;10430;"Spring Valley KinderCare";"10130 Rothgard Rd.";"Spring Valley";"CA";91977;"(877) 959-6679";;;
147712;13560;"Bearpaw KinderCare";"1 Bear Paw";"Irvine";"CA";92604;"(877) 959-6679";;;
147711;13559;"Buena Park KinderCare";"4601 Beach Blvd.";"Buena Park";"CA";90621;"(877) 959-6679";;;
147710;13558;"Mission Viejo KinderCare";"26912 Estanciero Dr.";"Mission Viejo";"CA";92691;"(877) 959-6679";;;
147709;13557;"Fountain Valley KinderCare";"9945 Slater Ave.";"Fountain Valley";"CA";92708;"(877) 959-6679";;;
147707;12493;"Lancaster East KinderCare";"44400 Foxton Ave.";"Lancaster";"CA";93535;"(877) 959-6679";;;
147706;12492;"Lancaster West KinderCare";"43536 22nd St. West";"Lancaster";"CA";93536;"(877) 959-6679";;;
147705;13556;"Laguna Niguel KinderCare";"30075 Alicia Pkwy";"Laguna Niguel";"CA";92677;"(877) 959-6679";;;
147704;12491;"Canyon Country KinderCare";"18525 West Soledad Canyon Rd.";"Canyon Country";"CA";91351;"(877) 959-6679";;;
147703;13555;"Michelson KinderCare";"3661 Michelson Dr.";"Irvine";"CA";92612;"(877) 959-6679";;;
147702;13554;"South Coast KinderCare";"2515 West Sunflower Ave.";"Santa Ana";"CA";92704;"(877) 959-6679";;;
147701;13553;"North Fullerton KinderCare";"3223 North Associated Rd.";"Fullerton";"CA";92835;"(877) 959-6679";;;
147700;13552;"Huntington Beach KinderCare";"19342 Beach Blvd.";"Huntington Beach";"CA";92648;"(877) 959-6679";;;
147699;13551;"South Street KinderCare";"2515 East South St.";"Anaheim";"CA";92806;"(877) 959-6679";;;
147698;13550;"Santa Margarita KinderCare";"30062 Santa Margarita Pkwy";"Rancho Santa Margarita";"CA";92688;"(877) 959-6679";;;
147697;13549;"Foothill Ranch KinderCare";"26462 Towne Centre Dr.";"Foothill Ranch";"CA";92610;"(877) 959-6679";;;
147696;13548;"Aliso Viejo KinderCare";"25507 Moulton Pkwy";"Aliso Viejo";"CA";92656;"(877) 959-6679";;;
147695;13547;"Stonehaven Drive KinderCare";"5360 Stonehaven Dr.";"Yorba Linda";"CA";92887;"(877) 959-6679";;;
147694;6391;"Danville KinderCare";"730 San Ramon Valley Blvd.";"Danville";"CA";94526;"(877) 959-6679";;;
147693;9213;"Stanford Ranch KinderCare";"2251 Sunset Blvd.";"Rocklin";"CA";95765;"(877) 959-6679";;;
147692;6809;"KinderCare at Natoma Station";"420 Natoma Station Dr.";"Folsom";"CA";95630;"(877) 959-6679";;;
147691;9249;"Woodcreek KinderCare";"5141 Foothills Blvd.";"Roseville";"CA";95747;"(877) 959-6679";;;
147690;6182;"Eastlake KinderCare";"2354 Fenton St.";"Chula Vista";"CA";91914;"(877) 959-6679";;;
147689;6646;"Elk Grove KinderCare";"9250 Elk Grove Florin Rd.";"Elk Grove";"CA";95624;"(877) 959-6679";;;
147688;6506;"Dublin KinderCare";"11925 Amador Valley Court";"Dublin";"CA";94568;"(877) 959-6679";;;
147686;10648;"Tracy KinderCare";"265 West Grant Line Rd.";"Tracy";"CA";95376;"(877) 959-6679";;;
147685;9388;"Mack Road KinderCare";"4920 Mack Rd.";"Sacramento";"CA";95823;"(877) 959-6679";;;
147684;6648;"Laguna KinderCare";"9150 Peets St.";"Elk Grove";"CA";95758;"(877) 959-6679";;;
147683;6221;"San Juan KinderCare";"5448 San Juan Ave.";"Citrus Heights";"CA";95610;"(877) 959-6679";;;
147682;9389;"Vintage KinderCare";"8887 Vintage Park Dr.";"Sacramento";"CA";95828;"(877) 959-6679";;;
147681;6220;"Antelope KinderCare";"6825 Purslane Way";"Citrus Heights";"CA";95621;"(877) 959-6679";;;
147680;6808;"Lexington Hills KinderCare";"295 S. Lexington Dr.";"Folsom";"CA";95630;"(877) 959-6679";;;
147679;8389;"Modesto KinderCare";"1237 Oakdale Rd.";"Modesto";"CA";95355;"(877) 959-6679";;;
147678;9080;"Rancho Cordova KinderCare";"2329 Vehicle Dr.";"Rancho Cordova";"CA";95670;"(877) 959-6679";;;
147677;6647;"Bruceville KinderCare";"9394 Bruceville Rd.";"Elk Grove";"CA";95758;"(877) 959-6679";;;
147676;8388;"Rumble Road KinderCare";"2825 West Rumble Rd.";"Modesto";"CA";95350;"(877) 959-6679";;;
147675;10501;"Stockton KinderCare";"7801 Mariners Dr.";"Stockton";"CA";95219;"(877) 959-6679";;;
147673;8918;"Pittsburg KinderCare";"150 East Leland Rd.";"Pittsburg";"CA";94565;"(877) 959-6679";;;
147672;6307;"Concord KinderCare";"1551 Bailey Rd.";"Concord";"CA";94521;"(877) 959-6679";;;
147671;7927;"Livermore KinderCare";"4655 Lassen Rd.";"Livermore";"CA";94551;"(877) 959-6679";;;
147669;13546;"Westpark KinderCare";"855 Paseo Westpark";"Irvine";"CA";92606;"(877) 959-6679";;;
147668;15185;"Bay Meadows KinderCare";"1350 Wayne Way";"San Mateo";"CA";94403;"(877) 959-6679";;;
147667;13545;"Imperial Rose KinderCare";"1001 E. Imperial Highway";"Placentia";"CA";92870;"(877) 959-6679";;;
147665;5575;"Harbor Bay KinderCare";"2155 North Loop Rd.";"Alameda";"CA";94502;"(877) 959-6679";;;
147664;5655;"Mahogany Way KinderCare";"2300 Mahogany Way";"Antioch";"CA";94509;"(877) 959-6679";;;
147663;6269;"Clovis KinderCare";"1785 Villa Ave.";"Clovis";"CA";93612;"(877) 959-6679";;;
147660;7797;"Rancho San Diego KinderCare";"3655 Via Mercado";"La Mesa";"CA";91941;"(877) 959-6679";;;
147658;6181;"Chula Vista KinderCare";"1101 Paseo Ladera";"Chula Vista";"CA";91910;"(877) 959-6679";;;
147652;6998;"Woodward Park KinderCare";"993 East Champlain Dr.";"Fresno";"CA";93720;"(877) 959-6679";;;
147651;13544;"Ladera Ranch KinderCare";"1000 Corporate Dr.";"Ladera Ranch";"CA";92694;"(877) 959-6679";;;
147650;13543;"Talega KinderCare";"1141 Puerta del Sol";"San Clemente";"CA";92673;"(877) 959-6679";;;
147649;11132;"La Verne KinderCare";"3602 Wheeler Ave.";"La Verne";"CA";91750;"(877) 959-6679";;;
147648;6243;"Clayton KinderCare on Main St";"6095 Main St.";"Clayton";"CA";94517;"(877) 959-6679";;;
147647;15878;"Chino Hills KinderCare";"13815 Peyton Dr.";"Chino Hills";"CA";91709;"(877) 959-6679";;;
147646;5653;"East Antioch KinderCare";"4308 Folsom Dr.";"Antioch";"CA";94531;"(877) 959-6679";;;
147644;15873;"KinderCare of Victorville";"13615 Bear Valley Rd.";"Victorville";"CA";92392;"(877) 959-6679";;;
147643;5963;"Brentwood KinderCare";"2321 Eagle Rock Ave.";"Brentwood";"CA";94513;"(877) 959-6679";;;
147642;9202;"KinderCare of Riverbank";"5501 Antique Rose Way";"Riverbank";"CA";95367;"(877) 959-6679";;;
147641;6996;"N. First Street KinderCare";"6707 N. 1st St.";"Fresno";"CA";93710;"(877) 959-6679";;;
147640;12489;"Greenwood Avenue KinderCare";"1520 Greenwood Ave.";"Torrance";"CA";90503;"(877) 959-6679";;;
147639;11133;"Whittier KinderCare";"10704 Scott Ave.";"Whittier";"CA";90604;"(877) 959-6679";;;
147638;15474;"Riverside KinderCare";"7920 Limonite Ave.";"Riverside";"CA";92509;"(877) 959-6679";;;
147631;15880;"Liberty Pkwy KinderCare";"7370 W. Liberty Pkwy";"Fontana";"CA";92336;"(877) 959-6679";;;
147625;15862;"Chino KinderCare";"6010 Riverside Dr.";"Chino";"CA";91710;"(877) 959-6679";;;
147624;12487;"Northridge KinderCare";"16901 Lassen St.";"North Hills";"CA";91343;"(877) 959-6679";;;
147623;8278;"Martinez KinderCare";"1285 Morello Ave.";"Martinez";"CA";94553;"(877) 959-6679";;;
147622;10816;"Walnut Boulevard KinderCare";"2521 Walnut Blvd.";"Walnut Creek";"CA";94596;"(877) 959-6679";;;
147621;10817;"Walnut Creek KinderCare";"2850 Cherry Lane";"Walnut Creek";"CA";94597;"(877) 959-6679";;;
147619;14562;"Westlake Village KinderCare";"917 Hampshire Rd.";"Westlake Village";"CA";91361;"(877) 959-6679";;;
147618;14053;"Rockville Road KinderCare";"3045 Rockville Rd.";"Fairfield";"CA";94534;"(877) 959-6679";;;
147617;9212;"Rocklin KinderCare";"3431 Marlee Way";"Rocklin";"CA";95677;"(877) 959-6679";;;
147615;14560;"Buena Ventura KinderCare";"1197 S. Victoria Ave.";"Ventura";"CA";93003;"(877) 959-6679";;;
147614;15468;"Highgrove KinderCare";"1080 Highgrove St.";"Corona";"CA";92882;"(877) 959-6679";;;
147613;15872;"Terra Vista KinderCare";"11249 Base Line Rd.";"Rancho Cucamonga";"CA";91730;"(877) 959-6679";;;
147612;15473;"Winchester KinderCare";"40295 Winchester Rd.";"Temecula";"CA";92591;"(877) 959-6679";;;
147611;6602;"El Dorado Hills KinderCare";"3959 Park Dr.";"El Dorado Hills";"CA";95762;"(877) 959-6679";;;
147610;6367;"De Anza Blvd. KinderCare";"1515 South De Anza Blvd.";"Cupertino";"CA";95014;"(877) 959-6679";;;
147609;15874;"Yucaipa KinderCare";"33788 Yucaipa Blvd.";"Yucaipa";"CA";92399;"(877) 959-6679";;;
147607;12484;"Valencia KinderCare";"28180 Mcbean Pkwy";"Valencia";"CA";91355;"(877) 959-6679";;;
147606;14165;"Petaluma KinderCare";"1485 North McDowell Blvd.";"Petaluma";"CA";94954;"(877) 959-6679";;;
147605;12485;"San Fernando KinderCare";"2100 Frank Modugno Dr.";"San Fernando";"CA";91340;"(877) 959-6679";;;
147604;15871;"Higgins Ranch KinderCare";"15928 Los Serranos Country Club Dr.";"Chino Hills";"CA";91709;"(877) 959-6679";;;
147603;9248;"West Granite Bay KinderCare";"8765 Sierra College Blvd.";"Roseville";"CA";95661;"(877) 959-6679";;;
147601;15869;"Rialto KinderCare";"960 Bloomington Ave.";"Bloomington";"CA";92316;"(877) 959-6679";;;
147600;15868;"Fontana KinderCare";"16149 Foothill Blvd.";"Fontana";"CA";92335;"(877) 959-6679";;;
147599;15867;"Redlands KinderCare";"10451 Commerce St.";"Redlands";"CA";92374;"(877) 959-6679";;;
147598;14561;"Camarillo KinderCare";"2360 Pickwick Dr.";"Camarillo";"CA";93010;"(877) 959-6679";;;
147595;13542;"Irvine KinderCare";"5396 Walnut Ave.";"Irvine";"CA";92604;"(877) 959-6679";;;
147594;15469;"Perris KinderCare";"610 E. Nuevo Rd.";"Perris";"CA";92571;"(877) 959-6679";;;
147593;15459;"Hidden Valley KinderCare";"1655 Hidden Valley Pkwy";"Corona";"CA";92879;"(877) 959-6679";;;
147592;15870;"Heritage Village KinderCare";"13523 Baseline Ave.";"Fontana";"CA";92336;"(877) 959-6679";;;
147591;6601;"Francisco Drive KinderCare";"2220 Francisco Dr.";"El Dorado Hills";"CA";95762;"(877) 959-6679";;;
147590;5654;"Lone Tree Way KinderCare";"4108 Lone Tree Way";"Antioch";"CA";94509;"(877) 959-6679";;;
147589;15472;"Mission Grove KinderCare";"7897 Mission Grove Pkwy S.";"Riverside";"CA";92508;"(877) 959-6679";;;
147587;15471;"Red Hawk KinderCare";"31935 Via Rio Temecula Rd.";"Temecula";"CA";92592;"(877) 959-6679";;;
147584;8977;"Pleasanton KinderCare";"3760 Brockton Dr.";"Pleasanton";"CA";94588;"(877) 959-6679";;;
147583;15864;"South Ridge KinderCare";"14750 Live Oak Ave.";"Fontana";"CA";92337;"(877) 959-6679";;;
147582;15876;"Rancho Cucamonga KinderCare";"10191 Foothill Blvd.";"Rancho Cucamonga";"CA";91730;"(877) 959-6679";;;
147581;15875;"Ontario KinderCare";"2140 South Euclid Ave.";"Ontario";"CA";91762;"(877) 959-6679";;;
147580;15877;"Colton KinderCare";"1730 East Washington St.";"Colton";"CA";92324;"(877) 959-6679";;;
147579;15865;"Highland KinderCare";"7221 Church St.";"Highland";"CA";92346;"(877) 959-6679";;;
147578;15464;"Canyon Crest KinderCare";"5445 Canyon Crest Dr.";"Riverside";"CA";92507;"(877) 959-6679";;;
147577;15463;"Hemet KinderCare";"42111 E. Florida Ave.";"Hemet";"CA";92544;"(877) 959-6679";;;
147576;15462;"Moreno Valley KinderCare";"11961 Perris Blvd.";"Moreno Valley";"CA";92557;"(877) 959-6679";;;
147575;15461;"Olivewood KinderCare";"23301 Olive Wood Plaza Dr.";"Moreno Valley";"CA";92553;"(877) 959-6679";;;
147574;12486;"Chatsworth KinderCare";"10036 Old Depot Plaza Rd.";"Chatsworth";"CA";91311;"(877) 959-6679";;;
147573;15866;"Barton Road KinderCare";"1609 Calvary Circle";"Redlands";"CA";92373;"(877) 959-6679";;;
147572;15467;"Magnolia KinderCare";"1187 Magnolia Ave.";"Corona";"CA";92879;"(877) 959-6679";;;
147571;15466;"Murrieta KinderCare";"24369 Skyview Ridge Dr.";"Murrieta";"CA";92562;"(877) 959-6679";;;
147569;14559;"Moorpark KinderCare";"3987 Spring Rd.";"Moorpark";"CA";93021;"(877) 959-6679";;;
147567;6390;"Camino Ramon KinderCare";"909 Camino Ramon";"Danville";"CA";94526;"(877) 959-6679";;;
147562;14056;"Fairfield KinderCare";"1611 Woodcreek Dr.";"Fairfield";"CA";94534;"(877) 959-6679";;;
147561;14054;"Vacaville KinderCare";"581 Peabody Rd.";"Vacaville";"CA";95687;"(877) 959-6679";;;
147560;14057;"Vallejo KinderCare";"35 Rotary Way";"Vallejo";"CA";94591;"(877) 959-6679";;;
147559;14166;"Rohnert Park KinderCare";"6150 State Farm Dr.";"Rohnert Park";"CA";94928;"(877) 959-6679";;;
147558;14563;"Thousand Oaks KinderCare";"2425 Oak Brook Dr.";"Thousand Oaks";"CA";91362;"(877) 959-6679";;;
147557;14055;"Benicia KinderCare";"1101 Rose Dr.";"Benicia";"CA";94510;"(877) 959-6679";;;
147556;10024;"Evergreen KinderCare";"3320 San Felipe Rd.";"San Jose";"CA";95135;"(877) 959-6679";;;
147555;10023;"Foxworthy KinderCare";"1081 Foxworthy Ave.";"San Jose";"CA";95118;"(877) 959-6679";;;
147554;8470;"Morgan Hill KinderCare";"605 East Dunne Ave.";"Morgan Hill";"CA";95037;"(877) 959-6679";;;
147553;8497;"Mountain View KinderCare";"2065 W. El Camino";"Mountain View";"CA";94040;"(877) 959-6679";;;
147550;6552;"El Cajon KinderCare";"1470 Jamacha Rd.";"El Cajon";"CA";92019;"(877) 959-6679";;;
147548;10311;"Santee KinderCare";"9735 Cuyamaca St.";"Santee";"CA";92071;"(877) 959-6679";;;
147546;8755;"Oceanside KinderCare";"3536 College Blvd.";"Oceanside";"CA";92056;"(877) 959-6679";;;
147541;12482;"Castaic KinderCare";"28040 Halsey Canyon Rd.";"Castaic";"CA";91384;"(877) 959-6679";;;
147540;11131;"Belmont Shore KinderCare";"5251 East Las Lomas St.";"Long Beach";"CA";90815;"(877) 959-6679";;;
147539;13539;"Beacon Hill KinderCare";"25189 Beacon Hill Way";"Laguna Niguel";"CA";92677;"(877) 959-6679";;;
147526;11127;"Cerritos KinderCare";"18727 Carmenita Rd.";"Cerritos";"CA";90703;"(877) 959-6679";;;
147525;11126;"Merced KinderCare";"830 West Merced Ave.";"West Covina";"CA";91790;"(877) 959-6679";;;
147523;11124;"Covina KinderCare";"4514 North Lark Ellen Ave.";"Covina";"CA";91722;"(877) 959-6679";;;
147522;11123;"San Dimas-Foothill KinderCare";"455 East Foothill Blvd.";"San Dimas";"CA";91773;"(877) 959-6679";;;
147521;11122;"West Covina KinderCare";"3443 S. Nogales St.";"West Covina";"CA";91792;"(877) 959-6679";;;
147520;12478;"Granada Hills KinderCare";"17730 Rinaldi St.";"Granada Hills";"CA";91344;"(877) 959-6679";;;
147519;11121;"Via Verde KinderCare";"1175 North Via Verde Rd.";"San Dimas";"CA";91773;"(877) 959-6679";;;
145599;5604;"Discovery Time KinderCare";"406 S. Second St.";"Alhambra";"CA";91801;"(877) 959-6679";;;
128082;216981;"Downtown KinderCare";"3800 North Central Ave.";"Phoenix";"AZ";85012;"(877) 959-6679";;;
127887;216901;"Pima Street KinderCare";"3107 E. Pima St.";"Tucson";"AZ";85716;"(877) 959-6679";;;
127885;216921;"Golf Links KinderCare";"8277 E Golf Links Rd.";"Tucson";"AZ";85730;"(877) 959-6679";;;
127880;216891;"Desert Trail KinderCare";"8425 E. Old Spanish Trail";"Tucson";"AZ";85710;"(877) 959-6679";;;
127879;216811;"Ina KinderCare";"7277 N. Old Father";"Tucson";"AZ";85741;"(877) 959-6679";;;
127717;216991;"Tempe KinderCare";"1773 East McNair Dr.";"Tempe";"AZ";85283;"(877) 959-6679";;;
127659;217101;"Surprise KinderCare";"15415 West Bell Rd.";"Surprise";"AZ";85374;"(877) 959-6679";;;
127563;216851;"McDowell Mtn Ranch KinderCare";"10409 E McDowell Mountain Ranch";"Scottsdale";"AZ";85255;"(877) 959-6679";;;
127562;216751;"Scottsdale KinderCare";"16605 N. 56th St.";"Scottsdale";"AZ";85254;"(877) 959-6679";;;
127311;217021;"Black Canyon KinderCare";"10653 N 25th Ave.";"Phoenix";"AZ";85029;"(877) 959-6679";;;
127309;217061;"Anthem KinderCare";"3720 West Shadow Glen Way";"Phoenix";"AZ";85086;"(877) 959-6679";;;
127306;216831;"Mountain Park Ranch KinderCare";"4120 E. Ranch Circle North Dr.";"Phoenix";"AZ";85044;"(877) 959-6679";;;
127112;216971;"67th/Peoria KinderCare";"6835 West Peoria Ave.";"Peoria";"AZ";85345;"(877) 959-6679";;;
126978;216861;"Recker-McDowell KinderCare";"6037 E McDowell Rd.";"Mesa";"AZ";85215;"(877) 959-6679";;;
126976;216941;"Mesa KinderCare";"1810 East Southern Ave.";"Mesa";"AZ";85204;"(877) 959-6679";;;
126975;217001;"McKellips KinderCare";"1063 East McKellips Rd.";"Mesa";"AZ";85203;"(877) 959-6679";;;
126910;239301;"Laveen KinderCare";"7755 51st Ave.";"Laveen";"AZ";85339;"(877) 959-6679";;;
126850;217041;"Goodyear KinderCare";"13746 West McDowell Rd.";"Goodyear";"AZ";85338;"(877) 959-6679";;;
126805;217011;"Arrowhead KinderCare";"20245 North 67th Ave.";"Glendale";"AZ";85308;"(877) 959-6679";;;
126802;216961;"Union Hills KinderCare";"3524 West Union Hills Dr.";"Glendale";"AZ";85308;"(877) 959-6679";;;
126739;217031;"Val Vista Lakes KinderCare";"1545 North Parkway Dr.";"Gilbert";"AZ";85234;"(877) 959-6679";;;
126738;216761;"Gilbert Road KinderCare";"500 S. Gilbert Rd.";"Gilbert";"AZ";85296;"(877) 959-6679";;;
126737;216871;"Sonoran Vista KinderCare";"135 S Val Vista Dr.";"Gilbert";"AZ";85296;"(877) 959-6679";;;
126588;217051;"McQueen KinderCare";"900 North McQueen Rd.";"Chandler";"AZ";85225;"(877) 959-6679";;;
126587;217071;"South Chandler KinderCare";"1955 South Alma School Rd.";"Chandler";"AZ";85286;"(877) 959-6679";;;
126586;216771;"North Elm KinderCare";"150 N. Elm St.";"Chandler";"AZ";85226;"(877) 959-6679";;;
126585;216841;"Queen Creek KinderCare";"1919 West Queen Creek Rd.";"Chandler";"AZ";85248;"(877) 959-6679";;;
86448;28223;"Addison KinderCare";"5080 Spectrum Dr.";"Addison";"TX";75001;"(877) 959-6679";;;
86447;28222;"Browning KinderCare";"2225 Browning Dr.";"Arlington";"TX";76010;"(877) 959-6679";;;
86445;28225;"Spring Valley Road KinderCare";"3710 Spring Valley Rd.";"Addison";"TX";75001;"(877) 959-6679";;;
86444;28220;"Irving KinderCare";"3501 N. Story Rd.";"Irving";"TX";75062;"(877) 959-6679";;;
86443;28224;"Parkwood Hill KinderCare";"7900 Parkwood Hill Blvd.";"Fort Worth";"TX";76137;"(877) 959-6679";;;
86442;28219;"Friendswood KinderCare";"2550 W. Bay Area Blvd.";"Friendswood";"TX";77546;"(877) 959-6679";;;
86431;28211;"Pinebrook KinderCare";"4422 Clear Lake City Blvd.";"Houston";"TX";77059;"(877) 959-6679";;;
86428;28206;"Allen Knowledge Beginnings";"1216 East Bethany Rd.";"Allen";"TX";75002;"(877) 959-6679";;;
86427;28207;"Katy Knowledge Beginnings";"6130 South Fry Rd.";"Katy";"TX";77494;"(877) 959-6679";;;
86330;28101;"Timber Forest KinderCare";"19151 Timber Forest Dr.";"Humble";"TX";77346;"(877) 959-6679";;;
86329;28100;"Rosenberg KinderCare";"4305 Mustang Ave.";"Rosenberg";"TX";77471;"(877) 959-6679";;;
86328;28099;"Euless KinderCare";"2440 Fuller-Wiser Rd.";"Euless";"TX";76039;"(877) 959-6679";;;
86327;28098;"Forest Lane KinderCare";"9131 Forest Lane";"Dallas";"TX";75243;"(877) 959-6679";;;
86326;28097;"Rowlett KinderCare";"3316 Lakeview Pkwy";"Rowlett";"TX";75088;"(877) 959-6679";;;
86325;28096;"Tyler KinderCare";"2524 McDonald Rd.";"Tyler";"TX";75701;"(877) 959-6679";;;
86324;28095;"Toepperwein Road KinderCare";"11501 Toepperwein Rd.";"San Antonio";"TX";78233;"(877) 959-6679";;;
86323;28094;"Frankford Road West KinderCare";"1300 E. Frankford Rd.";"Carrollton";"TX";75007;"(877) 959-6679";;;
86321;28074;"South Congress KinderCare";"6434 S. Congress Ave.";"Austin";"TX";78745;"(877) 959-6679";;;
86320;28064;"Silverlake KinderCare";"2325 County Rd. 90";"Pearland";"TX";77584;"(877) 959-6679";;;
86319;28062;"Mansfield KinderCare";"2120 Man Ave.";"Mansfield";"TX";76063;"(877) 959-6679";;;
86318;28055;"Walnut Bend KinderCare";"2625 Walnut Bend Ln.";"Houston";"TX";77042;"(877) 959-6679";;;
86317;28075;"Sharpstown KinderCare";"6767 Rookin St.";"Houston";"TX";77074;"(877) 959-6679";;;
86316;28067;"Oakmont KinderCare";"7901 Oakmont Blvd.";"Fort Worth";"TX";76132;"(877) 959-6679";;;
86313;28073;"Spring Creek KinderCare";"15610 Spring Creek Rd.";"Dallas";"TX";75248;"(877) 959-6679";;;
86312;28072;"Bellfort Street KinderCare";"7828 Bellfort St.";"Houston";"TX";77061;"(877) 959-6679";;;
86311;28093;"Northwest Highway KinderCare";"1321 Northwest Highway";"Garland";"TX";75041;"(877) 959-6679";;;
86310;28092;"Culebra KinderCare";"8031 Culebra Rd.";"San Antonio";"TX";78251;"(877) 959-6679";;;
86309;28083;"Fry Road KinderCare";"2202 Fry Rd.";"Houston";"TX";77084;"(877) 959-6679";;;
86308;28059;"Spring Branch KinderCare";"10170 Emnora Lane";"Houston";"TX";77080;"(877) 959-6679";;;
86307;28082;"Westcreek KinderCare";"6017 WestCreek Dr.";"Fort Worth";"TX";76133;"(877) 959-6679";;;
86306;28081;"South Hulen KinderCare";"7224 Kingswood Dr.";"Fort Worth";"TX";76133;"(877) 959-6679";;;
86305;28084;"The Bear Creek KinderCare";"17527 West Little York Rd.";"Houston";"TX";77084;"(877) 959-6679";;;
86304;28086;"Beamer Road KinderCare";"12002 Beamer Rd.";"Houston";"TX";77089;"(877) 959-6679";;;
86302;28061;"Preston Meadow KinderCare";"6900 Preston Meadow Dr.";"Plano";"TX";75024;"(877) 959-6679";;;
86301;28077;"Campbell Rd KinderCare";"511 West Campbell Rd.";"Richardson";"TX";75080;"(877) 959-6679";;;
86300;28076;"Twin Creeks KinderCare";"210 North Alma Rd.";"Allen";"TX";75013;"(877) 959-6679";;;
86299;28069;"Missouri City KinderCare";"1531 Texas Pkwy";"Missouri City";"TX";77489;"(877) 959-6679";;;
86298;28087;"Copperfield KinderCare";"18035 Forest Heights Dr.";"Houston";"TX";77095;"(877) 959-6679";;;
86294;28085;"Emerald Wood KinderCare";"610 Emerald Wood Dr.";"Austin";"TX";78745;"(877) 959-6679";;;
86293;28065;"Bunker Hill KinderCare";"937 Bunker Hill Rd.";"Houston";"TX";77024;"(877) 959-6679";;;
86291;28080;"Wood River KinderCare";"2911 Wood River Dr.";"Spring";"TX";77373;"(877) 959-6679";;;
86290;28056;"Creek Valley KinderCare";"4052 Huffines Blvd.";"Carrollton";"TX";75010;"(877) 959-6679";;;
86289;28060;"Parliament KinderCare";"11814 Parliament Dr.";"San Antonio";"TX";78216;"(877) 959-6679";;;
86288;28058;"Nacogdoches KinderCare";"13030 Nacogdoches Rd.";"San Antonio";"TX";78217;"(877) 959-6679";;;
86286;28089;"Heimer KinderCare";"14230 Cross Canyon Rd.";"San Antonio";"TX";78232;"(877) 959-6679";;;
86284;28070;"Aldine Westfield KinderCare";"2349 Fm 1960 East";"Houston";"TX";77073;"(877) 959-6679";;;
86283;28071;"Bedford KinderCare";"2309 Central Dr.";"Bedford";"TX";76021;"(877) 959-6679";;;
86282;28078;"Greatwood KinderCare";"903 Greatwood Glen Dr.";"Sugar Land";"TX";77479;"(877) 959-6679";;;
86280;28053;"Kelly Boulevard KinderCare";"2210 Kelly Blvd.";"Carrollton";"TX";75006;"(877) 959-6679";;;
86279;28052;"Frankford Road East KinderCare";"4025 Frankford Rd.";"Dallas";"TX";75287;"(877) 959-6679";;;
86277;28049;"Big Springs KinderCare";"3349 Big Springs";"Garland";"TX";75044;"(877) 959-6679";;;
86276;28048;"Southlake-Grapevine KinderCare";"3115 East Southlake Blvd.";"Southlake";"TX";76092;"(877) 959-6679";;;
86275;28047;"Valley Ranch KinderCare";"504 Ranch Trail";"Irving";"TX";75063;"(877) 959-6679";;;
86274;28046;"Antoine KinderCare";"8703 Antoine Dr.";"Houston";"TX";77088;"(877) 959-6679";;;
86273;28045;"South Synott KinderCare";"8610 Synott Rd.";"Houston";"TX";77083;"(877) 959-6679";;;
86272;28044;"Burnham Rd KinderCare";"1325 Burnham Rd.";"Plano";"TX";75093;"(877) 959-6679";;;
86271;28043;"Matlock KinderCare";"5225 Matlock Rd.";"Arlington";"TX";76018;"(877) 959-6679";;;
86270;28042;"Marquita KinderCare";"3700 Marquita Dr.";"Fort Worth";"TX";76116;"(877) 959-6679";;;
86269;28041;"Bedford Harwood KinderCare";"2616 Harwood Rd.";"Bedford";"TX";76021;"(877) 959-6679";;;
86268;28040;"Green Oaks KinderCare";"4141 SW Green Oaks Blvd.";"Arlington";"TX";76017;"(877) 959-6679";;;
86267;28051;"North Custer KinderCare";"6525 Custer Rd.";"Plano";"TX";75023;"(877) 959-6679";;;
86266;28039;"South Collins KinderCare";"2710 South Collins St.";"Arlington";"TX";76014;"(877) 959-6679";;;
86265;28038;"North Arlington KinderCare";"1608 Candler Dr.";"Arlington";"TX";76011;"(877) 959-6679";;;
86264;28037;"Summerfields KinderCare";"3800 Basswood Blvd.";"Fort Worth";"TX";76137;"(877) 959-6679";;;
86263;28036;"Vista Del Sol KinderCare";"11022 Vista Del Sol Dr.";"El Paso";"TX";79935;"(877) 959-6679";;;
86262;28035;"Millridge KinderCare";"10711 Millridge North Dr.";"Houston";"TX";77070;"(877) 959-6679";;;
86261;28034;"Fairbanks KinderCare";"7702 Fairbanks North Houston Rd.";"Houston";"TX";77040;"(877) 959-6679";;;
86260;28033;"Cinco Ranch KinderCare";"2650 South Peek Rd.";"Katy";"TX";77450;"(877) 959-6679";;;
86259;28032;"Katy KinderCare";"19510 Clay Rd.";"Katy";"TX";77449;"(877) 959-6679";;;
86258;28031;"West Kingsland KinderCare";"22129 Kingsland Blvd.";"Katy";"TX";77450;"(877) 959-6679";;;
86256;28027;"Fountain Park KinderCare";"103 North Fountain Park Dr.";"Allen";"TX";75002;"(877) 959-6679";;;
86255;28026;"Oakhurst Drive KinderCare";"24717 Oakhurst Dr.";"Spring";"TX";77386;"(877) 959-6679";;;
86254;28028;"Brimhurst KinderCare";"1407 Parkway Plaza Dr.";"Houston";"TX";77077;"(877) 959-6679";;;
86253;28030;"Kingwood KinderCare";"2728 Ben's Branch Dr.";"Kingwood";"TX";77339;"(877) 959-6679";;;
86245;28015;"South Willis KinderCare";"2309 South Willis St.";"Abilene";"TX";79605;"(877) 959-6679";;;
86244;28014;"Wallisville KinderCare";"14614 Wallisville Rd.";"Houston";"TX";77049;"(877) 959-6679";;;
86243;28013;"Westside KinderCare";"6923 Enid Court";"El Paso";"TX";79912;"(877) 959-6679";;;
86242;28012;"East Montwood Drive KinderCare";"10614 East Montwood Dr.";"El Paso";"TX";79935;"(877) 959-6679";;;
86240;28010;"Las Colinas KinderCare";"1121 Greenway Circle";"Irving";"TX";75038;"(877) 959-6679";;;
86239;28009;"Baytown KinderCare";"3410 Garth Rd.";"Baytown";"TX";77521;"(877) 959-6679";;;
86238;28008;"Mossrock KinderCare";"2711 Mossrock Dr.";"San Antonio";"TX";78230;"(877) 959-6679";;;
86237;28007;"Fairmont KinderCare";"3602 Fairmont Pkwy";"Pasadena";"TX";77504;"(877) 959-6679";;;
86236;28006;"Patricia KinderCare";"1127 Patricia Dr.";"San Antonio";"TX";78213;"(877) 959-6679";;;
86235;28005;"Judson At Stahl KinderCare";"15170 Judson Rd.";"San Antonio";"TX";78247;"(877) 959-6679";;;
86234;28004;"Royal Street KinderCare";"110 Royal St.";"Bryan";"TX";77801;"(877) 959-6679";;;
86233;27995;"Acushnet KinderCare";"4040 Acushnet Dr.";"Corpus Christi";"TX";78413;"(877) 959-6679";;;
86232;27994;"Everhart KinderCare";"6826 Everhart  Rd.";"Corpus Christi";"TX";78413;"(877) 959-6679";;;
86231;27993;"Rodd Field Road KinderCare";"1354 Rodd Field Rd.";"Corpus Christi";"TX";78412;"(877) 959-6679";;;
86230;27992;"Lakewood KinderCare";"13025 Louetta Rd.";"Cypress";"TX";77429;"(877) 959-6679";;;
86227;27987;"Hebron KinderCare";"4241 Marsh Lane";"Carrollton";"TX";75007;"(877) 959-6679";;;
86226;27990;"South Shore KinderCare";"106 Meadow Pkwy";"League City";"TX";77573;"(877) 959-6679";;;
86224;27986;"Balcones KinderCare";"937 Balcones Dr.";"College Station";"TX";77840;"(877) 959-6679";;;
86223;27985;"Carter Creek KinderCare";"4351 Carter Creek Pkwy";"Bryan";"TX";77802;"(877) 959-6679";;;
86222;27984;"Village Drive KinderCare";"1711 Village Dr.";"College Station";"TX";77840;"(877) 959-6679";;;
86221;339651;"Deer Park KinderCare";"602 S Pasadena Blvd.";"Deer Park";"TX";77536;"(877) 959-6679";;;
86220;27982;"Boone Road KinderCare";"7019 Boone Rd.";"Houston";"TX";77072;"(877) 959-6679";;;
86218;27980;"Timber Path KinderCare";"8787 Timber Path";"San Antonio";"TX";78250;"(877) 959-6679";;;
86217;27979;"Guilbeau KinderCare";"8980 Guilbeau Rd.";"San Antonio";"TX";78250;"(877) 959-6679";;;
84456;25646;"First Baptist Kids";"225 Keller Parkway";"Keller";"TX";76248;"(877) 959-6679";;;
83403;24569;"Childrens Village Development Center";"9759 Forest Ln Ste 450";"Dallas";"TX";75243;"(877) 959-6679";;;
83210;24358;"Childcare Network #182";"1400 Caplin Street";"Arlington";"TX";76018;"(877) 959-6679";;;
83209;24357;"Childcare Network #173";"5900 Matlock Road South";"Arlington";"TX";76018;"(877) 959-6679";;;
83208;24356;"Childcare Network #172";"240 East Beltline Road";"Cedar Hill";"TX";75104;"(877) 959-6679";;;
83207;24355;"Childcare Network #170";"2020 South MacArthur Boulevard";"Irving";"TX";75060;"(877) 959-6679";;;
83206;24354;"Childcare Network #171";"703 South Cedar Ridge";"Duncanville";"TX";75137;"(877) 959-6679";;;
56817;218251;"Richardson Road KinderCare";"4225 Richardson Rd.";"Independence";"KY";41051;"(877) 959-6679";;;
56538;218231;"Zorn KinderCare";"730 Zorn Ave.";"Louisville";"KY";40206;"(877) 959-6679";;;
56537;218191;"Shelbyville KinderCare";"8016 Shelbyville Rd.";"Louisville";"KY";40222;"(877) 959-6679";;;
56536;218211;"Newburg KinderCare";"2990 Newburg Rd.";"Louisville";"KY";40205;"(877) 959-6679";;;
56535;218201;"Herr Lane KinderCare";"2013 Herr Lane";"Louisville";"KY";40222;"(877) 959-6679";;;
56533;218241;"Klondike KinderCare";"3804 Klondike Lane";"Louisville";"KY";40218;"(877) 959-6679";;;
56313;218181;"Lyndon Lane KinderCare";"1100 Lyndon Lane";"Louisville";"KY";40222;"(877) 959-6679";;;
55941;218221;"Wellington KinderCare";"628 Wellington Way";"Lexington";"KY";40503;"(877) 959-6679";;;
55846;218261;"Lexington KinderCare";"2611 Wilhite Dr.";"Lexington";"KY";40503;"(877) 959-6679";;;
55845;218271;"Custer KinderCare";"3199 Custer Dr.";"Lexington";"KY";40517;"(877) 959-6679";;;
55833;218171;"Appian Way KinderCare";"3600 Appian Way";"Lexington";"KY";40517;"(877) 959-6679";;;
1009399;215781;"Sullivan KinderCare";"205 South Sullivan Rd.";"Veradale";"WA";99037;"(877) 959-6679";;;
989727;219711;"Torrey Pines KinderCare Las Vegas";"4050 South Torrey Pines Dr.";"Las Vegas";"NV";89103;"(877) 959-6679";;;
989726;219691;"The Lakes KinderCare Las Vegas";"2600 Lake Sahara Dr.";"Las Vegas";"NV";89117;"(877) 959-6679";;;
982014;216731;"Riverchase KinderCare";"1820 Southpark Dr.";"Birmingham";"AL";35244;"(877) 959-6679";;;
903657;341001;"Tigard Knowledge Beginnings";"10751 SW 130th Ave.";"Portland";"OR";97223;"(877) 959-6679";;;
903655;220061;"Scholls Ferry Road KinderCare";"12658 SW North Dakota St.";"Portland";"OR";97223;"(877) 959-6679";;;
897298;219651;"Summerlin KinderCare Las Vegas";"3085 Desert Marigold Lane";"Las Vegas";"NV";89135;"(877) 959-6679";;;
897297;219741;"Warm Springs KinderCare Las Vegas";"1655 East Warm Springs Rd.";"Las Vegas";"NV";89119;"(877) 959-6679";;;
894548;219441;"West A Street KinderCare Lincoln NE";"1460 West A St.";"Lincoln";"NE";68522;"(877) 959-6679";;;
894165;219521;"Pioneers Boulevard KinderCare Lincoln NE";"5601 Pioneers Blvd.";"Lincoln";"NE";68506;"(877) 959-6679";;;
883566;220961;"Premier Lane KinderCare";"W 180 N 9410 Premier Lane";"Menomonee Falls";"WI";53051;"(877) 959-6679";;;
881868;220671;"St. Francis KinderCare";"4692 S. Whitnall Ave.";"Milwaukee";"WI";53235;"(877) 959-6679";;;
881841;220551;"South 108th Street KinderCare";"3370 S. 108th St.";"Milwaukee";"WI";53227;"(877) 959-6679";;;
881597;220841;"West Allis KinderCare";"11423 West Cleveland Ave.";"Milwaukee";"WI";53227;"(877) 959-6679";;;
848393;221051;"Rooney Ranch KinderCare";"13990 W Bates Ave.";"Denver";"CO";80228;"(877) 959-6679";;;
834938;220231;"Powell KinderCare";"3053 Staffordshire Blvd.";"Powell";"TN";37849;"(877) 959-6679";;;
823713;4493;"West Carrollton KinderCare";"1410 South Elm St.";"Dayton";"OH";45449;"(877) 959-6679";;;
823707;2943;"Sawbury KinderCare";"2680 Sawbury Blvd.";"Columbus";"OH";43235;"(877) 959-6679";;;
823683;608;"Symmes Township KinderCare";"11737 Seven Gables Rd.";"Cincinnati";"OH";45249;"(877) 959-6679";;;
823677;2942;"Worthington KinderCare";"77 Caren Ave.";"Columbus";"OH";43085;"(877) 959-6679";;;
813237;188521;"St. Louis Park KinderCare";"4732 Excelsior Blvd.";"Minneapolis";"MN";55426;"(877) 959-6679";;;
813121;188461;"Woodbury Knowledge Beginnings";"8445 Seasons Pkwy";"Saint Paul";"MN";55125;"(877) 959-6679";;;
812909;188411;"Rockford KinderCare";"15755 Rockford Rd.";"Minneapolis";"MN";55446;"(877) 959-6679";;;
812840;188361;"Ramsey KinderCare";"14100 St Francis Blvd.";"Anoka";"MN";55303;"(877) 959-6679";;;
812812;188341;"Woodbury KinderCare";"8400 City Centre Dr.";"Saint Paul";"MN";55125;"(877) 959-6679";;;
812750;188321;"University Avenue KinderCare";"10790 University Ave. NW";"Minneapolis";"MN";55448;"(877) 959-6679";;;
812287;188211;"Valley Pond KinderCare";"14185 Essex Ave.";"Saint Paul";"MN";55124;"(877) 959-6679";;;
812286;188201;"Shoreview KinderCare";"4650 Hodgson Rd.";"Saint Paul";"MN";55126;"(877) 959-6679";;;
812285;188191;"Xerxes Avenue KinderCare";"7964 Xerxes Ave. North";"Minneapolis";"MN";55444;"(877) 959-6679";;;
812273;188081;"Rhode Island KinderCare";"10801 Rhode Island Ave. South";"Minneapolis";"MN";55438;"(877) 959-6679";;;
812151;340031;"West St. Paul KinderCare";"1541 Humboldt Ave.";"Saint Paul";"MN";55118;"(877) 959-6679";;;
812149;188261;"St. Paul KinderCare";"325 Cedar St.";"Saint Paul";"MN";55101;"(877) 959-6679";;;
812148;188051;"Rice KinderCare";"181 W. County Rd. B2";"Saint Paul";"MN";55113;"(877) 959-6679";;;
812147;188041;"Roseville KinderCare";"2186 Fairview Ave. North";"Saint Paul";"MN";55113;"(877) 959-6679";;;
812136;187981;"Robbinsdale KinderCare";"4012 Adair Ave. North";"Minneapolis";"MN";55422;"(877) 959-6679";;;
780126;75191;"Round Lake Heights KinderCare";"700 W. Rollins Rd.";"Round Lake";"IL";60073;"(877) 959-6679";;;
780123;65101;"Round Lake Beach KinderCare";"1512 North IL Route 83";"Round Lake";"IL";60073;"(877) 959-6679";;;
779342;75401;"Sleepy Hollow KinderCare";"711 Willow Lane";"Dundee";"IL";60118;"(877) 959-6679";;;
733411;219781;"Sheridan Road KinderCare Tulsa OK";"7607 Sheridan Rd.";"Tulsa";"OK";74133;"(877) 959-6679";;;
733409;219801;"South Mingo KinderCare Tulsa OK";"9625 S. Mingo Rd.";"Tulsa";"OK";74133;"(877) 959-6679";;;
733312;219761;"South Detroit KinderCare Tulsa OK";"4103 S. Detroit Ave.";"Tulsa";"OK";74105;"(877) 959-6679";;;
733303;219861;"University of Tulsa KinderCare Tulsa OK";"2906 East 3rd St.";"Tulsa";"OK";74104;"(877) 959-6679";;;
712262;33334;"Radnor KinderCare";"424 King of Prussia Rd.";"Wayne";"PA";19087;"(877) 959-6679";;;
708576;37557;"Seven Fields KinderCare";"103 High Pointe Drive";"Mars";"PA";16046;"(877) 959-6679";;;
708519;35996;"Yardley KinderCare";"748 Stoney Hill Rd.";"Morrisville";"PA";19067;"(877) 959-6679";;;
689660;219091;"West County KinderCare";"14733 Clayton Rd.";"Ballwin";"MO";63011;"(877) 959-6679";;;
689655;219171;"South County KinderCare";"4105 Telegraph Rd.";"Saint Louis";"MO";63129;"(877) 959-6679";;;
689654;218981;"St Ann KinderCare";"10451 International Plaza Dr.";"Saint Ann";"MO";63074;"(877) 959-6679";;;
689266;339931;"St. Charles KinderCare";"1900 Zumbehl Rd.";"Saint Charles";"MO";63303;"(877) 959-6679";;;
687925;218991;"Raytown KinderCare";"8643 Raytown Rd.";"Kansas City";"MO";64138;"(877) 959-6679";;;
680693;216691;"Prattville KinderCare";"701 Sheila Blvd.";"Prattville";"AL";36066;"(877) 959-6679";;;
665303;183721;"Shadygrove Road KinderCare";"16723 Crabbs Branch Way";"Derwood";"MD";20855;"(877) 959-6679";;;
661539;147601;"West Windsor KinderCare";"One Kinder Court";"Princeton Junction";"NJ";8550;"(877) 959-6679";;;
661459;147051;"Robbinsville KinderCare";"2285 State Hwy Route 33";"Trenton";"NJ";8691;"(877) 959-6679";;;
657683;340861;"Westwood Knowledge Beginnings";"200 Providence Highway";"Westwood";"MA";2090;"(877) 959-6679";;;
657266;340821;"Wellesley Knowledge Beginnings";"204 Worcester St.";"Wellesley Hills";"MA";2481;"(877) 959-6679";;;
610000;380799;"Teddy Bear Child Care";"7383 Rancho Catalina Trail";"San Diego";"CA";92127;"(877) 959-6679";;;
594946;215761;"Salmon Creek KinderCare Vancouver WA";"13315 NE 12th Ave.";"Vancouver";"WA";98685;"(877) 959-6679";;;
586697;111041;"Sterling Park KinderCare";"106 Free Ct.";"Sterling";"VA";20164;"(877) 959-6679";;;
586696;111031;"Skipwith Road KinderCare";"3206 Skipwith Rd.";"Henrico";"VA";23294;"(877) 959-6679";;;
586693;111001;"Pump Road KinderCare";"1001 Pump Rd.";"Henrico";"VA";23238;"(877) 959-6679";;;
586684;110921;"Trucker Street KinderCare";"5700 Trucker St.";"Portsmouth";"VA";23703;"(877) 959-6679";;;
586673;110831;"West End Drive KinderCare";"3712 West End Dr.";"Henrico";"VA";23294;"(877) 959-6679";;;
533906;45919;"Temple Terrace KinderCare";"11501 North 53rd St.";"Tampa";"FL";33617;"(877) 959-6679";;;
533896;44387;"Silver Lakes KinderCare";"18500 Johnson St.";"Hollywood";"FL";33029;"(877) 959-6679";;;
533890;44384;"Sunrise KinderCare";"8520 North West 44th St.";"Fort Lauderdale";"FL";33351;"(877) 959-6679";;;
533888;44383;"Plantation KinderCare";"10790 West Sunrise Blvd.";"Fort Lauderdale";"FL";33322;"(877) 959-6679";;;
533887;44382;"Pembroke Pines KinderCare";"9600 Pines Blvd.";"Hollywood";"FL";33024;"(877) 959-6679";;;
533882;45915;"Walden Lake KinderCare";"1701 West Timberlane Dr.";"Plant City";"FL";33566;"(877) 959-6679";;;
533859;47448;"The Hammocks KinderCare";"14387 Southwest 96th St.";"Miami";"FL";33186;"(877) 959-6679";;;
201118;339541;"Shelby Township KinderCare";"51209 Mound Rd.";"Utica";"MI";48316;"(877) 959-6679";;;
200937;339501;"Rochester Hills KinderCare";"226 Meadowfield Dr.";"Rochester";"MI";48307;"(877) 959-6679";;;
147719;6062;"San Marcos KinderCare";"6270 Flying Leo Carrillo Lane";"Carlsbad";"CA";92009;"(877) 959-6679";;;
147714;9719;"Rancho Penasquitos KinderCare San Diego";"10065 Paseo Montril";"San Diego";"CA";92129;"(877) 959-6679";;;
147662;9717;"Scripps Ranch KinderCare San Diego";"10623 Treena St.";"San Diego";"CA";92131;"(877) 959-6679";;;
147659;9069;"Rancho Bernardo KinderCare San Diego";"11290 Paseo Montanoso";"San Diego";"CA";92127;"(877) 959-6679";;;
147549;9715;"San Carlos KinderCare San Diego";"7007 Golfcrest Dr.";"San Diego";"CA";92119;"(877) 959-6679";;;
147544;9714;"University City KinderCare San Diego";"6150 Agee St.";"San Diego";"CA";92122;"(877) 959-6679";;;
106499;217991;"Westlakes KinderCare";"6670 University Ave.";"West Des Moines";"IA";50266;"(877) 959-6679";;;
105598;218001;"Pleasant Hill KinderCare";"1425 Copper Creek Dr.";"Des Moines";"IA";50327;"(877) 959-6679";;;
86287;28090;"Woodlands KinderCare";"7253 E Capstone Circle";"Spring";"TX";77381;"(877) 959-6679";;;
86228;27991;"Watauga KinderCare";"5801 Watauga Rd.";"Fort Worth";"TX";76148;"(877) 959-6679";;;
83205;24353;"Childcare Network #174";"6157 Silver Sage Drive";"Fort Worth";"TX";76137;8667213010;;;
234115;381203;"Childcare Network #162";"2200 West Vandalia Road Greensboro NC ";"Greensboro";"NC";27407;8667213010;;;
234116;381082;"Childcare Network #163";"1907 Adams Farm Parkway";"Greensboro";"NC";27407;8667213010;;;
234120;381087;"Childcare Network #178";"3749 Sweeten Creek Road";"Arden";"NC";28704;8667213010;;;
234300;381073;"Childcare Network #125";"350 West Jones Street";"Franklinton";"NC";27525;8667213010;;;
234301;381078;"Childcare Network #157";"5527 West Market Street";"Greensboro";"NC";27409;8667213010;;;
236559;381074;"Childcare Network #127";"19 Lennon Drive";"Wilmington";"NC";28405;8667213010;;;
236561;381077;"Childcare Network #149";"135 East White Drive";"High Point";"NC";27263;8667213010;;;
239182;381201;"Childcare Network #128";"6640 Gordon Road Wilmington NC";"Wilmington";"NC";28411;8667213010;;;
241356;381088;"Childcare Network #179";"330 Sardis Road";"Asheville";"NC";28806;8667213010;;;
242020;381039;"Childcare Network #55";"6418 Park South Drive";"Charlotte";"NC";28210;8667213010;;;
242027;381076;"Childcare Network #146";"5500 Old Thomasville Road";"High Point";"NC";27263;8667213010;;;
242029;381036;"Childcare Network #52";"1901 North Sharon Amity Road";"Charlotte";"NC";28205;8667213010;;;
242032;381042;"Childcare Network #58";"115 Rippling Stream Road";"Durham";"NC";27704;8667213010;;;
242033;381043;"Childcare Network #59";"221 East Six Forks Road";"Raleigh";"NC";27609;8667213010;;;
242037;381046;"Childcare Network #73";"204 North 18th Street";"Morehead City";"NC";28557;8667213010;;;
242042;381050;"Childcare Network #77";"301 Ninth Street";"New Bern";"NC";28560;8667213010;;;
242045;381053;"Childcare Network #80";"312 Brynn Marr Road";"Jacksonville";"NC";28546;8667213010;;;
242048;381055;"Childcare Network #83";"1553 41st Street";"Wilmington";"NC";28403;8667213010;;;
242050;381057;"Childcare Network #85";"802 East Leonard Street";"Southport";"NC";28461;8667213010;;;
242051;381058;"Childcare Network #86";"500 Mercer Mill Road";"Elizabethtown";"NC";28337;8667213010;;;
242054;381061;"Childcare Network #92";"2241 Commonwealth Avenue";"Charlotte";"NC";28205;8667213010;;;
242059;381066;"Childcare Network #97";"651 Woodlawn Road";"Charlotte";"NC";28209;8667213010;;;
242061;381065;"Childcare Network #96";"210 Pineville-Matthews Road";"Matthews";"NC";28105;8667213010;;;
529723;46684;"Childcare Network #117";"2881 East Park Avenue";"Tallahassee";"FL";32301;8667213010;;;
529729;48210;"Childcare Network #105";"502 Benning Drive";"Destin";"FL";32541;8667213010;;;
529730;45428;"Childcare Network #111";"2623 West Michigan Avenue";"Pensacola";"FL";32526;8667213010;;;
529731;45429;"Childcare Network #112";"2406 Langley Avenue";"Pensacola";"FL";32504;8667213010;;;
529732;45430;"Childcare Network #113";"7525 West Fairfield Drive";"Pensacola";"FL";32506;8667213010;;;
529733;48211;"Childcare Network #132";"1040 Farmer Street";"Crestview";"FL";32539;8667213010;;;
529734;49978;"Childcare Network #138";"5 Hoffman Road";"Gulf Breeze";"FL";32561;8667213010;;;
529735;45431;"Childcare Network #141";"9608 North Palafox Street";"Pensacola";"FL";32534;8667213010;;;
529736;48212;"Childcare Network #142";"108 North West Jet Drive";"Fort Walton Beach";"FL";32548;8667213010;;;
529737;49979;"Childcare Network #150";"1269 Oriole Beach Roaad";"Gulf Breeze";"FL";32563;8667213010;;;
529739;48213;"Childcare Network #183";"405 Brookmead Drive";"Crestview";"FL";32539;8667213010;;;
529740;48214;"Childcare Network #39";"412 Government Street";"Valparaiso";"FL";32580;8667213010;;;
529741;48215;"Childcare Network #40";"644 A Anchors";"Fort Walton Beach";"FL";32548;8667213010;;;
529742;48216;"Childcare Network #41";"800 Falcon Place";"Fort Walton Beach";"FL";32547;8667213010;;;
550429;380995;"Childcare Network #106";"3325 Washington Road";"Atlanta";"GA";30344;8667213010;;;
550454;380979;"Childcare Network #23";"3830 Washington Road";"Augusta";"GA";30907;8667213010;;;
550459;380983;"Childcare Network #29";"1260 Flat Shoals Road";"Atlanta";"GA";30349;8667213010;;;
585520;131681;"Childcare Network #65";"4225 Brambleton Avenue";"Roanoke";"VA";24018;8667213010;;;
585525;112911;"Childcare Network #62";"1056 Ferry Plantation Road";"Virginia Beach";"VA";23455;8667213010;;;
585526;112921;"Childcare Network #63";"952 Lord Dunmore";"Virginia Beach";"VA";23462;8667213010;;;
679966;366654;"ChildCare Network #47";"1313 Clarkview Street";"Decatur";"AL";35601;8667213010;;;
679975;366729;"Childcare Network #46";"950 Rainbow Drive";"Gadsden";"AL";35901;8667213010;;;
679976;366659;"Childcare Network #3";"2101 5th Street";"Phenix City";"AL";36869;8667213010;;;
732989;381093;"Childcare Network #201";"4500 East I-240 Service Road";"Oklahoma City";"OK";73135;8667213010;;;
834409;381104;"Childcare Network #143";"6501 Middle Valley Road";"Hixson";"TN";37343;8667213010;;;
834410;381102;"Childcare Network #135";"1818 C Hamil Road";"Hixson";"TN";37343;8667213010;;;
834411;381103;"Childcare Network #139";"8419 Ooltewah Harrison Road";"Ooltewah";"TN";37363;8667213010;;;
834413;381106;"Childcare Network #168";"1510 East 3rd Street";"Chattanooga";"TN";37404;8667213010;;;
834414;381100;"Childcare Network #108";"1380 Gunbarrel Road";"Chattanooga";"TN";37421;8667213010;;;
834415;381101;"Childcare Network #124";"1043 Grays Drive";"Chattanooga";"TN";37421;8667213010;;;
834416;381099;"Childcare Network #34";"4650 Redlands Drive";"Chattanooga";"TN";37416;8667213010;;;
959171;381113;"Childcare Network #194";"6161 Haltom Road";"Fort Worth";"TX";76137;8667213010;;;
959172;381114;"Childcare Network #195";"6637 Oaklawn Drive";"Fort Worth";"TX";76148;8667213010;;;
1059777;381022;"Childcare Network #222";"2526 Moody Road";"Rupert";"GA";31081;8667213010;;;
1059778;381023;"Childcare Network #223";"209 Corder Road";"Rupert";"GA";31081;8667213010;;;
1059952;381034;"Childcare Network #234";"2350 Wisteria Drive";"Snellville";"GA";30078;8667213010;;;
153948;353194;"Child Care Network";"714 Carolina Avenue";"North Augusta";"SC";29841;8667213010;;;
153948;366671;"Child Care Network";"1624 Kent Dairy Road";"Alabaster";"AL";35007;8667213010;;;
241357;381086;"Childcare Network #177";"6 Fairview Hills Drive";"Fairview";"NC";28730;8667213010;;;
242022;381069;"Childcare Network #102";"3009 Cameron Drive";"Sanford";"NC";27330;8667213010;;;
529738;49980;"Childcare Network #151";"1883 Granada Street";"Navarre";"FL";32566;8667213010;;;
834412;381105;"Childcare Network #152";"4108 Bennett Road";"Chattanooga";"TN";37412;8667213010;;;
856230;381206;"Childcare Network #238";" 408 South Reynolds Road Bryant AR ";"Bryant";"AR";72022;8667213010;;;
1059772;381018;"Childcare Network #217";"200 North Westover Boulevard";"Columbus";"GA";31907;8667213010;;;
1060457;380954;"Childcare Network #212";"6 Medical Park Drive";"Benton";"AR";72015;8667213010;;;
1059788;381033;"Childcare Network #233";"7001 Price Road";"Macon";"GA";31220;8667213010;;;
1059787;381032;"Childcare Network #232";"3615 Wheeler Road";"Augusta";"GA";30909;8667213010;;;
1059786;381031;"Childcare Network #231";"1395 Flat Shoals Road";"Conyers";"GA";30013;8667213010;;;
1059785;381030;"Childcare Network #230";"5905 Houston Road";"Macon";"GA";31206;8667213010;;;
1059784;381029;"Childcare Network #229";"2265 Cooper Lake SE";"Smyrna";"GA";30080;8667213010;;;
1059783;381028;"Childcare Network #228";"4971 Sheraton Drive";"Macon";"GA";31201;8667213010;;;
1059782;381027;"Childcare Network #227";"524 Pine Street";"Macon";"GA";31201;8667213010;;;
1059781;381026;"Childcare Network #226";"11275 Elkins Road";"Roswell";"GA";30076;8667213010;;;
1059780;381025;"Childcare Network #225";"3643 Weems Road";"Columbus";"GA";31909;8667213010;;;
1059779;381024;"Childcare Network #224";"4719 Warm Springs Road";"Columbus";"GA";31907;8667213010;;;
1059776;381021;"Childcare Network #221";"306 Baldwin Drive";"Albany";"GA";31707;8667213010;;;
1059775;381020;"Childcare Network #220";"519 St. Augustine Road";"Valdosta";"GA";31601;8667213010;;;
1059774;381204;"Childcare Network #219";"1810 Floyd Road Columbus GA ";"Columbus";"GA";31907;8667213010;;;
1059773;381019;"Childcare Network #218";"2451 Whittlesey Road";"Columbus";"GA";31909;8667213010;;;
1059771;381017;"Childcare Network #216";"214 Telfair Avenue";"Albany";"GA";31701;8667213010;;;
1059770;381016;"Childcare Network #215";"2403 Brierwood Drive";"Albany";"GA";31705;8667213010;;;
1059769;381015;"Childcare Network #214";"161 Roberson Mill Road Northeast";"Milledgeville";"GA";31061;8667213010;;;
1059768;381014;"Childcare Network #213";"105 South Kimberly Road";"Warner Robins";"GA";31088;8667213010;;;
1059767;381013;"Childcare Network #211";"3635 Howell Ferry Road";"Duluth";"GA";30096;8667213010;;;
1059766;381012;"Childcare Network #210";"225 Simonton Road";"Lawrenceville";"GA";30045;8667213010;;;
1059765;381011;"Childcare Network #209";"2985 Xavier Ray Court";"Snellville";"GA";30039;8667213010;;;
1059764;381010;"Childcare Network #208";"4250 Jodeco Road";"Mcdonough";"GA";30253;8667213010;;;
1059763;381009;"Childcare Network #206";"4405 Jonesboro Road";"Forest Park";"GA";30297;8667213010;;;
1031767;381089;"Childcare Network #207";"111 Muirs Chapel Road";"Greensboro";"NC";27410;8667213010;;;
1019999;375081;"Childcare Network #189";"6093 Alcoa Road";"Benton";"AR";72015;8667213010;;;
1019998;375079;"Childcare Network #188";"2523 Military Road";"Benton";"AR";72015;8667213010;;;
1019997;375078;"Childcare Network #187";"1612 Sharron Road";"Benton";"AR";72019;8667213010;;;
1019996;375076;"Childcare Network #186";"2618 North Prickett Road";"Bryant";"AR";72022;8667213010;;;
1019996;380950;"Childcare Network #186";"2818 North Prickett Road";"Bryant";"AR";72022;8667213010;;;
1019995;375075;"Childcare Network #185";"507 Prickett Road";"Bryant";"AR";72022;8667213010;;;
1019948;375277;"Childcare Network #205";"306 North Shackleford Road";"Little Rock";"AR";72211;8667213010;;;
1019947;376299;"Childcare Network #191";"10700 Kanis Road";"Little Rock";"AR";72211;8667213010;;;
1019946;375120;"Childcare Network #190";"800 Kirk Road";"Little Rock";"AR";72223;8667213010;;;
1019799;375125;"Childcare Network #192";"1150 Highway 365";"Conway";"AR";72032;8667213010;;;
679974;366635;"Childcare Network #49";"6210 Robinhood Lane";"Huntsville";"AL";35806;8667213010;;;
679973;366640;"Childcare Network #45";"1425 Hillyer Robinson Industrial Parkway";"Anniston";"AL";36207;8667213010;;;
679972;366625;"Childcare Network #37";"702 Second Avenue";"Opelika";"AL";36803;8667213010;;;
679971;366657;"Childcare Network #169";"1008 Gateway Drive";"Phenix City";"AL";36868;8667213010;;;
585523;112891;"Childcare Network #181";"159 Kristiansand Drive";"Williamsburg";"VA";23185;8667213010;;;
585522;112881;"Childcare Network #180";"4300 John Tyler Memorial Highway";"Williamsburg";"VA";23185;8667213010;;;
585521;112871;"Childcare Network #123";"15 Heritage Drive";"Bristol";"VA";24201;8667213010;;;
550471;380971;"Childcare Network #9";"3009 University Avenue";"Columbus";"GA";31909;8667213010;;;
550470;380991;"Childcare Network #89";"3584 Mount Zion Church Road";"Valdosta";"GA";31605;8667213010;;;
550467;252871;"Childcare Network #50";"2476 Candler Road";"Decatur";"GA";30032;8667213010;;;
550466;380970;"Childcare Network #4";"3849 Hamilton Road";"Columbus";"GA";31904;8667213010;;;
550465;380989;"Childcare Network #36";"137 North Oakley Drive";"Columbus";"GA";31906;8667213010;;;
550464;380988;"Childcare Network #35";"3623 Weems Road";"Columbus";"GA";31909;8667213010;;;
550463;380987;"Childcare Network #33";"2090 Lower Roswell Road";"Marietta";"GA";30067;8667213010;;;
550462;252861;"Childcare Network #32";"2877 Woodruff Drive";"Smyrna";"GA";30080;8667213010;;;
550461;380985;"Childcare Network #31";"1145 Cedar Shoals Drive";"Athens";"GA";30605;8667213010;;;
550460;380984;"Childcare Network #30";"1546 Old McDonough Highway SE";"Conyers";"GA";30094;8667213010;;;
550458;380982;"Childcare Network #28";"3895 Flat Shoals Road";"Union City";"GA";30291;8667213010;;;
550457;380981;"Childcare Network #26";"2136 Lumpkin Road";"Augusta";"GA";30906;8667213010;;;
550455;252841;"Childcare Network #24";"2131 Wrightsboro Road";"Augusta";"GA";30904;8667213010;;;
550453;380978;"Childcare Network #22";"350 Johnny Mercer Drive";"Savannah";"GA";31410;8667213010;;;
550452;380977;"Childcare Network #21";"7360 Hodgson Memorial Drive";"Savannah";"GA";31406;8667213010;;;
550451;380976;"Childcare Network #20";"12441 White Bluff Road";"Savannah";"GA";31419;8667213010;;;
550450;252831;"Childcare Network #19";"1987 Wood Valley Road";"Macon";"GA";31211;8667213010;;;
550448;381007;"Childcare Network #175";"5001 Academy Drive";"Columbus";"GA";31909;8667213010;;;
550447;381006;"Childcare Network #167";"3940 Northside Drive";"Macon";"GA";31210;8667213010;;;
550446;381005;"Childcare Network #160";"2801 Wylds Road";"Augusta";"GA";30909;8667213010;;;
550444;381198;"Childcare Network #15";"1701 Elberta Road Warner Robins GA ";"Warner Robins";"GA";31093;8667213010;;;
550443;381004;"Childcare Network #147";"761 Duvall Road";"Chatsworth";"GA";30705;8667213010;;;
550441;381003;"Childcare Network #137";"155 Williams Road";"Statesboro";"GA";30459;8667213010;;;
550440;381002;"Childcare Network #134";"2374 Beaver Ruin Road";"Norcross";"GA";30071;8667213010;;;
550439;381001;"Childcare Network #131";"701 Dunlap Road";"Milledgeville";"GA";31061;8667213010;;;
550437;381000;"Childcare Network #126";"1906 Barnesville Highway";"Thomaston";"GA";30286;8667213010;;;
550436;380999;"Childcare Network #122";"660 Ralls Road";"Hogansville";"GA";30230;8667213010;;;
550434;380974;"Childcare Network #12";"424 Connell Drive";"Valdosta";"GA";31602;8667213010;;;
550433;380998;"Childcare Network #119";"3009 West Point Road";"Lagrange";"GA";30240;8667213010;;;
550432;380997;"Childcare Network #118";"5531 Highway North";"Ringgold";"GA";30736;8667213010;;;
550431;380973;"Childcare Network #11";"4909 Buena Vista Road";"Columbus";"GA";31907;8667213010;;;
550430;380996;"Childcare Network #107";"41 North Cary Street";"Lagrange";"GA";30240;8667213010;;;
550428;380994;"Childcare Network #103";"744 Brownlee Road";"Jackson";"GA";30233;8667213010;;;
550427;380993;"Childcare Network #101";"1552 Flynt Street";"Griffin";"GA";30224;8667213010;;;
550426;380992;"Childcare Network #100";"1609 Williamson Road";"Griffin";"GA";30224;8667213010;;;
550425;380972;"Childcare Network #10";"4868 Warm Springs Road";"Columbus";"GA";31909;8667213010;;;
529728;43905;"Childcare Network #148";"916 West 26th Street";"Lynn Haven";"FL";32444;8667213010;;;
529727;46685;"Childcare Network #116";"1967 Raymond Diehl Road";"Tallahassee";"FL";32308;8667213010;;;
529726;43904;"Childcare Network #115";"5705 Hickory Street";"Panama City";"FL";32404;8667213010;;;
529725;43903;"Childcare Network #145";"2724 East 17th Street";"Panama City";"FL";32405;8667213010;;;
529724;43902;"Childcare Network #114";"3905 West Highway 390";"Panama City";"FL";32405;8667213010;;;
242063;381068;"Childcare Network #99";"3092 Union Road";"Gastonia";"NC";28056;8667213010;;;
242062;381067;"Childcare Network #98";"19619 West Catawba Ave";"Cornelius";"NC";28031;8667213010;;;
242058;381064;"Childcare Network #95";"5026 Monroe Road";"Charlotte";"NC";28205;8667213010;;;
242057;381063;"Childcare Network #94";"8216 University Ridge Drive";"Charlotte";"NC";28213;8667213010;;;
242056;381062;"Childcare Network #93";"5235 The Plaza";"Charlotte";"NC";28215;8667213010;;;
242053;381060;"Childcare Network #91";"7207 Lawyers Road";"Charlotte";"NC";28227;8667213010;;;
242052;381059;"Childcare Network #90";"4609 Tuckaseegee Road";"Charlotte";"NC";28208;8667213010;;;
242049;381056;"Childcare Network #84";"787 Village Road";"Leland";"NC";28451;8667213010;;;
242047;381200;"Childcare Network #82";"4808 New Centre Drive Wilmington NC ";"Wilmington";"NC";28403;8667213010;;;
242046;381054;"Childcare Network #81";"928 Henderson Drive";"Jacksonville";"NC";28540;8667213010;;;
242044;381052;"Childcare Network #79";"783 West Corbett Avenue";"Swansboro";"NC";28584;8667213010;;;
242044;381090;"Childcare Network #79";"1111 Mount Pleasant Road";"Swansboro";"NC";28584;8667213010;;;
242043;381051;"Childcare Network #78";"827 South Sellers Mill Road";"Burlington";"NC";27217;8667213010;;;
242040;381049;"Childcare Network #76";"3705 Old Cherry Point Road";"New Bern";"NC";28560;8667213010;;;
242039;381048;"Childcare Network #75";"270 Highway 70 West";"Havelock";"NC";28532;8667213010;;;
242038;381047;"Childcare Network #74";"204 North Shepard Street";"Havelock";"NC";28532;8667213010;;;
242035;381045;"Childcare Network #61";"4905 Western Boulevard";"Raleigh";"NC";27606;8667213010;;;
242034;381044;"Childcare Network #60";"2912 Brentwood Road";"Raleigh";"NC";27604;8667213010;;;
242031;381041;"Childcare Network #57";"921 Ruby Street";"Durham";"NC";27704;8667213010;;;
242030;381038;"Childcare Network #54";"430 West Sugar Creek";"Charlotte";"NC";28213;8667213010;;;
242028;381084;"Childcare Network #166";"117 Woodcroft Parkway";"Durham";"NC";27713;8667213010;;;
242026;381072;"Childcare Network #121";"780 Sutton Place";"Monroe";"NC";28112;8667213010;;;
242025;381070;"Childcare Network #109";"5791 Pepperbush Road";"Fayetteville";"NC";28304;8667213010;;;
242024;381071;"Childcare Network #110";"6905 Raeford Road";"Fayetteville";"NC";28304;8667213010;;;
242019;381037;"Childcare Network #53";"5017 South Boulevard";"Charlotte";"NC";28217;8667213010;;;
239183;381202;"Childcare Network #136";"4901 Lailwood Circle Charlotte NC ";"Charlotte";"NC";28227;8667213010;;;
235397;381075;"Childcare Network #144";"310 RL Stowe Road";"Belmont";"NC";28012;8667213010;;;
234117;381083;"Childcare Network #164";"5038 Styers Ferry Road";"Lewisville";"NC";27023;8667213010;;;
234114;381081;"Childcare Network #161";"820 Salisbury Street";"Kernersville";"NC";27284;8667213010;;;
234113;381080;"Childcare Network #159";"4202 Wilshire Boulevard";"Wilmington";"NC";28403;8667213010;;;
234112;381079;"Childcare Network #158";"2411 Flint Drive";"Wilmington";"NC";28401;8667213010;;;