"id";"name";"address";"city";"state";"zip";"county";"phone";"website";"email";"detail";
1086221;"Sharnelle Herrman Day Care Home";"2701 Quivira Ave";"Great Bend";"KS";67530;"BARTON";"620-792-5899";;;;
1085813;"A 1000 Hugs Daycare";"5527 Meadowview Ct";"Wichita";"KS";67216;"SEDGWICK";"316-260-4506";"http://a1000hugsdaycare.weebly.com/";"littlebear67401@yahoo.com";"Here at A 1000 Hugs we want to give the same love and attention to each and every child the way a mother and father want to give their love and attention to their own child. Our Mission is to meet the needs of every individual child in our care. We understand that children are the most important and precious people in our lives, and want nothing more than to help each and every child learn, grow, and meet each milestone within their short journey of childhood. We will have a daily routine of activities so that each child can feel comfortable in his/her own environment, and learn as they do best through play and repetition.  ";
1084373;"All Aboard Choo Choo Train Childcare";;"Olathe";"KS";66061;"JOHNSON";"(785) 317-1505";"http://allaboardchoochootrainchildcare.blogspot.com/";"choochootrainchildcare@gmail.com";;
1085308;"Walnut Summer Scape";"313 W. 4th Avenue";"Emporia";"KS";66801;"LYON";"620.340.6300 ";"http://emporiarec.org/?page_id=1134";"tom_mcevoy@me.com";;
1084618;"Genesis Child Care";" 941 Scott Ave ";"Kansas City";"KS";66105;"WYANDOTTE";"(913) 232-8315 ";"http://genesischildcarekc.com/";"Info@genesischildcarekc.com";"Our mission is to provide solid fundamentals and care in a Christian perspective. Our purpose is to provide care and education for every child that walks through our door. We focus on not just the general care but also the academic, emotional, physical, and spiritual care of every child we care for. All this will be provided in a happy and friendly atmosphere.

Objectives on children care:

We focus on making sure that all activities are fun and have a educational purpose.

We strive to help the children learn how to socialize among themselves.

As well as provide instructions and discipline that will contribute in forming a moral character based on Biblical beliefs.";
1084263;"Laugh and Learn Daycare";;"Gardner";"KS";66030;"JOHNSON";;"http://laughlearndaycare.blogspot.com/";"laughandlearndaycare@yahoo.com";;
1084481;"Little Blessings";"16105 S. Lone Elm Road";"Olathe";"KS";66062;"JOHNSON";"(913) 538-7735";"http://littleblessingsolathe.org/";"laura.stamer@getlife.info";"OUR MISSION IS SIMPLE:

We provide a Christ-centered community of teachers and parents that partner to help children grow to their full potential as they develop in “wisdom, and stature, and in favor with God and all the people.” -Luke 2:52

Our goal is for your preschooler to leave our center ready to enter the world of formal education, and to know his or her value in the eyes of the Lord and their part in God’s big story. ";
914873;"Mindy's Munchkins";"31980 W 91st St";"De Soto";"KS";66018;"JOHNSON";"913-583-1972";"http://mindysmunchkins.weebly.com/index.html";;;"Tuesday"
1084269;"Mommy n Me Home Daycare";;"Gardner";"KS";66030;"JOHNSON";;"http://mommynme-homedaycare.com/home";"jordynphipps@yahoo.com";"First, I would like to tell you a little bit about myself and my family.  I have always lived in the Kansas City area, growing up in Olathe.  I got married to my husband seven years ago, he brought into the family a wonderful little girl who is 9 years old.  Together, my husband and I have two children --- our daughter is 7 years old and our son is 15 months old.  We are blessed to have such a healthy and happy family!  In addition to our three children, we have two very friendly dogs, Kado and Maggie.  They are big to children, but do not be scared, they are harmless and well behaved!  Our ""daycare home"" has its own 700+ sqft of dedicated play area, so your child will not be located in the same room as the dogs.  Along with all the chaos, we have 38 gallons of aquatic life living within the walls of the ""daycare home""!  The children love to watch the variety of marine life swimming before their eyes!  Please rest assured, our home is VERY clean and tidy...I promise! 

I am fully trained in CPR and First Aid.  This is a licensed daycare home located in Gardner, Kansas.

I have an educational background in child psychology and early childhood education.  Upon your request, I would be more than happy to elaborate in detail pertaining to my college background, as well as the numerous training opportunities that I have been priviledge to be a part of.

My philosophy is simple.  I want to help guide children by giving them a nurturing, safe environment to flourish and “just be kids.”  I emphasize manners, kindness, and caring on a daily basis.  For younger children, I know that physical contact is important for a sense of security and for older children, that same sense of security comes from learning to communicate and understand their needs.  I get down to the children’s level when we play and take more of a teaching role when we’re learning.  I believe children are a true gift and I enjoy every moment my life overlaps with that of a child.  Please rest assured that the children in my care are my utmost priority.

Open channels of communication are very important for me to have with all the parents.  I fully understand that there are different parenting styles and will do what I can to fulfill the needs of you and your child.  I offer many different ways to communicate any feedback, concerns, or issues you may have.  Feel free to speak to me directly in person, over the phone, email or just write a note.  Nothing is too big or too small when it comes to your child. 

I am looking forward to many milestones with you and your child!";
1085557;"Newton Neighborhood Child Care";"123 street";"Newton";"KS";67114;"HARVEY";"316-323-7854";"http://newtonneighborhood.com/";"MissTaylor@newtonneighborhood.com";"Diapers & Wipes Provided - Full Preschool & Summer Camp Curriculum - Flexible Hours - Parent's Night Out - Healthy meals & snacks including some organic produce and dairy.

I have experience helping children with many different types of behavior issues, so I know I can respond appropriately with your child, using positive discipline.";
1053870;"Small Blessings For Him";"Freedom Street";"Courtland";"KS";66939;"REPUBLIC";"785-374-4282";"http://smallblessingsforhim.wordpress.com/contact-us/";;;
1085849;"All Saints Catholic School Child Care Center";"3313 E Grand St";"Wichita";"KS";67218;"SEDGWICK";"316-682-2205
";"http://www.allsaintswichita.com/Child%20Care%20Website/child_care_%20main.htm";;"The All Saints Child Care Center (ASCCC) is a State licensed, non-profit organization. The Center is a ministry of All Saints Catholic Church whose Pastor is Father H Setter. The Center’s Director is Sandra L. Freeman. The love and training of a child is a parent’s most precious responsibility. Our Center was founded to assist in that endeavor. Our aim is to help prepare each child socially, emotionally, physically and mentally for school and life’s adjustments. The children are taught to care for personal needs, share and be considerate of others. They are challenged with new learning experiences. The awareness of God will grow as the children are taught by teachers, who themselves are aware of the ever-increasing love of God.";
1050231;"Elizabeth B Ballard Community Center Inc at Brookcreek Learning C";"708 Elm Street";"Lawrence";"KS";66049;"DOUGLAS";" (785) 842-0729";"http://www.ballardcenter.org/contactus.html";"dianne@ballardcenter.org";"What We Are:
We are a private non-profit.
We are a business.
We are growing and changing to meet community needs.
We exist on private donations to do the work of the community.

What We Are Not:
We are not federally funded.
We are not state funded.
We are not a hand-out for clients.

What We Do:
We provide over a half of a million services in Douglas County each year.
We provide hope.
We help put the pieces back together for people in crisis.
We keep people from becoming homeless.
We help the sick get well.
We keep people from being hungry.

Who We Help:
People experiencing homelessness
Children
Families
The Elderly";
1084960;"New Beginnings Childcare Daycare Home";" 2225 Browning Ave.";"Manhattan";"KS";66502;"RILEY";" 785.313.3628";"http://www.brightbeginningschildcareprogram.com/Home.html";;"Bright Beginnings located in Manhattan Kansas is a Nationally Accredited Montessori inspired pre-school program.  It was established January 1999 by Donna Moody who specializes in Early Childhood Education, working with children between the ages of 3-6.  Bright Beginnings strives to create a welcoming but orderly space for your children that allows them to work and play freely.  The order a Montessori classroom creates encourages children to become self disciplined and independent.

The purpose of Montessori  Education is to cultivate the child's natural desire to learn.  In the Montessori classroom this objective is approached in two ways: first, by allowing each child to experience the excitement of learning by their own choice rather than being forced; and second, by helping them to perfect their natural tools for learning, so that their ability will be at maximum in future learning situations.  The Montessori materials have a dual long-range purpose in addition to their immediate purpose of giving specific information to the child.

A Montessori school is a unique cycle of learning designed to take advantage of a child's sensitive years between three and six, when they can absorb information from an enriched environment.  A child who acquires the basic skills of reading and arithmetic in this natural way has the advantage of beginning her education without drudgery, boredom, or discouragement. By pursuing the child's individual interests in a Montessori classroom, they gain an early enthusiasm for learning, which is the key to them becoming a truly educated person.";
1084221;"Teaching Tots Child Care";;"Bonner Springs";"KS";66012;"WYANDOTTE";"765-749-8332";"http://www.busybeelearningcenter.net/About-Us.html";"albanybusybee@gmail.com!  ";"We believe children deserve to learn and grow in an inviting and safe environment. We believe families should be provided with peace of mind by their daycare facility and staff. We believe our teachers should be nurturing, patient, well-trained, and continuing their education to maximize professional growth of child development and early learning. We believe our community should stand together, support our families, and love our children. The Busy Bee Learning Center invites you to believe in something! ";
1055224;"Community Action Head Start Hudson A";"2410 SE Highland Ave.";"Topeka";"KS";66605;"SHAWNEE";"785-266-0245 (800-792-8039)";"http://www.cactiontopeka.com/";;"Head Start,launched in 1964, was designed to help break the cycle of poverty facing preschool children in low-income families. Today, Head Start is a comprehensive child
development program available to income-eligible families at no cost. Community Action Head start provides home-based, center-based, and family child care xperiences for children. As a combined Early Head Start and Head Start program, services
are available for prenatal women, infants and children through kindergarten age. In Kansas, children are eligible for kindergarten the year they become five years old, on or before August 31. Early Head Start services; for prenatal women and children through age 3, on or before August 31; are available through Community Action program for families throughout Shawnee County. Head Start services; for preschool children ages 3 or 4, on or before August 31; are available through Community Action program for families in the eastern portion of USD 501 Topeka Public Schools and the
Shawnee County portions of USD 437 Auburn-Washburn School District, USD 345 Seaman School District, and USD 450 Shawnee Heights School District.";
1055225;"Community Action Head Start Hudson B";"2410 SE Highland Ave.";"Topeka";"KS";66605;"SHAWNEE";"785-266-0245 (800-792-8039)";"http://www.cactiontopeka.com/";;"Head Start,launched in 1964, was designed to help break the cycle of poverty facing preschool children in low-income families. Today, Head Start is a comprehensive child
development program available to income-eligible families at no cost. Community Action Head start provides home-based, center-based, and family child care xperiences for children. As a combined Early Head Start and Head Start program, services
are available for prenatal women, infants and children through kindergarten age. In Kansas, children are eligible for kindergarten the year they become five years old, on or before August 31. Early Head Start services; for prenatal women and children through age 3, on or before August 31; are available through Community Action program for families throughout Shawnee County. Head Start services; for preschool children ages 3 or 4, on or before August 31; are available through Community Action program for families in the eastern portion of USD 501 Topeka Public Schools and the
Shawnee County portions of USD 437 Auburn-Washburn School District, USD 345 Seaman School District, and USD 450 Shawnee Heights School District.";
1055223;"Community Action Head Start Shawnee Heights";"314 SE Stanton Rd. ";"Tecumseh";"KS";66542;"SHAWNEE";;"http://www.cactiontopeka.com/";;"Head Start,launched in 1964, was designed to help break the cycle of poverty facing preschool children in low-income families. Today, Head Start is a comprehensive child
development program available to income-eligible families at no cost. Community Action Head start provides home-based, center-based, and family child care xperiences for children. As a combined Early Head Start and Head Start program, services
are available for prenatal women, infants and children through kindergarten age. In Kansas, children are eligible for kindergarten the year they become five years old, on or before August 31. Early Head Start services; for prenatal women and children through age 3, on or before August 31; are available through Community Action program for families throughout Shawnee County. Head Start services; for preschool children ages 3 or 4, on or before August 31; are available through Community Action program for families in the eastern portion of USD 501 Topeka Public Schools and the
Shawnee County portions of USD 437 Auburn-Washburn School District, USD 345 Seaman School District, and USD 450 Shawnee Heights School District.";
1086314;"Small Steps Daycare";" 2406 Hart Ave ";"Dodge City";"KS";67801;"Kansas";" (620)-225-0542 ";"http://www.corpdetails.com/us-companies/Kansas/20013-social-services/small-steps-daycare-us";;;
1086313;"Small Steps Daycare";" 2406 Hart Ave ";"Dodge City";"KS";67801;"Kansas";" (620)-225-0542 ";"http://www.corpdetails.com/us-companies/Kansas/20013-social-services/small-steps-daycare-us";;;
1085460;"Recreation Station";"801 E. Market St. ";"Derby";"KS";67037;"SEDGWICK";"316-788-3781 ";"http://www.derbyrec.com/index.aspx?nid=146";;"The Derby Recreation Center is an 80,000 square foot fitness facility with various amenities throughout.  The Center recently underwent major renovations which included remodeling, repurposing of space and upgrades to the entire facility.  The DRC provides amenities and activities for all ages and all skill levels.  Memberships to the Derby Recreation Center are reciprocal with the Oaklawn Activity Center.
";
1050148;"Community Childrens Center at Edgewood";"925 Vermont";"Lawrence";"KS";66044;"DOUGLAS";"785-842-2515";"http://www.eckan.org/head_start/community_children.html";;"Community Children’s Center (CCC) is a delegate program of ECKAN Head Start. 
CCC serves 78 children, ages 3-5 in the Lawrence community. 
CCC operates four classrooms, half day sessions, on Monday through Thursday.
Extended hours and days may be available for working families.
ECKAN Head Start promotes health development for all children.  In order for the program and the child’s family to be certain a child is healthy, a variety of screenings must be completed.  All children in the Head Start program should receive the screenings and exams on the application checklist.  Parents should review the screenings and exams on the attending doctor’s appointments, to ensure they can advocate for their child, and ensure that the appropriate screenings are completed.  ";
1053945;"Flint Hills Technical College Parent Support Day Care Home";"3301 West 18th Ave";"Emporia";"KS";66801;"LYON";"620-343-4600";"http://www.fhtc.edu";;"The mission of Flint Hills Technical College, as an associate degree granting institution, is to provide a diverse community of learners with life-long educational opportunities for personal growth and preparation for professional and civic responsibilities that meet the needs of society. ";
1084833;"Heritage Christian Academy";"9333 W 159th St";"Overland Park";"KS";66221;"Johnson";"913.681.7622";"http://www.hcakc.org/";"info@hcakc.org";"We invite you to join us at Heritage Christian Academy as we seek to glorify God by teaching and modeling Christ-like character while providing academic excellence within a caring community.  The information we  provide here is an overview of our high quality, biblically-based  academic program, but we  strongly suggest that you schedule a visit to the school. While on campus, you’ll experience for yourself the joy that loving, professional educators can bring when the totality of what is taught is grounded in the truth of God’s Word.

Heritage Christian Academy offers PreSchool four mornings a week (Monday through Thursday) with a variety of schedule options and full-day Kindergarten. We also offer an After Care program (until 5:30 PM) on all full days of school. Our elementary curriculum provides strong concentration in core subjects as well as weekly special classes in Art, Music, Phys Ed and Spanish. Our updated Media Center offers many computer and library opportunities while our expanded instrumental band program for fifth and sixth graders provides another artistic outlet.

Heritage Christian Academy’s Junior/Senior High offers an excellent well-rounded education rooted in biblical truth for students in seventh through twelfth grades. Heritage Christian Academy’s ultimate goal is to graduate students who are prepared academically and spiritually to be a light in their community, to understand the nature of God, His Word, and are committed to the importance of impacting the world for Christ.";
1086190;"Stay to Play";"17 East 1st Street";"Hutchinson";"KS";67502;"RENO";"620-663-6179";"http://www.hutchrec.com/page.php?id=209";"aconkling@hutchrec.com";"Hutchinson Recreation Commission strives to provide affordable, quality recreational programs to Hutchinson and area residents.";
1085122;"SportZone Summer Fun Camps";" 3909 Burlingame";"Topeka";"KS";66609;"SHAWNEE";"785 - 267- 4658";"http://www.isportzone.com/index.php?option=com_content&view=article&id=157&Itemid=103";;"SportZone is offering Spring Break Camp this year for kids in grades K thru 6th!  This camp will focus on a variety of sports and other fun activities. These activities will be set up to meet the needs of each camper regardless of age or ability and to promote good sportsmanship.  SportZone will provide snacks and hot lunch for all full-day campers.  Any food allergies or restrictions should be noted on this form at the time of registration.  Camp instructors will come from local colleges, high schools, and SportZone Staff.  Campers should wear gym attire and tennis shoes.";
1055098;"Bundle of Joy Family Child Care";;"Assaria";"KS";67416;"SALINE";"Home   785.667.6677
Cell       785.493.5502";"http://www.joymortimer.com/";"joy@joymortimer.com";"It is my goal to provide a warm and caring home that allows children to develop as unique individuals in a nurturing, creative, learning environment.  I believe that children are active learners that learn through play, and that learning begins at birth.  Learning/play environments should be set up to where the child feels safe, secure, and loved in order to promote independence through social, intellectual, physical, and language development.  I stress age appropriate activities based on the child’s experience, interests, and play.  These principals recognize that each child develops at his or her own unique rate.  With this philosophy in mind I strive to build a sense of self-discovery, creativity, and self-esteem in every child while enriching partnerships between home, community, and provider.";
1085643;"Little Learners";"26121 West Valley Parkway";"Wichita";"KS";67204;"SEDGWICK";"(913)254-1818";"http://www.kslittlelearners.com/contact.html";"info@kslittlelearners.com";"Welcome to Little Learners. We are
so excited to be enrolling your child in
our program. At Little Learners, your child will have the opportunity to explore, create, and imagine while
developing academically, socially, emotionally, and physically. These opportunities will take place
in a safe, nurturing environment under the guidance of loving, experienced
teachers who are professional, positive, and passionate about the car
e and education of young children.";
1053968;"Kimberly Eileen Heier Day Care Home";"Box 128";"Grainfield";"KS";67737;"GOVE";"Home: (785) 673-4350
Cell: (785) 673-8035";"http://www.lovesmalltownamerica.com/grainfieldks_kimskids.php";;"Kim Heier, owner and lead daycare provider of Kim's Kids Daycare, believes that each child is a special gift from God and has unique qualities. Her interactive, ""hands-on"" approach to daycare allows children to discover the world around them at their own individual level of development. Kim and her staff (certified in CPR and first aid) provide children with activities that foster cognitive, social, emotional, physical and spiritual growth. Kim's Kids nurturing and easy-going environment makes it easy for children to transition from home to the daycare setting. Through love and respect Kim's Kids License Group Daycare Home will help your children learn to interact appropriately with adult and peers. Kim’s outstanding reputation in the community confirms the fact that all children will be well loved and cared for at Kim's Kids. ";
1051525;"Maize Recreation Fun Factory";"10100 Grady Ave";"Maize";"KS";67101;"SEDGWICK";"316-729-7818";"http://www.maizerec.com/";"bradn@maizerec.com";;
1085176;"River Rock Child Care";"400 NE Green";"Topeka";"KS";66616;"SHAWNEE";"785-783-3336";"http://www.riverrockchildcare.com/";"susan@riverrockchildcare.com";"At River Rock Child Care I believe it is important to give children different kinds of opportunities to learn through Art, Sensory Play, Dramatic Play, Block Play (this is one of my favorites!), Cooking Projects, Small Group activities, Literacy and Math activities. ";
1084683;"Shining Star Early Learning Day Care home";"5648 Flint St";"Shawnee";"KS";66203;"Johnson";"785-550-5427";"http://www.shiningstardc.com/about-us.html";"Carrie@ShiningStarDC.com
";"Choosing a daycare program for your child is such an important decision.  Let us show you how we stand out from the crowd!  At Shining Star, we offer a widely varied weekly curriculum that ensures your child’s mind will be actively engaged in learning while playing with peers and exploring this wonderful world we live in.  Call soon to schedule a visit; we would love to become part of your family!
";
1054868;"Wee Care Day Care";"4901 Mission Road";"Westwood";"KS";66205;"WYANDOTTE";"913-384-4434";"http://www.smcschool.com/wee-caren";;;
1084837;"Ko Martial Arts";" 14820 Metcalf Ave";"Overland Park";"KS";66223;"Johnson";"(913) 851-2400 ";"http://www.thekoma.com/";"info@theKOMA.com";"Our mission: To improve the lives of our students through the physical and mental training of martial arts.";
1085386;"Andover YMCA Early Learning Center";"1115 E Us Highway 54";"Andover";"KS";67002;"BUTLER";"(316) 448-1060
";"http://www.ymcawichita.org/child-care-camp/infant-prek";;"Peace of mind is what you’ll have knowing you child’s in a trusted, quality, licensed YMCA Early Learning Center.

In our Early Learning Centers, every project is designed to activate your child’s imagination. Our nurturing environment allows kids to make friends, learn, engage in physical activity and explore their interests.

All-day care for kids 2 weeks-Kindergarten. ";
1055245;"YMCA - Kids In Sports Camp";"421 SW Van Buren";"Topeka";"KS";66603;"SHAWNEE";"785-354-8591";"http://ymcatopeka.org/site/";"CharlieL@ymcatopeka.org";"The YMCA of Topeka is dedicated to improving the quality of life and to helping all people realize their fullest potential through development of the spirit, mind and body.

And It's for Everybody.

The YMCA of Topeka focus on building strong kids, families and communities through a wide variety of programs. All programs are based on YMCA values of caring, honesty, respect, and responsibility.
";
1055249;"YMCA Jr Explorer Camp";"421 SW Van Buren";"Topeka";"KS";66614;"SHAWNEE";"785-354-8591";"http://ymcatopeka.org/site/";"CharlieL@ymcatopeka.org";"The YMCA of Topeka is dedicated to improving the quality of life and to helping all people realize their fullest potential through development of the spirit, mind and body.

And It's for Everybody.

The YMCA of Topeka focus on building strong kids, families and communities through a wide variety of programs. All programs are based on YMCA values of caring, honesty, respect, and responsibility.
";
1085916;"Duncans Daycare";;"Wichita";"KS";67230;"SEDGWICK";"(316) 371-5221";"https://duncansdaycare.shutterfly.com/";;"Family child care in a Christian home setting is a wonderful alternative for working parents. It provides a small secure environment for children during the most important time of their development. Family child care offers a home away from home, providing children with “siblings” of all ages, to play, socialize, and learn from. My goal in offering quality child care for your child is to provide…   ";
1051444;"Derby Recreation Center";"801 E Market";"Derby";"KS";67037;"SEDGWICK";"316-788-3781";"https://ks-derbyreccommission.civicplus.com/index.aspx?NID=146";;"The Derby Recreation Center is an 80,000 square foot fitness facility with various amenities throughout.  The Center recently underwent major renovations which included remodeling, repurposing of space and upgrades to the entire facility.  The DRC provides amenities and activities for all ages and all skill levels.  Memberships to the Derby Recreation Center are reciprocal with the Oaklawn Activity Center.";
1086207;"Building Blocks Daycare Home";;"Great Bend";"KS";67530;"BARTON";;"https://m.facebook.com/profile.php?id=134334169957797";;"Building Blocks Day Care is licensed daycare home, located in Great Bend, KS. My goal is to provide a clean, safe, educational environment. To promote an interest in learning. To help children feel loved, accepted, and secure while in my care. And to lay a ""firm foundation"" for quality life. ";
955760;"Park Place Childcare & Learning Center";"2139 S Maize Rd";"Wichita";"KS";67209;"SEDGWICK";"316-722-9719";"https://plus.google.com/100737990530661425116/about?gl=ph&hl=en";;;
1051251;"Little Dragons Daycare";"510 E Jackson St";"Pittsburg";"KS";66762;"CRAWFORD";"620-704-8393";"https://plus.google.com/102863845942297569701/about?gl=ph&hl=en";;;
1051005;"Debbies Family Daycare";"16415 Elm Slough Road";"Wamego";"KS";66547;"POTTAWATOMIE";"785-456-6726";"https://plus.google.com/102991450800371868250/about?gl=ph&hl=en";;;
1085050;"Brilliant Beginnings 1";" 17680 Old Post Rd";"Wamego";"KS";66547;"POTTAWATOMIE";"(785) 456-8112 ";"https://plus.google.com/105035284803473701596/about?gl=ph&hl=en";;;
1050695;"Skys the Limit Childcare Inc";"8301 Lamar";"Overland Park";"KS";66210;"Johnson";"913-381-4743";"https://plus.google.com/105395817610434147778/about";;;
1086032;"Tabatha Griffith Day Care Home";"State Street   ";"Salina";"KS";67401;"SALINE";"785-577-3376";"https://plus.google.com/105424960870199968265/videos";;;
1054493;"Washington County Head Start";"412 Park St";"Greenleaf";"KS";66943;"WASHINGTON";"(785) 747-2604";"https://plus.google.com/105674412999357163602/about?gl=ph&hl=en";;;
1052439;"Kids World Day Care";"W Curtis";"Liberal";"KS";67901;"SEWARD";"620-626-5066";"https://plus.google.com/105877263625683135825/about?gl=ph&hl=en";;;
1086436;"Grandmas House";"2210 Sioux Dr ";"Garden City";"KS";67846;"FINNEY";"620-275-1114";"https://plus.google.com/107404610853743428998/about?gl=ph&hl=en";;;
914526;"BZB Day Care Home";"812 W 8th Street";"Pittsburg";"KS";66762;"CRAWFORD";"620-231-0557";"https://plus.google.com/110423415012300817586/about?gl=ph&hl=en";;;
1051242;"Neodesha Head Start Center";"1103 North 6th";"Neodesha";"KS";66757;"WILSON";"620-325-2813";"https://plus.google.com/110674982582558267578/about?gl=ph&hl=en";;;
1084640;"Grandmas House";"3544 N 59 St ";"Kansas City";"KS";66111;"WYANDOTTE";"913-334-5524";"https://plus.google.com/111114224331074563998/about?gl=ph&hl=en";;;
1086457;"Tiny Hearts Daycare";"2106 Apache Dr ";"Garden City";"KS";67846;"FINNEY";"620-275-0486";"https://plus.google.com/112961748067210085958/about?gl=ph&hl=en";;;
1050589;"Melanies Angels Home Child Care";"N 89th St";"Kansas City";"KS";66112;"WYANDOTTE";"913-484-2140";"https://plus.google.com/113144289557049172192/about?gl=ph&hl=en";;"We believe that all God's children are special! For this reason, Melanie's Angels Home Child Care is dedicated to teaching the importance of becoming loveable wholesome purposeful children.";
1084845;"Little Hearts LLC";"12011 W 127th St ";"Overland Park";"KS";66224;"Johnson";"913-322-0193";"https://plus.google.com/113980338227178453733/about?gl=ph&hl=en";;;
1054586;"Mama Burkes Sweet Tots";"5928 Haskell Ave ";"Kansas City";"KS";66104;"WYANDOTTE";"(913) 299-9880";"https://plus.google.com/115425567055929620254/about?gl=ph&hl=en";;;
1085894;"Precious Moments Home Daycare";;"Wichita";"KS";67220;"SEDGWICK";"316-665-4420";"https://plus.google.com/116465801177904894242/about?gl=ph&hl=en";;;
1054270;"Watch Us Bloom Home Daycare";"16617 W 125th St";"Olathe";"KS";66062;"JOHNSON";"(913) 839-3904 ";"https://plus.google.com/116493512533010458188/about";;"Watch Us Bloom is a home daycare providing a safe, home atmosphere. We offer 2 providers, Food Program, baby sign language, circle time, themed curriculum and more. ";
1051372;"Smith County Head Start";"221 S Main St Smith Center";"Smith Center";"KS";66967;"SMITH";"785-282-6011";"https://plus.google.com/116833368820392474599/about?gl=ph&hl=en";;;
1054822;"Noahs Ark Daycare";"175 Lawrence Ave Watsonville";"Lawrence";"KS";66047;"DOUGLAS";"831-722-7811";"https://plus.google.com/117344772545821691463/about?gl=ph&hl=en";;;
1054589;"Playmates Child Care";"604 6th St ";"Altamont";"KS";67330;"LABETTE";"(620) 7845495";"https://plus.google.com/117812345706163335059/about?gl=ph&hl=en";;;
1085490;"Pleasant Valley Preschool";"1020 E. 14th";"Harper";"KS";67058;"HARPER";"620-896-2004";"https://sites.google.com/site/pleasantvalleymennonite/Home/about-us/pleasant-place-pre-school";"alan.stucky@gmail.com";;
1086380;"Amber Heldermans Daycare";;"Goodland";"KS";67735;"SHERMAN";;"https://www.facebook.com/Amber101a?ref=br_rs&fref=browse_search";;;
1050753;"Puddle Jumpers Childcare";"Greenway Ln";"Lenexa";"KS";66215;"Johnson";"913-461-9926";"https://www.facebook.com/cjpjcc?fref=browse_search";;;
1051078;"Community First Inc";"1112 SE 10th St";"Topeka";"KS";66607;"SHAWNEE";"785-357-7331";"https://www.facebook.com/CommunityFirstInc/info";"service@abcfirst.org";"About
School Age Child Care Programming - Afterschool & Summer Camp
Mission
Reaching...Teaching...Building...Together…";
1084562;"Country Kids Daycare";"701 W. 15th Street";"Pleasanton";"KS";66075;"LINN";"913-594-0107";"https://www.facebook.com/countrykids13?ref=stream";"jessealynn89@gmail.com";"Country Kids Daycare is a home based daycare in Pleasanton, KS! ";
1050190;"All Gods Children";"Dempsey";"Leavenworth";"KS";66048;"LEAVENWORTH";"913-707-2376";"https://www.facebook.com/dempseydaycare";"lovedoinglaundry@yahoo.com";"All God's Children In-Home Day Care, independently owned and operated by Heather J. Smith, provides a loving, caring environment where children will be happy and grow healthy. ";
1084224;"DeSoto Daycare";"Demeadows";"De Soto";"KS";66018;"JOHNSON";"913-585-1110";"https://www.facebook.com/DeSotoPreschoolAndDaycare/info";"desotodaycarellc@gmail.com";"Our goal at DeSoto Daycare LLC is to encourage academic skills, creativity, individuality, and independence. We have created an environment filled with educators, love, patience and kindness.";
1084448;"Dragonfly Infant Care";"16648 W. 147th street";"Olathe";"KS";66062;"JOHNSON";"913-416-3606";"https://www.facebook.com/dragonflyinfantcare/info";"larajean1014@gmail.com";"As a Mom of two and a young Grandma of four, my heart is connected to the needs of young moms who want to finish school and have a good running start at life with their new, growing family. I believe there is a real need for young moms who need to start working and continue school soon after baby is born and the option of a big, expensive daycare setting is frightening. I specialize in babies under 1 year and hope to act as a transition from birth to toddler for these young moms. I offer a smoke-free, pet free environment. I only have space for a total of 3 babies at any given time so that each little one gets as much one-on-one care as possible. I offer organic baby food to those moms who are interested and I accept Child Care Assistance through Kansas.";
1086284;"Huwa Home Daycare";"2010 Metro";"Hays";"KS";67601;"ELLIS";"785-259-4732";"https://www.facebook.com/HuwaHomeDaycare/info";;"Run by Ashley Huwa, Huwa Home Daycare is a fun and interactive Day Care that is centered around your child's learning and growning. ";
1086521;"Kimmy Ds Christian Day Care";;"Liberal";"KS";67901;"SEWARD";;"https://www.facebook.com/kimmyds.christiandaycare?fref=browse_search";;;
1050354;"Lets Pretend";"S Kiowa Dr";"Olathe";"KS";66062;"JOHNSON";"913-626-1246";"https://www.facebook.com/letspretend.childcare?fref=browse_search";;;
1052309;"Little Cubs Academy";"409 N. 4th St";"WaKeeney";"KS";67672;"Trego";"785-743-8071";"https://www.facebook.com/LittleCubsAcademy";;;
1084334;"Little Lambs Christian Care";;"Leavenworth";"KS";66048;"LEAVENWORTH";"913-651-3694";"https://www.facebook.com/LittleLambsChristianCare/timeline";;"Little Lambs Christian Care is a family oriented place that wants to care for your children in a loving christian way.  Prices may vary depending on hours needed and number of children needing care.";
1084213;"Little Piggys Daycare";"6504 Botkins Rd.";"Blue Mound";"KS";66010;"LINN";"620-224-8758";"https://www.facebook.com/LittlePiggysDaycare/info";;"Little Piggy's Daycare is located North of Blue Mound. Kids of all ages welcome. Very resonable rates. Gives my kids friends to play with at all times. Never a dull moment around here. LOL Tons of Fun around here. ";
1085356;"Little Steps Daycare";"105 W 1st Ave";"Barnes";"KS";66933;"WASHINGTON";"785-763-4115";"https://www.facebook.com/LittleStepsDaycare.IsaacsCorner/info?ref=br_rs";"cschwin12@yahoo.com";;
1086299;"Lullabies and Laughter Daycare";"1318 MacArthur";"Hays";"KS";67601;"ELLIS";"785-259-6692";"https://www.facebook.com/lullabiesandlaughterdaycare1";;"Lullabies and Laughter Daycare is a licensed in home daycare ran by Sarah Fischer. Participant of Sunshine Connections Child and Adult Care Food Program. ";
910406;"Neighborhood Learning Center";"227 W 7th St";"Junction City";"KS";66441;"GEARY";"785-238-2321";"https://www.facebook.com/nlc.jc.ks";"nlckids@outlook.com";"Where fun and learning go hand in hand..";
955622;"Aunt Hopes Child Empowerment Center";"2514 S Kansas Ave";"Topeka";"KS";66611;"SHAWNEE";"785-232-2226";"https://www.facebook.com/pages/Aunt-Hopes-Child-Empowerment-Center/122349037789521";;"Aunt Hope's focus' on empowering children through problem solving, decision making and self-help, while promoting interpersonal communications. These are key elements which contribute to the child’s development, self esteem and confidence.";
1086159;"Aunt Nanells Day Care";"2321 N. Monroe";"Hutchinson";"KS";67502;"RENO";"620-899-2169";"https://www.facebook.com/pages/Aunt-Nanells-Day-Care/133889703369129";;;
1084223;"Busy Bee Learning";"8200 Wea St";"De Soto";"KS";66018;"JOHNSON";"913-585-1352";"https://www.facebook.com/pages/Busy-Bee-Learning/166457353533792?id=166457353533792&sk=info";;"Busy Bee Learning provides daycare/preschool activites for 3,4,and 5 year olds.My name is Sarah VanDusen and I'm a certified teacher, and have taught kindegarten for six years. I would love to prepare your child for kindegarten.";
1084891;"Edyes Family Day Care Home";"112 W Center";"Carbondale";"KS";66414;"OSAGE";"785-836-9087";"https://www.facebook.com/pages/Edyes-Family-Daycare/226272287412920";"edye.freund@yahoo.com";;
1051402;"Footsteps Childcare";"W Ave D";"Attica";"KS";67009;"HARPER";"620-254-7384";"https://www.facebook.com/pages/Footsteps-Daycare/169195606452948";;;
1085835;"Happy Hearts Daycare Home";"5833 E. 37th Street North";"Wichita";"KS";67217;"SEDGWICK";"316-613-3550";"https://www.facebook.com/pages/Happy-Hearts-Child-Development-Center/284138124951297?id=284138124951297&sk=info";"happyheartscdc@yahoo.com";"""Happy Hearts CDC is a Christ-centered, Biblically based oriented early childhood program whose primary mission is to provide high quality care to children in a safe, healthy, nurturing Christian environment";
1051217;"Hugs and Kisses Day Care Home";"106 N. Osage";"Girard";"KS";66743;"CRAWFORD";"620-704-3573";"https://www.facebook.com/pages/Hugs-Kisses-Daycare/129653517048849";;"My name is Diana Alters and I am the owner and provider of Hugs & Kisses Daycare. I love taking care of kids and spending my days with them. I believe it is very important to provide a safe and comforting environment for today's children.";
1085280;"Juliannas Daycare";"219 N Main";"Scammon";"KS";66773;"CHEROKEE";;"https://www.facebook.com/pages/Juliannas-Daycare/436891196397007?id=436891196397007&sk=info";"jhillig@embarqmail.com";"We are a fully licensed facility providing quality child care services. We offer a play-based curriculum focusing on each child's individual needs, a loving/ educational environment and healthy meals & snacks based on the federal food program guidelines. ";
1085482;"Kid Kare";"304 S. Elm";"Goddard";"KS";67052;"SEDGWICK";"316-765-2069";"https://www.facebook.com/pages/Kid-Kare/209582229064012?id=209582229064012&sk=info";"kidkaredaycare@yahoo.com";"Kid Kare keeps low attendance numbers to ensure that each child has the love and attention that they deserve. Miranda Purvis Hayden is the daycare owner and operator, she has more than ten years experience working with children.";
1051529;"Kid Depot";"400 W Main";"Mount Hope";"KS";67108;"SEDGWICK";"316-667-1144";"https://www.facebook.com/pages/Kids-Depot-Daycare-Center/160763747279216";;;
1050820;"Kiki and Me";"4516 Meadow View Dr";"Shawnee";"KS";66226;"Johnson";"913-953-7386";"https://www.facebook.com/pages/Kiki-Me-Daycare/266780346700518";;;
1054843;"Little Footprints Christian Day Care Home";"127 E Howard St";"Olathe";"KS";66062;"JOHNSON";"610-970-9002";"https://www.facebook.com/pages/Little-Footprints-Christian-Daycare/139698372745260";;;
1051384;"Little Hands Growing Minds";"Koob Lane";"Andover";"KS";67002;"BUTLER";"316-640-6155";"https://www.facebook.com/pages/Little-Hands-Growing-Minds-Daycare/439619922719143";;;
1085889;"Little Steps Little Hearts Daycare";;"Wichita";"KS";67220;"SEDGWICK";"316-866-2853";"https://www.facebook.com/pages/Little-Steps-Little-Hearts-Daycare/249285561889373?id=249285561889373&sk=info";;"""Where Kids play, learn and grow together""";
1051029;"Live Laugh Grow Home Day Care";"2011 SW Randolph Ave.";"Topeka";"KS";66604;"SHAWNEE";"785-806-2291";"https://www.facebook.com/pages/Live-Laugh-Learn-Daycare/181174908625850";;;
1086217;"Miss Anns Day Care";"809 Main Street";"Great Bend";"KS";67530;"BARTON";"620-603-6023";"https://www.facebook.com/pages/Miss-Anns-Day-Care/165276010273505";"good_book000@yahoo.com";;
1050294;"Olathe Christian School Preschool";"12030 Hedge Lane Ter";"Olathe";"KS";66061;"JOHNSON";"913-829-1361";"https://www.facebook.com/pages/Olathe-Christian-School/229996393762943?id=229996393762943&sk=info";;"Our mission is to serve the body of Christ by providing a high quality, biblically based educational program that will prepare each student for lifelong service in the Kingdom of God.";
1055237;"Second Baptist Church";"2324 Ruby Ave";"Kansas City";"KS";66101;"WYANDOTTE";"(913) 831-2045";"https://www.facebook.com/pages/Second-Baptist-Church/116211785067378#";;;
1051409;"Sonlight Christian Day Care Home";"2 limerick";"Augusta";"KS";67010;"BUTLER";"316-871-7771";"https://www.facebook.com/pages/Sonlight-Christian/343541649063966";"sonlightchristian@yahoo.com";"Sonlight Christian is a Bible based preschool focusing on strong academic standards in a safe nurturing environment. ";
910451;"Tiny Blessings Daycare";"480 S Garfield Ave";"Colby";"KS";67701;"THOMAS";"(785) 460-0880";"https://www.facebook.com/pages/Tiny-Blessings-Daycare/154696774567205";;;
1086388;"Tiny Fingers Tiny Toes Big Imaginations";;"Hoxie";"KS";67740;"SHERIDAN";;"https://www.facebook.com/pages/Tiny-Fingers-Tiny-Toes-Big-Imaginations/175729882480952";;;
1085684;"Smallworld Daycare Home";"799 N Illinois";"Wichita";"KS";67207;"SEDGWICK";"316-806-3177";"https://www.facebook.com/smallworldhomedaycare";"shauntillyc@yahoo.com";"Loving care for infants, playful, structured days for toddlers, exciting preschool instruction, fun educational activities for all ages. Licensed Daycare provided daily F/T or P/T, before and after school, half days and school closings are also available. Please call anytime for questions or to schedule a meet and greet, I'd love to meet you and your little one! ";
1084624;"Smarshpillows and Yogrit";;"Kansas City";"KS";66106;"WYANDOTTE";"785-341-2774";"https://www.facebook.com/smarshpillowsandyogritdaycare/info";"glthompson13@hotmail.com";"Smarshpillows & Yogrit Daycare is a high quality, in-home daycare ran by a certified teacher.  At Smarshpillows & Yogrit Daycare, we strive to provide outstanding care and enriching educational experiences for your young ones!";
1084202;"Fruit of the Spirit Learning Care";"1220 Miami St. ";"Baldwin City";"KS";66006;"DOUGLAS";"785-312-0604";"https://www.facebook.com/spiritualfruitskids/info";;"Our focus is on learning Christian values and kindergarten readiness skills using a Montessori inspired philosophy. We will focus on social skills and learning care of self and our environment.";
1085560;"Stepping Stones Day Care Home";"SE 13th";"Newton";"KS";67114;"HARVEY";"316-727-1734";"https://www.facebook.com/SteppingStonesPrek/info";"steppingstonesprekfun@hotmail.com";"I will strive to provide a safe, comfortable, stimulating, fun, educational environment in my home with a semi-structured day plan. Activities will include free play, structured playtime, large motor, small motor activities, story time, arts and crafts, music and dance activities, nature, nutrition, and other educational yet fun activities. I will also provide nutritious meals and snacks. Children in my care will have the opportunity to learn about colors, shapes, textures, numbers, letters, animals, seasons, feelings, senses, personal hygiene, manners, basic science and math concept.";
1055045;"Vals Pals Child Care";"704 cottonwood lane";"Newton";"KS";67114;"HARVEY";"316-217-2101";"https://www.facebook.com/ValsPalsChildCare?ref=stream&viewer_id=0";;;
1084757;"Emmanuel Baptist Preschool";"10100 Metcalf";"Overland Park";"KS";66212;"Johnson";"913-649-0900";;;;
1086389;"Bethany L Jessup Day Care Home";;"Oakley";"KS";67748;"LOGAN";;;;;
1086298;"Lucy Mae Boucher Day Care Home (PRECIOUS HANDS DAYCARE)";" 2909 BARCLAY DR.";"Hays";"KS";67601;"ELLIS";"785 - 625-9085";;;;
1086306;"Newmans Nest Daycare Home";"511 E. 14TH ST";"Hays";"KS";67601;"ELLIS";"785-650-0618
785-259-5228";;"LISAN@EAGLECOM.NET";;
1053976;"Samantha Newell Day Care Home";"DOWNING";"Hays";"KS";67601;"ELLIS";"785 - 259-0022";;;;
1054453;"Toddle Time Day Care";"8101 Marty St.";"Overland Park";"KS";66204;"Johnson";"913-895-6350";;;"Blending timeless classics, such as an obstacle course and push-carts, with trendy new toys, Toddle Time is a program that will captivate the imagination and attention of our future generation for hours.

This open play time has an array of toys, including building blocks, balls and puzzles which will also teach your child how to interact with others their age.";
1085919;"Loretta King Day Care Home";" Edgewood Street";"Wichita";"KS";67230;"SEDGWICK";"316-733-8659";;;;
1086001;"Judy A Lawson Day Care Home";"Aurora Avenue";"Salina";"KS";67401;"SALINE";"785-822-8811";;;;
1055022;"Just For Fun Day Care Home";"B 3rd Road";"Linn";"KS";66953;"WASHINGTON";"785-348-5482";;;;
1086071;"Aunt Jans Daycare";"Dexter Street";"Clay Center";"KS";67432;"CLAY";"785-447-2177";;;;
1086360;"Precious Cargo Day Care";"E 21st Terrace";"Lawrence";"KS";66046;"Douglas";"785-979-1239   ";;;;
1086272;"Busy Bees Childcare";"E 26th Street";"Hays";"KS";67601;"ELLIS";"785-639-6269";;;;
1085826;"Yayas Place";"E Tulsa";"Wichita";"KS";67216;"SEDGWICK";"316-821-6676";;;;
1086232;"Little Guppies Day Care";"E. 4th Street";"Hoisington";"KS";67544;"BARTON";"620-617-1461";;;;
1085663;"Footsteps 2 Heaven";"East 18th Street North";"Wichita";"KS";67206;"SEDGWICK";"316-684-1397";;;;
1055121;"Christina M Queen Day Care Home";"East 6th Avenue";"Hutchinson";"KS";67501;"RENO";"665-8105";;;;
1086215;"Lilly Marie Penka Day Care Home";"Forest Avenue";"Great Bend";"KS";67530;"BARTON";"620-792-2254";;;;
1055151;"Kids and Kritters Daycare";"Main Street";"Hays";"KS";67601;"ELLIS";"785-656-2911";;;;
1085623;"All Gods Children DayCare";"Merrily Circle   ";"Wichita";"KS";67203;"SEDGWICK";"785-577-5468";;;;"Friday"
1085696;"God is Love Daycare";"N Belmont Street";"Wichita";"KS";67208;"SEDGWICK";"316-688-1694";;;;
1085635;"Small World Home Daycare";"N Illinois Street";"Wichita";"KS";67203;"SEDGWICK";"316-806-3177";;;;
1086149;"Kimberly Diann Bates Daycare";"N Lorraine Street";"Hutchinson";"KS";67501;"RENO";"669-3715";;;;
1084498;"Patricia L Davis Day Care Home";"N Ohio Street";"Olathe";"KS";66062;"JOHNSON";"620-988-2210";;;;
1085198;"Cradle to Crayons Day Care Home";"N Ohio Street";"Topeka";"KS";66619;"SHAWNEE";"785-577-6412";;;;
1086367;"Happy Hearts Daycare";"N. Hillside Lot 16";"Valley Center";"KS";67147;"THOMAS";"316-519-0637";;;;
1054867;"Rainbow Kidz Day Care Home";"North 54th Street";"Kansas City";"KS";66104;"WYANDOTTE";"913-287-5674";;;;
1085782;"Home Away From Home Day Care Home";"North Cardington Court";"Wichita";"KS";67213;"SEDGWICK";"316-866-2596";;;;
1054976;"Tiny Tots Daycare";"North Dellrose Circle";"Wichita";"KS";67220;"Sedgwick";"316-260-8677  ";;;;
1085241;"The Little Explorers";"North Massachusetts Street";"Erie";"KS";66733;"NEOSHO";"620-305-8912";;;;
1086241;"Melissa Schlegel Child Care";"Post Rock E1";"La Crosse";"KS";67548;"RUSH";"785-224-9091";;;;
1085986;"Christies Daycare";"Ralph Avenue";"Salina";"KS";67401;"SALINE";"785-819-3874";;;;
1084924;"Fun and Loving Home Day Care";"S Clay Street City  Junction City";"Junction City";"KS";66441;"GEARY";"785-307-2687";;;;
1085256;"Kids Playhouse Daycare";"S Kentucky Street";"Iola";"KS";66749;"ALLEN";"620-228-4613";;;;
1086336;"Bear Care Daycare";"S Meridian Street";"Plainville";"KS";67663;"ROOKS";"785-434-6262";;;;
1055007;"Early Bird Childcare Day Care Home";"S State Street";"Emporia";"KS";66801;"LYON";"620-794-3040";;;;
1084883;"Chapman Day Care Home";"SE Berryton Road";"Berryton";"KS";66409;"SHAWNEE";"785-640-6958";;;;
1084961;"New Beginnings Early Learning Home";"Tuttle Creek Blvd # 558";"Manhattan";"KS";66502;"RILEY";"785-258-0086";;;;
1084241;"Misty D Shrum Day Care Home";"W 14th Street";"Eudora";"KS";66025;"DOUGLAS";"785-542-3502";;;;
1085768;"Shawna R Semsroth Day Care Home";"W 20th Circle N";"Wichita";"KS";67212;"SEDGWICK";"316-722-8911";;;;
1084319;"Nancy A Potter Day Care Home";"W 24th Place";"Lawrence";"KS";66047;"DOUGLAS";"785-843-7323";;;;
1085263;"All Stars Daycare";"W 2nd Street";"Pittsburg";"KS";66762;"CRAWFORD";"620-704-8050";;;;
1085837;"Krystis Daycare";"W 44th Street S";"Wichita";"KS";67217;"SEDGWICK";"316-218-3458";;;;
1054852;"Melissas Day Care Home";"W Peoria Street";"Paola";"KS";66071;"MIAMI";"913-406-5542";;;;
1086022;"Poohs Corner Daycare";"W Republic Avenue";"Salina";"KS";67401;"SALINE";"785-820-1154";;;;
1085377;"Little Blessings Daycare";"W Westlawn Circle";"Wichita";"KS";67212;"Sedgwick";"316-204-0742";;;;
1085748;"Bright Beginnings Daycare";"West 157th Terrace   ";"Olathe";"KS";66062;"Johnson";"913-481-8540";;;;
1085026;"Heather A Weers Day Care Home";" 100 Lockett Ln ";"Saint George";"KS";66535;"POTTAWATOMIE";"785-494-2053 ";;;;
1085810;"Michelle Davidsons Home Daycare";" 10010 W Greenfield Cir ";"Wichita";"KS";67215;"SEDGWICK";"316-773-1814 ";;;;
1084324;"Crystal Linn Kennedy Day Care Home";" 1011 Madison St ";"Leavenworth";"KS";66048;"LEAVENWORTH";"913-758-0418 ";;;;
1085479;"Christina Eve Rau Day Care Home";" 1011 S 327Th St W ";"Garden Plain";"KS";67050;"SEDGWICK";"316-540-9809 ";;;;
1085306;"Susan Hale Family Daycare";" 1014 Garfield St ";"Emporia";"KS";66801;"LYON";"620-343-6706
";;;;
1084288;"Barbara Piper Home Daycare";" 102 High St ";"Lancaster";"KS";66041;"ATCHISON";"913-874-2461 ";;;;
1084719;"Zahra Hakimi Day Care Home";" 10212 Roe Ave ";"Overland Park";"KS";66207;"Johnson";"913-383-1108 ";;;;
1085612;"Kristina Lynn Sultz Day Care Home";" 10263 132Nd Rd ";"Winfield";"KS";67156;"COWLEY";"620-229-8153 ";;;;
1084789;"Tonya Proffitt Day Care Home";" 10270 Garnett St ";"Overland Park";"KS";66214;"Johnson";"913-599-6751 ";;;;
1085628;"Kathie A Bazzelle Day Care Home";" 1031 N Porter Ave ";"Wichita";"KS";67203;"SEDGWICK";"316-267-7802 ";;;;
1084793;"Deborah Jeanine Bennink Day Care Home";" 10313 Westgate St ";"Lenexa";"KS";66215;"Johnson";"913-888-1684
";;;;
1085907;"Farishta Behzadpour Day Care Home";" 10314 E Windemere Ct ";"Wichita";"KS";67226;"SEDGWICK";"316-634-0820 ";;;;
1084537;"Michelle A Fennell Day Care Home";" 1038 S Maple St ";"Ottawa";"KS";66067;"FRANKLIN";"785-242-2693 ";;;;
1085275;"Tonya Barnett Day Care Home";" 104 W Carlton St ";"Frontenac";"KS";66763;"CRAWFORD";" 620-231-1555 ";;;;
1084579;"Sandra Johnson Day Care Home";" 104 W King St ";"Spring Hill";"KS";66083;"JOHNSON";"913-592-3111 ";;;;
1085689;"Amanda Beth Anderson Day Care Home";" 1042 Kevin St ";"Wichita";"KS";67208;"SEDGWICK";"316-684-2129 ";;;;
1084895;"Connie Woltje Day Care Home";" 106 Wilson Ave ";"Circleville";"KS";66416;"JACKSON";"785-924-3781 ";;;;
1085774;"Theresa Lynn Barlow Day Care Home";" 10711 W Westport St ";"Wichita";"KS";67212;"SEDGWICK";"316-721-8223 ";;;;
1084745;"Diane M Menzies Day Care Home";" 10722 Walmer St ";"Leawood";"KS";66211;"Johnson";"913-642-3770 ";;;;
1084739;"June Elizabeth Martinson Day Care Home";" 10860 Bradshaw St ";"Overland Park";"KS";66210;"Johnson";" 913-317-8522 ";;;;
1085570;"Debbie R Bell Day Care Home";" 109 N Pine St ";"Pratt";"KS";67124;"PRATT";"620-672-5346 ";;;;
1085065;"Jodi Innes Daycare";" 109 S 1St St ";"Randolph";"KS";66554;"RILEY";"785-293-5181
";;;;
1084737;"Jeanne Smith Day Care Home";" 10904 Reeder St ";"Overland Park";"KS";66210;"Johnson";"913-232-9272 ";;;;
1084670;"Jennifer M Vielhauer Day Care Home";" 10915 W 51St Ter ";"Shawnee";"KS";66203;"Johnson";" 913-248-1568 ";;;;
1085031;"Jackie Marie Moylan Daycare Home";" 110 E Tomahawk Dr ";"Saint Marys";"KS";66536;"POTTAWATOMIE";"785-437-2015 ";;;;
1084524;"Amy Quinn Daycare Home";" 11014 Ryan St ";"Ottawa";"KS";66067;"FRANKLIN";" 316-773-4707 ";;;;
1054916;"Venita A Ruhnke Day Care Home";" 1104 Miami St ";"Hiawatha";"KS";66434;"BROWN";"785-742-7583 ";;;;
1054992;"Dana Vanatta Day Care Home";" 1106 Elm St ";"Humboldt";"KS";66748;"ALLEN";"620-473-2843 ";;;;
1085750;"Diane Lee Trissal Day Care Home";" 1109 N Sandplum Ln ";"Wichita";"KS";67212;"SEDGWICK";"316-942-2445 ";;;;
1085553;"Lisa A Valdez Day Care Home";" 1110 Harrison St ";"Newton";"KS";67114;"HARVEY";"316-283-7642 ";;;;
1084196;"Jeanette I Whitney Daycare Home";" 1111 Highland Ave ";"Atchison";"KS";66002;"ATCHISON";"913-367-3576
";;;;
1084787;"Mary A Blake Day Care Home";" 11118 W 99Th Pl ";"Overland Park";"KS";66214;"Johnson";" 913-492-8248 ";;;;
1084420;"Tonya R Bray Day Care Home";" 1114 N Cooper St ";"Olathe";"KS";66061;"JOHNSON";"913-390-9735 ";;;;
1085939;"Wanda Gettler Day Care Home";" 1117 N 10Th St ";"Independence";"KS";67301;"MONTGOMERY";"620-331-1952 ";;;;
1085709;"Robin Kay Neal Day Care Home";" 1118 N Charlotte St ";"Wichita";"KS";67208;"SEDGWICK";"316-683-9113 ";;;;
1055036;"Suzette J Caldarelli Day Care Home";" 1121 James St ";"Derby";"KS";67037;"SEDGWICK";"316-788-6676 ";;;;
1084570;"Anna Marie French Day Care Home";" 117 E Nichols St ";"Spring Hill";"KS";66083;"JOHNSON";" 913-592-3143 ";;;;
1054990;"Dawn Michele Blythe Day Care Home";" 117 W Prairie Ave ";"Girard";"KS";66743;"CRAWFORD";"620-724-7494 ";;;;
1084671;"Jesse Michaela Curry Day Care Home";" 11715 W 68Th Ter ";"Shawnee";"KS";66203;"Johnson";"913-962-9023";;;;
1084382;"Dora June Davis Day Care Home";" 118 S Montclaire Dr ";"Olathe";"KS";66061;"JOHNSON";"913-782-2189 ";;;;
1055217;"Brenda Sue Ward Day Care Home";" 1200 Sycamore St ";"Liberal";"KS";67901;"SEWARD";"620-626-7146 ";;;;
1055064;"Shayna L Jennings Day Care Home";" 1202 S Eastmoor St ";"Wichita";"KS";67207;"SEDGWICK";"316-685-1196 ";;;;
1054946;"Carolyn Mitchell Day Care Home";" 1212 Se Republican Ave ";"Topeka";"KS";66605;"SHAWNEE";"785-357-8588 ";;;;
1085923;"Sharon R Doss Day Care Home";" 12202 Meribeau St ";"Wichita";"KS";67235;"SEDGWICK";"316-260-1253 ";;;;
1084805;"Bonita R Johnson Day Care Home";" 12219 W 61St St ";"Shawnee";"KS";66216;"Johnson";"913-268-1198
";;;;
1084636;"Pamela E Leiker Day Care Home";" 12307 Mcgurk Rd ";"Kansas City";"KS";66109;"WYANDOTTE";" 913-721-3844 ";;;;
1084507;"Sherry Ruth Arnold Day Care Home";" 12412 S Albervan St ";"Olathe";"KS";66062;"JOHNSON";"913-780-6667 ";;;;
1084432;"Angela M Samuelson Day Care Home";" 12424 S Alcan St ";"Olathe";"KS";66062;"JOHNSON";"913-782-8973 ";;;;
1084853;"Imogene Smith Day Care Home";" 125 Wilson St ";"Liberal ";"KS";"67901
";"Johnson";" 620-624-2950 ";;;;
1085537;"Jessica Lynn Heffron Day Care Home";" 126 Cedar St ";"Mulvane";"KS";67110;"SUMNER";"316-927-3937 ";;;;
1084387;"Gretchen G Dunn Day Care Home";" 128 N Janell Dr ";"Olathe";"KS";66061;"JOHNSON";" 913-768-8718 ";;;;
1054885;"Lynn Marie Sanders Day Care Home";" 12804 Catalina St ";"Leawood ";"KS";66209;"Johnson";"913-387-4800 ";;;;
1086052;"Linda Creach Day Care Home";" 1293 Jackson Rd ";"Abilene";"KS";67410;"DICKINSON";" 785-746-5676 ";;;;
1084910;"Megan Montgomery Childcare";" 12975 222Nd Rd ";"Holton";"KS";66436;"JACKSON";"785-364-4045 ";;;;
1084258;"Jennifer Lynn Elliott Day Care Home";" 130 Manor Pl ";"Gardner";"KS";66030;"JOHNSON";"913-856-7612 ";;;;
1084275;"Shelly Renee Bovitz Day Care Home";" 130 W Warren St ";"Gardner";"KS";66030;"JOHNSON";"913-856-7754 ";;;;
1085710;"Rutha Earl Day Care Home";" 1302 N Terrace Dr ";"Wichita";"KS";67208;"SEDGWICK";"316-685-1599 ";;;;
1085562;"Trudy Morrison Day Care Home";" 1306 Allison St ";"Newton";"KS";67114;"HARVEY";"316-283-6608 ";;;;
1084984;"Leslie Renay Holle Day Care Home";" 1307 Laramie St ";"Marysville";"KS";66508;"MARSHALL";"785-562-5515
";;;;
1085403;"Lea Ann Orman Day Care Home";" 1309 N 11Th St ";"Arkansas City";"KS";67005;"COWLEY";"620-442-4493 ";;;;
1084834;"Patricia Lynette Imel Day Care Home";" 13101 W 138Th St ";"Overland Park";"KS";66221;"Johnson";"913-685-2247 ";;;;
1084809;"Cynthia L Burrows Day Care Home";" 13103 W 75Th Ter ";"Shawnee";"KS";66216;"Johnson";"913-962-0235 ";;;;
1084220;"Stacey L Hurla Day Care Home";" 13401 Riverview St ";"Bonner Springs";"KS";66012;"WYANDOTTE";"913-721-2788 ";;;;
1086056;"Candy L Komp Daycare Home";" 136 S Anderson St ";"Assaria";"KS";67416;"SALINE";"785-667-4010 ";;;;
1085533;"Charla A Lambrecht Day Care Home";" 1364 State Road 15 ";"Mulvane";"KS";67110;"SUMNER";"316-777-0624 ";;;;
1084219;"Patricia Lofton Day Care Home";" 13721 Elmwood St ";"Bonner Springs";"KS";66012;"WYANDOTTE";" 913-441-1019 ";;;;
1084483;"Maggie Bailey Day Care Home";" 13924 S Tomahawk Dr ";"Olathe";"KS";66062;"JOHNSON";"913-764-1559 ";;;;
1084468;"Kimberly J Hendry Day Care Home";" 14081 S Darnell Ct ";"Olathe";"KS";66062;"JOHNSON";"913-780-6303 ";;;;
1055106;"Walleta J Bergsten Day Care Home";" 1409 10Th St ";"Clay Center";"KS";67432;"CLAY";" 785-632-2551 ";;;;
1084674;"Laura Meyer Day Care Home";" 14110 W 72Nd Ter ";"Shawnee";"KS";66203;"Johnson";"913-322-3836 ";;;;
1085547;"Heather C Wolf Day Care Home";" 1417 W 8Th St ";"Newton";"KS";67114;"HARVEY";"316-282-0025 ";;;;
1085498;"Kerry Jones Daycare";" 1422 E 71St St S ";"Haysville";"KS";67060;"SEDGWICK";"316-524-7258
";;;;
1084463;"Karen Louise Reeves Day Care Home";" 14235 W 138Th Ct ";"Olathe";"KS";66062;"JOHNSON";" 913-829-5490 ";;;;
1085319;"Gail Horton Day Care Home";" 1433 W Main St ";"Council Grove";"KS";66846;"MORRIS";"620-767-5022
";;;;
1084487;"Melissa Wood Day Care Home";" 14523 S Darnell St
Olathe, Kansas 66062 ";"Olathe";"KS";66062;"JOHNSON";" 913-780-1128
";;;;
1084482;"Lorraine Bal Day Care Home";" 14527 S Darnell St ";"Olathe";"KS";66062;"JOHNSON";"913-780-1522 ";;;;
1084792;"Carol Alleys Day Care Home";" 14625 W 90Th Ter ";"Lenexa";"KS";66215;"Johnson";"913-492-0631 ";;;;
1084443;"Cozzetta Campbell Day Care Home";" 14645 S Constance Ct ";"Olathe";"KS";66062;"JOHNSON";"913-829-1091 ";;;;
1084464;"Kathryn E Dunn Day Care Home";" 14690 S Darnell St ";"Olathe";"KS";66062;"JOHNSON";"913-768-9514 ";;;;
1084376;"Beth M Daniels Day Care Home";" 1495 W Mulberry St ";"Olathe";"KS";66061;"JOHNSON";"913-768-4277 ";;;;
1085430;"Kimberly Grace McCormick Day Care Home";" 15 S Woodberry Rd ";"Burrton";"KS";67020;"HARVEY";"620-463-2009 ";;;;
1084378;"Danielle K Grant Day Care Home";" 15042 S Violet St ";"Olathe";"KS";66061;"JOHNSON";"913-538-6413 ";;;;
1055165;"Janet R Means Day Care Home";" 153 9Th St ";"Phillipsburg";"KS";67661;"PHILLIPS";"785-543-5876
";;;;
1084539;"Sandra Brister Day Care Home";" 1530 S Orchard Dr ";"Ottawa";"KS";66067;"FRANKLIN";"785-242-8686 ";;;;
1054958;"Jamie Burnett Home Day Care";" 1533 Sw 24Th St ";"Topeka";"KS";66611;"SHAWNEE";"785-783-3404 ";;;;
1084840;"Sheila Jo Moravac Day Care Home";" 15418 Conser St ";"Overland Park";"KS";66223;"Johnson";" 913-681-1025 ";;;;
1084494;"Natalie L Kenkel Day Care Home";" 15502 W 128Th St ";"Olathe";"KS";66062;"JOHNSON";" 913-393-0734 ";;;;
1084384;"Erin Rae Stephenson Day Care Home";" 15575 W 183Rd St ";"Olathe";"KS";66061;"JOHNSON";"913-592-3822 ";;;;
1084480;"Lisa Roehrl Day Care Home";" 15630 W 143Rd Ter ";"Olathe";"KS";66062;"JOHNSON";" 913-768-4003 ";;;;
1084497;"Patricia Ann Bradshaw Day Care Home";" 15723 W 145Th Ter ";"Olathe";"KS";66062;"JOHNSON";"913-829-1841 ";;;;
1084839;"Shawna Maase Day Care Home";" 15838 Maple St ";"Overland Park";"KS";66223;"Johnson";" 913-851-1967 ";;;;
1084428;"Alice Bach Day Care Home";" 15916 W 149Th St ";"Olathe";"KS";66062;"JOHNSON";"913-782-9518 ";;;;
1084439;"Cheryl Ann Finch Day Care Home";" 16002 W 161St Ter ";"Olathe";"KS";66062;"JOHNSON";"913-397-0165 ";;;;
1084476;"Linda Nordeen Day Care Home";" 16004 W 139Th St ";"Olathe";"KS";66062;"JOHNSON";"913-780-0824 ";;;;
1084461;"Julie Heidrick Day Care Home";" 1611 Warner Rd ";"Olathe";"KS";66062;"JOHNSON";"620-792-5635 ";;;;
1084514;"Wendy Telken Childcare Home";" 16117 W 154Th St ";"Olathe";"KS";66062;"JOHNSON";"913-829-4870 ";;;;
1084342;"Susan Neil Moore Daycare Home";" 1626 Limit St ";"Leavenworth";"KS";66048;"LEAVENWORTH";"913-651-3924
";;;;
1085762;"Margaret Ann Koepsel Day Care Home";" 1640 N Chambers St ";"Wichita";"KS";67212;"SEDGWICK";"316-721-4729 ";;;;
1054841;"Joyce Alderman Day Care Home";" 16608 W 145Th Ter ";"Olathe";"KS";66062;"JOHNSON";"913-764-6847 ";;;;
1085357;"Carolyn J Packer Day Care Home";" 1715 19Th St ";"Belleville";"KS";66935;"REPUBLIC";"785-527-5837 ";;;;
1084566;"Hazel W Smith Day Care Home";" 1720 California Rd ";"Pomona";"KS";66076;"FRANKLIN";"785-746-5416 ";;;;
1085832;"Frances Rose Fields Day Care Home";" 1720 W Greenfield St ";"Wichita";"KS";67217;"SEDGWICK";"316-262-8093 ";;;;
1085898;"Tamiko N Jones Daycare Home";" 1721 N Northeast Pkwy ";"Wichita";"KS";67220;"SEDGWICK";"316-682-8002 ";;;;
1085808;"Kelli Bennett Day Care Home";" 17311 W 87Th St S ";"Clearwater";"KS";67026;"SEDGWICK";"620-584-2196 ";;;;
1085625;"Catos Play Land";" 1733 N Meridian Ave";"Wichita";"KS";67203;"SEDGWICK";"(316) 201-1125";;"catoplayland@gmail.com";;
1084479;"Lisa G Hale Day Care Home";" 17331 W 155Th Ter ";"Olathe";"KS";66062;"JOHNSON";"913-780-3879
";;;;
1085376;"Elaine Jueneman Day Care Home";" 1791 23Rd Rd ";"Washington";"KS";66968;"WASHINGTON";"785-325-3331 ";;;;
1085115;"Sara J Beckwith Day Care Home";" 1808 Nw Central Ave ";"Topeka";"KS";66608;"SHAWNEE";"785-232-8870 ";;;;
1085772;"Teresa S Miller Day Care Home";" 1832 N Redbarn Ln ";"Wichita";"KS";67212;"SEDGWICK";"316-773-3337 ";;;;
1085904;"Brenda J Allen Daycare Home";" 1835 N Emerson Ave ";"Wichita";"KS";67226;"SEDGWICK";"316-722-8499
";;;;
1084509;"Stephanie Girard Daycare Home";" 18366 W 157Th Ter ";"Olathe";"KS";66062;"JOHNSON";"913-393-3980 ";;;;
1084435;"Brooke Clements Day Care Home";" 18797 W 163Rd Ter ";"Olathe";"KS";66062;"JOHNSON";"913-393-0355 ";;;;
1084927;"Juanita L Smith Day Care Home";" 1903 W 17Th St ";"Junction City";"KS";66441;"GEARY";"785-238-3334 ";;;;
1055002;"Marlene L Ossana Day Care Home";" 1907 S Taylor St ";"Pittsburg";"KS";66762;"CRAWFORD";"620-231-1507 ";;;;
1085627;"Janet Franz Day Care Home";" 1949 N Kessler St ";"Wichita";"KS";67203;"SEDGWICK";"316-942-3693 ";;;;
1084361;"Roberta Ann Burd Day Care Home";" 1957 E 175Th Rd ";"Lecompton";"KS";66050;"DOUGLAS";"785-887-6970 ";;;;
1085634;"Sandra K Warnock Day Care Home";" 2002 N Kessler St ";"Wichita";"KS";67203;"SEDGWICK";" 316-942-3017 ";;;;
1085391;"Kimberly Wilson Day Care Home";" 2007 N Grace Avenue Ct ";"Andover";"KS";67002;"BUTLER";"316-218-0605 ";;;;
1055159;"Marta L Reese Day Care Home";" 201 W 12Th St ";"Ellis";"KS";67637;"ELLIS";"785-726-3135 ";;;;
1084573;"Janiece Moore Daycare";" 202 N Franklin St ";"Spring Hill";"KS";66083;"JOHNSON";"913-592-2644 ";;;;
1055030;"Denise R Skibbe Day Care Home";" 202 S 1St St ";"Geuda Springs";"KS";67051;"COWLEY";"620-447-3223 ";;;;
1055173;"Kelly M Griffin Home Daycare";" 205 S West St ";"Victoria";"KS";67576;"ELLIS";"620-549-3203 ";;;;
1084569;"Angela Renee Stites Day Care Home";" 20661 W Sycamore Dr ";"Spring Hill";"KS";66083;"JOHNSON";"913-592-3842 ";;;;
1085992;"Debi Wallace Daycare";" 2068 Marc St ";"Salina";"KS";67401;"SALINE";"785-823-1305 ";;;;
1084880;"Angela Yvonne Talbot Day Care Home";" 207 State St ";"Axtell";"KS";66403;"MARSHALL";"785-736-2725 ";;;;
1084998;"Harriet Elizabeth Schmidt Day Care Home";" 20755 Onaga Rd N ";"Onaga";"KS";66521;"POTTAWATOMIE";"785-889-4861 ";;;;
1085571;"Kim Maneth Day Care Home";" 210 S New St ";"Pratt";"KS";67124;"PRATT";"620-672-5169 ";;;;
1085381;"Emmy Harp Daycare Home";" 211 Meadowlark Ct ";"Andale";"KS";67001;"SEDGWICK";"316-444-2033 ";;;;
1084980;"Cindy Lou Murphy Day Care Home";" 211 N 10Th St ";"Marysville";"KS";66508;"MARSHALL";"785-562-3688 ";;;;
1084374;"Amy M Valentine Day Care Home";" 21163 W 126Th Ter ";"Olathe";"KS";66061;"JOHNSON";"913-764-1945 ";;;;
1055205;"Lindsey Jill Beckwith Day Care Home";" 212 N 2Nd St ";"Garden City";"KS";67846;"FINNEY";"620-272-0905 ";;;;
1085888;"LaDonna Baldwin Home Day Care";" 212 Southern Ave ";"Parsons ";"KS";67357;"SEDGWICK";" 620-421-1166 ";;;;
1055124;"Teresa R Starks Day Care Home";" 214 Kansas Ave ";"Hutchinson";"KS";67502;"RENO";"620-663-3874 ";;;;
1084362;"Stacey M Nichols Daycare";" 2144 E 500Th Rd ";"Lecompton";"KS";66050;"DOUGLAS";"785-887-6177 ";;;;
1085899;"Tara J Jacobson Day Care Home";" 216 N Anna St ";"Wichita";"KS";67220;"SEDGWICK";"316-942-6247 ";;;;
1055208;"Sara Ann Ortiz Day Care Home";" 2204 N Apache Dr ";"Garden City";"KS";67846;"FINNEY";"620-272-9303 ";;;;
1085829;"Bonnie Kathleen Kerls Day Care Home";" 2206 W Macarthur Rd LOT 152 ";"Wichita";"KS";67217;"SEDGWICK";"316-524-4997
";;;;
1084585;"Cornelia Kissinger Day Care Home";" 22078 203Rd St ";"Tonganoxie";"KS";66086;"LEAVENWORTH";" 913-369-2160 ";;;;
1084858;"Nancy Immenschuh Day Care Home";" 22209 W 51St St ";"Shawnee";"KS";66226;"Johnson";"913-422-8979
";;;;
1085190;"Julie Bushnell Day Care Home";" 2221 Nw 48Th St ";"Topeka";"KS";66618;"SHAWNEE";"785-246-0691 ";;;;
1085448;"Janelle R Martin Day Care Home";" 223 S 7Th St ";"Conway Springs";"KS";67031;"SUMNER";"620-456-3282
";;;;
1085061;"Donna Watson Day Care Home";" 223 W Commercial St ";"Waterville";"KS";66548;"MARSHALL";"785-363-2545 ";;;;
1084589;"Shelly Rusk Daycare Home";" 22375 179Th St ";"Tonganoxie";"KS";66086;"LEAVENWORTH";"913-724-1149
";;;;
1084973;"Cheryl Greathouse Day Care Home";" 225 Highland Ridge Dr ";"Manhattan";"KS";66503;"RILEY";" 785-320-7911 ";;;;
1084571;"Diane Kawas Day Care Home";" 22502 S Cedar Niles Rd ";"Spring Hill";"KS";66083;"JOHNSON";"913-686-2548 ";;;;
1085254;"Karen A Trester Day Care Home";" 228 N Stanley St ";"Iola";"KS";66749;"ALLEN";"620-365-3837 ";;;;
1084325;"Edna M Brantley Day Care Home";" 2304 S 17Th St ";"Leavenworth";"KS";66048;"LEAVENWORTH";"913-682-7446 ";;;;
1084966;"Summer Ashlee Claar Day Care Home";" 2308 Spain Dr ";"Manhattan";"KS";66502;"RILEY";" 785-776-0435
";;;;
1085655;"Janelle Sue Longwell Day Care Home";" 2319 N Parkridge Ct ";"Wichita";"KS";67205;"SEDGWICK";"316-721-6352 ";;;;
1084356;"Melissa Daggett Day Care Home";" 2324 Haversham Dr ";"Lawrence";"KS";66049;"DOUGLAS";"785-838-9284 ";;;;
1085656;"Mary Nanette Bortnick Daycare Home";" 2332 N Parkridge St ";"Wichita";"KS";67205;"SEDGWICK";"316-721-3727 ";;;;
1084638;"Shirley Connor Day Care Home";" 2337 N 73Rd St ";"Kansas City";"KS";66109;"WYANDOTTE";" 913-334-1025
";;;;
1055145;"Angel Lynn Rueschhoff Day Care Home";" 234 Northridge Dr ";"Hays";"KS";67601;"ELLIS";"785-628-1861 ";;;;
1084906;"Janine S Sawyer Day Care Home";" 23590 T Rd ";"Holton";"KS";66436;"JACKSON";"785-364-2425 ";;;;
1055000;"Carrol June Tackkett Day Care Home";" 2404 S Homer St ";"Pittsburg";"KS";66762;"CRAWFORD";"620-231-8986 ";;;;
1055189;"Kristine M Vollbracht Day Care Home";" 2408 County Road 26 ";"Grinnell";"KS";67738;"GOVE";" 785-824-3820 ";;;;
1055129;"Darla K Stroud Day Care Home";" 2414 21St St ";"Great Bend";"KS";67530;"BARTON";"620-792-5042 ";;;;
1084297;"Jennifer Stauch Day Care Home";" 24861 Stillwell Rd ";"Lawrence";"KS";66044;"DOUGLAS";"785-865-5151 ";;;;
1055150;"Judy Ann Weigel Day Care Home";" 2506 Virginia Dr ";"Hays";"KS";67601;"ELLIS";"785-628-3351 ";;;;
1085871;"Hope Marie McDaniel Day Care Home";" 2518 E Burlington Ct ";"Wichita";"KS";67219;"SEDGWICK";"316-744-2677 ";;;;
1085824;"Tammy Joann Mehl Day Care Home";" 2526 S Lulu Ave ";"Wichita";"KS";67216;"SEDGWICK";"316-262-6534 ";;;;
1084388;"Heather Michelle Dickson Day Care Home";" 2613 W Whitney St ";"Olathe";"KS";66061;"JOHNSON";"913-768-7393 ";;;;
1055207;"Sandra L Martinez Day Care Home";" 2615 N Main St Apt 9A ";"Garden City";"KS";67846;"FINNEY";"620-275-5426
";;;;
1085998;"Helen M Halpain Day Care Home";" 2636 E Ray Ave ";"Salina";"KS";67401;"SALINE";"785-826-1800 ";;;;
1085304;"Pamela Sue Trelc Day Care Home";" 2669 W Ridge Dr ";"Emporia";"KS";66801;"LYON";"620-343-3682 ";;;;
1054821;"Lorrie S Wiseman Day Care Home";" 2700 Wildflower Dr ";"Lawrence";"KS";66047;"DOUGLAS";" 785-843-6671 ";;;;
1055133;"Ruth E Steitz Day Care Home";" 2701 Coronado St ";"Great Bend";"KS";67530;"BARTON";"620-792-1862 ";;;;
1085401;"Judy Mitchell Day Care Home";" 2720 E Vine Ave ";"Arkansas City";"KS";67005;"COWLEY";"620-442-2757 ";;;;
1086060;"Lil Angels Daycare";" 2720 W 43rd Ave";"Kansas City";"KS";66103;"MITCHELL";"(913) 362-5192 ";;;;
1085878;"Sara Johnson Day Care Home";" 2745 S Vassar Ct ";"Wichita";"KS";67219;"SEDGWICK";"316-689-8995 ";;;;
1084317;"Kay F Wehr Day Care Home";" 2908 Sagebrush Dr ";"Lawrence";"KS";66047;"DOUGLAS";" 785-832-2509 ";;;;
1084939;"Dawn L Meis Day Care Home";" 2917 Karen Ter ";"Manhattan";"KS";66502;"RILEY";"785-537-7844 ";;;;
1086016;"Marcia G Stock Day Care Home";" 2928 Berkley Ln ";"Salina";"KS";67401;"SALINE";"785-823-5502 ";;;;
1085473;"Teresa A Gardner Day Care Home";" 2941 W 4Th Ave ";"El Dorado";"KS";67042;"BUTLER";" 316-320-9206 ";;;;
1084264;"Laura E Ross Day Care Home";" 300 W Cheyenne St ";"Gardner";"KS";66030;"JOHNSON";"913-938-4332 ";;;;
1084314;"Cynthia D Dilley Day Care Home";" 3001 W 19Th Ct ";"Lawrence";"KS";66047;"DOUGLAS";"785-842-2543 ";;;;
1084318;"Kay Strout Day Care Home";" 3009 W 23Rd Ter ";"Lawrence";"KS";66047;"DOUGLAS";"785-841-3946 ";;;;
1054421;"The Tree House Learning Center Day Care Home";" 301 N Maple";"Inman";"KS";67546;"MCPHERSON";"620-585-6460";;;;
1084380;"Debbie A Baker Day Care Home";" 301 S Montclaire Dr ";"Olathe";"KS";66061;"JOHNSON";"913-829-1357 ";;;;
1085573;"Lisa D Austin Day Care Home";" 301 S Mound St ";"Pratt";"KS";67124;"PRATT";" 620-672-5437 ";;;;
1085234;"Theresa Daniels Day Care Home";" 301 Washington Ave ";"Columbus";"KS";66725;"CHEROKEE";"620-429-1936
";;;;
1084550;"Julie A Kieffaber Day Care Home";" 30107 W 274Th St ";"Paola";"KS";66071;"MIAMI";" 913-294-3332 ";;;;
1085843;"Renee L King Day Care Home";" 3015 S Euclid Ave ";"Wichita";"KS";67217;"SEDGWICK";"316-943-8846 ";;;;
1085092;"Nancy L Sewell Day Care Home";" 3017 Se Granger St ";"Topeka";"KS";66605;"SHAWNEE";"785-266-4762 ";;;;
1055097;"Marguerite Green Day Care Home";" 302 N Vine St ";"Abilene";"KS";67410;"DICKINSON";"785-263-0089 ";;;;
1084366;"Phyllis D Harris Day Care Home";" 302 S 2Nd St ";"Louisburg";"KS";66053;"MIAMI";"913-837-2736 ";;;;
1084974;"Kristie Mahun Day Care Home";" 3027 Tamarak Dr ";"Manhattan";"KS";66503;"RILEY";"785-539-9558 ";;;;
1085792;"Betsy Whitsett Day Care Home";" 3029 E Stadium Dr ";"Wichita";"KS";67214;"SEDGWICK";"316-651-0705 ";;;;
1085487;"Marie Regier Day Care Home";" 305 Harvey St ";"Halstead";"KS";67056;"HARVEY";"316-830-3468 ";;;;
1085566;"Cheryl A Eckhoff Day Care Home";" 305 N Iuka St ";"Pratt";"KS";67124;"PRATT";"620-672-3346 ";;;;
1085362;"Susan Bechard Daycare Home";" 308 E 2Nd St ";"Clifton";"KS";66937;"WASHINGTON";"785-455-2204 ";;;;"Saturday and Sunday"
1085023;"Melissa Bradbury Daycare";" 309 S Washington Ave ";"Sabetha";"KS";66534;"NEMAHA";"785-284-0356 ";;;;
1085937;"Toni Lee Taylor Day Care Home";" 311 N 11Th St ";"Independence";"KS";67301;"MONTGOMERY";"620-331-2921
";;;;
1085530;"Kimberly Ann Roland Day Care Home";" 312 W Fremont Ave ";"Medicine Lodge";"KS";67104;"BARBER";"620-886-5292 ";;;;
1084626;"Yvette Dawn Reynolds Day Care Home";" 3135 S 55Th St ";"Kansas City";"KS";66106;"WYANDOTTE";"913-722-4011 ";;;;
1085024;"Rita Menold Day Care Home";" 315 S 9Th St ";"Sabetha";"KS";66534;"NEMAHA";"785-284-2078 ";;;;
1085316;"Linda L Meyers Day Care Home";" 316 W Fort Scott St ";"Cottonwood Falls";"KS";66845;"CHASE";" 620-456-3453 ";;;;
1085384;"Lori R Wescott Day Care Home";" 318 N Dale St ";"Andale";"KS";67001;"SEDGWICK";"316-444-2391 ";;;;
1054980;"Jennifer Hood Day Care Home";" 319 W 7Th St ";"Chanute";"KS";66720;"NEOSHO";"620-432-9981 ";;;;
1084348;"Gayle Jackson Day Care Home";" 3212 Longhorn Dr ";"Lawrence";"KS";66049;"DOUGLAS";"785-842-1641 ";;;;
1084558;"Tammy Jean Harris Day Care Home";" 32198 Valley View Dr ";"Paola";"KS";66071;"MIAMI";"913-557-3819 ";;;;
1085008;"Sunset Lane Day Care";" 323 N Remmele St ";"Overbrook";"KS";66524;"OSAGE";" 785-485-2432 ";;;;
1085009;"Donna Hanna Day Care Home";" 323 N Remmele St ";"Riley";"KS";66531;"RILEY";"785-485-2432 ";;;;
1084349;"Ginger Louise Hodison Day Care Home";" 325 Edinburgh Rd ";"Lawrence";"KS";66049;"DOUGLAS";"785-842-4457 ";;;;
1055108;"Sara Hunnicutt Childcare";" 327 N Park St ";"Hope";"KS";67451;"DICKINSON";"785-366-7880 ";;;;
1085640;"Debra A Forster Day Care Home";" 329 W 43Rd St N ";"Wichita";"KS";67204;"SEDGWICK";"316-838-3100 ";;;;
1084938;"Daria S Dodds Home Daycare";" 3310 Valleywood Dr ";"Manhattan";"KS";66502;"RILEY";" 785-532-9182 ";;;;
1085841;"Melinda Haynes Day Care Home";" 3319 S Millwood Ave ";"Wichita";"KS";67217;"SEDGWICK";"316-524-7333 ";;;;
1085586;"Julie C Rader Day Care Home";" 332 N Colby Ave ";"Valley Center";"KS";67147;"SEDGWICK";"316-755-0151 ";;;;
1085018;"Kalynn Miller Day Care Home";" 333 Cedar St ";"Sabetha";"KS";66534;"NEMAHA";" 785-284-0305 ";;;;
1055021;"Nancy J Menard Day Care Home";" 333 E 13Th St ";"Concordia";"KS";66901;"CLOUD";"785-243-3372 ";;;;
1084350;"Jamie Watt Day Care Home";" 3404 W 13Th St ";"Lawrence";"KS";66049;"DOUGLAS";"785-749-1433 ";;;;
1085416;"Angela L Whites Day Care Home";" 348 Columbia St ";"Augusta";"KS";67010;"BUTLER";"316-775-3504
";;;;
1084354;"Mary Arlene Potter Day Care Home";" 3504 Trail Rd ";"Lawrence";"KS";66049;"DOUGLAS";"785-842-5039 ";;;;
1085295;"Joyce Throm Day Care Home";" 3514 W 22Nd Ave ";"Emporia";"KS";66801;"LYON";" 620-342-0378 ";;;;
1085160;"Sarah Oetting Day Care Home";" 3517 Sw Atwood Ave ";"Topeka";"KS";66614;"SHAWNEE";"785-272-1261
";;;;
1084708;"Mary F Sudekum Day Care Home";" 3519 W 48Th Ter ";"Mission";"KS";66205;"Johnson";"913-403-0993 ";;;;
1085027;"Roberta L Petty Day Care Home";" 3525 Wilson Cir ";"Saint George";"KS";66535;"POTTAWATOMIE";"785-494-2809 ";;;;
1085133;"Trudy L Smith Day Care Home";" 3574 Sw Devon Ave ";"Topeka";"KS";66611;"SHAWNEE";"785-267-2346 ";;;;
1085845;"Rose Caudell Day Care Home";" 3636 W 44Th St S LOT 231 ";"Wichita";"KS";67217;"SEDGWICK";"316-524-8599 ";;;;
1054820;"Brandy Hurrelbrink Day Care Home";" 3704 Shadybrook Dr ";"Lawrence";"KS";66047;"DOUGLAS";" 785-749-0161 ";;;;
1084602;"Deborah Marie Dickerson Daycare";" 3711 Washington Ave ";"Kansas City";"KS";66102;"WYANDOTTE";"913-342-8617 ";;;;
1084607;"Shirley Dantzler Day Care Home";" 3724 Washington Ave ";"Kansas City";"KS";66102;"WYANDOTTE";"913-621-5624 ";;;;
1084355;"Mary Lou Pierce Day Care Home";" 3811 Hunters Hill Dr ";"Lawrence";"KS";66049;"DOUGLAS";"785-842-6532 ";;;;
1055123;"Joyce Thiessen Day Care Home";" 3901 N Halstead St ";"Hutchinson";"KS";67502;"RENO";"620-665-5215
";;;;
1085645;"Stacey Oxner Daycare Home";" 3901 N Saint Clair St ";"Wichita";"KS";67204;"SEDGWICK";"316-838-4178 ";;;;
1055169;"Sharon Spresser Day Care Home";" 391 2Nd St ";"Phillipsburg";"KS";67661;"PHILLIPS";"785-543-5480 ";;;;
1085861;"Theresa Lynn Lemonnier Wenzel Daycare Home";" 3911 E Skinner St ";"Wichita";"KS";67218;"SEDGWICK";"316-651-0933 ";;;;
1084946;"Jessica N Hampton Day Care Home";" 3977 Forrest Ln ";"Manhattan";"KS";66502;"RILEY";"785-539-3322 ";;;;
1085037;"Lorie A Gudenkauf Day Care";" 401 N 4Th St ";"Seneca";"KS";66538;"NEMAHA";"785-336-3783 ";;;;
1086085;"Joyce Frees Family Child Care";" 401 N Douglas Ave ";"Ellsworth";"KS";67439;"ELLSWORTH";"785-472-4358
";;;;
1085281;"Sierra Kirkpatrick Day Care Home";" 401 W Burns St ";"Walnut";"KS";66780;"CRAWFORD";"620-354-6263 ";;;;
1085385;"Susie Vestering Daycare Home";" 402 1St St ";"Andale";"KS";67001;"SEDGWICK";"316-444-2136 ";;;;
1085237;"Carolyn Kathleen McGowen Day Care Home";" 402 W State St ";"Erie";"KS";66733;"NEOSHO";"620-244-5577 ";;;;
1085995;"Erica Riedel Daycare";" 403 Maple Ave ";"Salina";"KS";67401;"SALINE";"785-404-2207 ";;;;
1085541;"Samantha A Wayman Day Care Home";" 403 N 2Nd Ave ";"Mulvane";"KS";67110;"SUMNER";"316-777-4513 ";;;;
1085544;"Celeste D Ybarra Day Care Home";" 405 Victoria Ct ";"Newton";"KS";67114;"HARVEY";"316-283-1280 ";;;;
1055201;"Nicole Mazerac Daycare Home";" 407 S Colorado Ave ";"Bucklin";"KS";67834;"FORD";"620-826-9988 ";;;;
1085454;"Kori Layne Hornback Day Care Home";" 412 Derby Hills Dr ";"Derby";"KS";67037;"SEDGWICK";"316-788-6348 ";;;;
1085344;"Brenda Marie Turner Day Care Home";" 412 E 7Th St ";"Concordia";"KS";66901;"CLOUD";"785-243-3456 ";;;;
1084419;"Tiffany Hamblin Day Care Home";" 416 S Chambery Dr ";"Olathe";"KS";66061;"JOHNSON";"913-254-0211 ";;;;
1085431;"Virlinda Hurst Day Care Home";" 416 S Sedgwick Ave ";"Burrton";"KS";67020;"HARVEY";"620-463-6323 ";;;;
1085352;"Sheila McReynolds Day Care Home";" 418 E 9Th St ";"Concordia";"KS";66901;"CLOUD";"785-243-1156 ";;;;
1054956;"Karen Hawks Day Care Home";" 4211 Se Minnesota Ave ";"Topeka";"KS";66609;"SHAWNEE";"785-267-0440 ";;;;
1085784;"Katherine C Bazzelle Day Care Home";" 423 S Martinson St ";"Wichita";"KS";67213;"SEDGWICK";"316-267-3540 ";;;;
1085809;"Kelly Lynn Reeves Day Care Home";" 4254 S Gilda St ";"Wichita";"KS";67215;"SEDGWICK";"316-554-1158 ";;;;
1085085;"Belinda Lindecrantz Day Care Home";" 428 Se 37Th St ";"Topeka";"KS";66605;"SHAWNEE";"785-266-4526 ";;;;
1084291;"Sharon D Martin Day Care";" 4300 Douglas Rd ";"Lane";"KS";66042;"FRANKLIN";"785-869-2929 ";;;;
1085897;"Sharon Marts Day Care Home";" 4314 S Greenhaven St ";"Wichita";"KS";67220;"SEDGWICK";" 316-522-5842 ";;;;
1085890;"Marquisha Owens Day Care Home";" 4409 E 27Th St N ";"Wichita";"KS";67220;"SEDGWICK";"316-689-6869 ";;;;
1084992;"DeeAnn Webb Day Care Home";" 442 E Main St ";"Meriden";"KS";66512;"JEFFERSON";"785-484-2588
";;;;
1086021;"Nancy A Larsen Day Care Home";" 445 S College Ave ";"Salina";"KS";67401;"SALINE";"785-825-1357 ";;;;
1055152;"Leslie Dawn Unrein Day Care Home";" 44th St";"Hays";"KS";67601;"ELLIS";;;;;
1054883;"Patricia J Stansbury Day Care Home";" 4517 W Harvest Ln ";"Hesston ";"KS";67062;"Johnson";"620-327-4329 ";;;;
1084543;"Tammey Lynn Voigts Daycare Home";" 4679 Eisenhower Rd ";"Ottawa";"KS";66067;"FRANKLIN";"785-242-2146 ";;;;
1084669;"Janice S Roberts Day Care Home";" 4702 Conser St ";"Shawnee";"KS";66203;"Johnson";"913-432-1592 ";;;;
1084727;"Theresa Massie Day Care Home";" 4711 W 64Th Ter ";"Prairie Village";"KS";66208;"Johnson";" 913-236-7305 ";;;;
1085150;"Lana Phelps Day Care Home";" 4718 Sw 33Rd Ter ";"Topeka";"KS";66614;"SHAWNEE";" 785-272-2851 ";;;;
1055163;"Angela Arment Day Care Home";" 477 Nebraska Ave ";"Phillipsburg";"KS";67661;"PHILLIPS";"785-543-2253 ";;;;
1085148;"Jan L Bolejack Day Care Home";" 4819 Sw 33Rd Ter ";"Topeka";"KS";66614;"SHAWNEE";" 785-273-0170 ";;;;
1085043;"Rachel Christians Home Daycare";" 4828 Se 29Th St ";"Tecumseh";"KS";66542;"SHAWNEE";"785-379-5150 ";;;;
1084818;"Carla Dawn Howe Day Care Home";" 4929 Woodstock St ";"Shawnee";"KS";66218;"Johnson";" 913-441-9561 ";;;;
1084728;"Wendy G Gray Day Care Home";" 5007 W 70Th Ter ";"Prairie Village";"KS";66208;"Johnson";"913-236-9419 ";;;;
1086044;"Valerie L Coberly Day Care Home";" 501 Sunset Dr ";"Salina";"KS";67401;"SALINE";"785-825-6970 ";;;;
1084207;"Stephanie Dawn Kurtz Day Care Home";" 502 Sibley Ct ";"Baldwin City";"KS";66006;"DOUGLAS";"785-594-2228 ";;;;
1084706;"Avea M Mahan Day Care";" 5024 Mission Rd ";"Mission";"KS";66205;"Johnson";"913-384-3805 ";;;;
1085247;"Ruth J Leritz Day Care Home";" 503 W Maple St ";"Girard";"KS";66743;"CRAWFORD";"620-724-8085 ";;;;
1085044;"Sheridan A Nickoley Day Care Home";" 5041 Se 45Th St ";"Tecumseh";"KS";66542;"SHAWNEE";"785-379-5639 ";;;;
1085432;"Kimberly Kay Henry Day Care Home";" 505 S Main St ";"Caldwell";"KS";67022;"SUMNER";"620-845-6797 ";;;;
1084304;"Nancy Jane Winchester Day Care Home";" 506 River Bend Cir ";"Lawrence";"KS";66044;"DOUGLAS";"785-842-1501 ";;;;
1055055;"Andrea C Miller Day Care Home";" 508 E 33Rd Ave ";"Winfield";"KS";67156;"COWLEY";"620-221-7184
";;;;
1055043;"Carol S Friesen Day Care Home";" 508 Michael Rd ";"Newton";"KS";67114;"HARVEY";"316-283-1561 ";;;;
1085568;"Connie L Burgardt Day Care Home";" 509 Parkway Ave ";"Pratt";"KS";67124;"PRATT";"620-672-3474 ";;;;
1085942;"Amy Layton Day Care Home";" 510 W 7Th Ave ";"Caney";"KS";67333;"MONTGOMERY";"620-879-5615
";;;;
1055198;"Shelia Dawn Eichman Day Care Home";" 512 Annette St ";"Dodge City";"KS";67801;"FORD";"620-227-3983 ";;;;
1085350;"Paula J Mendenhall Day Care Home";" 516 E 16Th St ";"Concordia";"KS";66901;"CLOUD";" 785-243-1510 ";;;;
1085499;"Leesa Samson Day Care Home";" 520 E 87Th St S ";"Haysville";"KS";67060;"SEDGWICK";"316-529-8568 ";;;;
1085068;"Betty Phelps Day Care Home";" 526 N 9Th St ";"Independence";"KS";67301;"SHAWNEE";"620-331-0825
";;;;
1085171;"Barbara A Boyles Day Care Home";" 538 Ne Lime St ";"Topeka";"KS";66616;"SHAWNEE";"785-235-1465 ";;;;
1084677;"Nancy E Alexander Day Care Home";" 5518 Farley St ";"Shawnee";"KS";66203;"Johnson";"913-722-2827 ";;;;
1054909;"Barbara J Feldkamp and Crystalyn R Koch Day Care Home";" 554 5Th Rd ";"Centralia";"KS";66415;"NEMAHA";"785-744-3428
";;;;
1054908;"Crystal L Schotte Day Care Home";" 554 5Th Rd ";"Bremen";"KS";66412;"MARSHALL";"785-744-3428 ";;;;
1084820;"Rebecca Brooks Day Care Home";" 5543 Lakeridge ";"Shawnee";"KS";66218;"Johnson";"913-422-6985 ";;;;
1085882;"Cynthia Renee Sims Day Care Home";" 558 N Brookhaven Dr ";"Wichita";"KS";67220;"SEDGWICK";"316-733-1807 ";;;;
1084940;"Doodlebug Daycare";" 5590 AP Hill Dr 1";"Fort Riley";"KS";66442;"RILEY";"(785) 784-8090";;;;
1084710;"Ann M Byrd Day Care Home";" 5617 W 98Th Ter ";"Overland Park";"KS";66207;"Johnson";"913-649-5677 ";;;;
1084625;"Suzan Denise Robinson Day Care Home";" 5631 Sutton Ave ";"Kansas City";"KS";66106;"WYANDOTTE";"913-375-1299 ";;;;
1084692;"Love and Learning Lodge";" 5706 W 74th Ter";"Overland Park";"KS";66204;"Johnson";"(913) 236-4372";;;;
1085105;"Steph A Roos Day Care Home";" 5804 Garnett St ";"Shawnee ";"KS";66203;"SHAWNEE";"913-631-4291 ";;;;
1085711;"Sheryl R Landon Day Care Home";" 5811 E Oakwood Dr ";"Wichita";"KS";67208;"SEDGWICK";" 316-681-3262 ";;;;
1055128;"Clara A Niedens Day Care Home";" 5967 Rosewood Dr ";"Great Bend";"KS";67530;"BARTON";"620-793-9371
";;;;
1054918;"Cassandra Minde Day Care";" 600 Ohio Ave ";"Holton";"KS";66436;"JACKSON";"785-364-2894 ";;;;
1084981;"Gina L Ward Day Care Home";" 601 N 15Th St ";"Marysville";"KS";66508;"MARSHALL";"785-562-5466 ";;;;
1085214;"Amy L Beck Day Care Home";" 601 S Kansas Ave ";"Chanute";"KS";66720;"NEOSHO";"620-431-4352 ";;;;
1055084;"Marilyn Hendrix Day Care Home";" 606 Elm St ";"Coffeyville";"KS";67337;"MONTGOMERY";"620-251-1259 ";;;;
1084255;"Janice C McCutcheon Day Care Home";" 606 N Elm St ";"Gardner";"KS";66030;"JOHNSON";"913-856-6013
";;;;
1085654;"Ivette Tarbutton Day Care Home";" 6108 W 38Th Ct S ";"Wichita";"KS";67205;"SEDGWICK";"316-522-8218 ";;;;
1086086;"Kerry Klein Day Care Home";" 612 Webb St ";"Ellsworth";"KS";67439;"ELLSWORTH";"785-472-4158 ";;;;
1086028;"Shelly Gary Day Care Home";" 613 Seitz Dr ";"Salina";"KS";67401;"SALINE";" 785-493-0100 ";;;;
1084414;"Sharna R Wilson Day Care Home";" 615 S Sherman St ";"Olathe";"KS";66061;"JOHNSON";"913-764-4095 ";;;;
1085447;"Elizabeth Anderson Daycare";" 621 Union Park Cir ";"Colwich";"KS";67030;"SEDGWICK";" 316-796-0205 ";;;;
1085703;"Michelle Ross Day Care Home";" 6215 E 8Th St N ";"Wichita";"KS";67208;"SEDGWICK";"316-687-6929 ";;;;
1085248;"Melissa Riebel Daycare";" 622 Pecan St ";"Humboldt";"KS";66748;"ALLEN";"620-473-8369 ";;;;
1085100;"Judy Schumaker Day Care Home";" 622 Sw Webster Ave ";"Topeka";"KS";66606;"SHAWNEE";"785-235-8239 ";;;;
1085694;"Dorothy F Rogers Day Care Home";" 636 N Old Manor Rd ";"Wichita";"KS";67208;"SEDGWICK";" 316-262-6417 ";;;;
1084675;"Lindsey Dahlin Daycare Home";" 6413 Larsen Ln ";"Shawnee";"KS";66203;"Johnson";"913-962-0716
";;;;
1084654;"Jennifer Denton Day Care Home";" 6500 Goodman Dr ";"Mission";"KS";66202;"Johnson";"913-384-9857 ";;;;
1085908;"Gloria Kiel Day Care Home";" 6529 E Danbury St ";"Wichita";"KS";67226;"SEDGWICK";" 316-744-7476 ";;;;
1085786;"Rebecca S Nelson Day Care Home";" 6547 S Marion Dr ";"Wichita";"KS";67213;"SEDGWICK";"316-529-4053
";;;;
1054903;"Patricia E Nelson Day Care Home";" 6701 W 148Th St ";"Overland Park";"KS";66223;"Johnson";"913-814-3885 ";;;;
1084665;"Gloria Kay Nutt Daycare Home";" 6800 Melrose Ln ";"Shawnee";"KS";66203;"Johnson";" 913-268-6784";;;;
1085847;"Tonya Bruner Day Care Home";" 700 W 59Th St S ";"Wichita";"KS";67217;"SEDGWICK";"316-524-0196 ";;;;
1084285;"Amy Jo Loomis Day Care Home";" 701 Walnut St ";"Lacygne";"KS";66040;"Linn";"913-757-2784
";;;;
1084803;"Anita Hayden McCoy Day Care Home";" 7015 Alden St ";"Shawnee";"KS";66216;"Johnson";"913-631-0469 ";;;;
1085373;"Andrea Marie Wilkinson Day Care Home";" 704 E St ";"Smith Center";"KS";66967;"SMITH";" 785-282-6027 ";;;;
1085478;"Sierra S Joy Day Care Home";" 704 N School St ";"Eureka";"KS";67045;"GREENWOOD";"620-583-5384
";;;;
1084887;"Patricia A Rundus Day Care Home";" 706 Chestnut St ";"Blue Rapids";"KS";66411;"MARSHALL";"785-363-7253 ";;;;
1085991;"Dawn Michele Pierce Day Care Home";" 706 Colonial Ct ";"Salina";"KS";67401;"SALINE";"785-452-9163
";;;;
1085745;"Belinda K Siemiller Day Care Home";" 7109 W 11Th St N ";"Wichita";"KS";67212;"SEDGWICK";" 316-942-7109 ";;;;
1084370;"Sherri L Spencer Day Care Home";" 711 Fletcher St ";"Mound City";"KS";66056;"LINN";"913-795-2606 ";;;;
1054861;"Rosie Garrett Day Care Home";" 711 Parallel Ave ";"Kansas City";"KS";66101;"WYANDOTTE";"913-371-1450 ";;;;
1085032;"Jennifer Louise Parrett Day Care Home";" 712 W Elm St ";"Saint Marys";"KS";66536;"POTTAWATOMIE";"785-437-2574 ";;;;
1084690;"Christine Schneier Day Care Home";" 7207 Grandview St ";"Overland Park";"KS";66204;"Johnson";"913-432-1374 ";;;;
1085123;"Kimberly Lynn White Day Care Home";" 7300 Sw Cannock Chase Rd ";"Topeka";"KS";66610;"SHAWNEE";"785-478-0115
";;;;
1084697;"Rika Anne Ryan Day Care Home";" 7336 Conser St ";"Overland Park";"KS";66204;"Johnson";"913-789-0833 ";;;;
1054870;"Iola M Lester Day Care Home";" 7405 Everett Ave ";"Kansas City";"KS";66112;"WYANDOTTE";"913-334-0877 ";;;;
1084298;"Jessica Anne Oshel Day Care";" 757 North St ";"Lawrence";"KS";66044;"DOUGLAS";" 785-856-3199 ";;;;
1084838;"Laurie A Bromley Day Care Home";" 7619 W 154Th Ter ";"Overland Park";"KS";66223;"Johnson";"913-681-6888 ";;;;
1085516;"Judy J Hageman Day Care Home";" 7678 Sw 70 St ";"Kingman";"KS";67068;"KINGMAN";"620-532-2898 ";;;;
1084701;"Tammy Weiss Day Care Home";" 7930 W 79Th St ";"Overland Park";"KS";66204;"Johnson";"913-648-4935 ";;;;
1084824;"Donna Marie Dannevik Day Care Home";" 8000 Ryckert St ";"Lenexa";"KS";66219;"Johnson";"913-322-9472 ";;;;
1084695;"Mary T Hardy Day Care Home";" 8023 England Dr ";"Overland Park";"KS";66204;"Johnson";"913-648-0381 ";;;;
1085017;"Gina Sue Frazee Daycare";" 803 Dakota St ";"Sabetha";"KS";66534;"NEMAHA";"785-284-2716 ";;;;
1086070;"Amy Rose Dearman Day Care Home";" 803 Lincoln Ave ";"Clay Center";"KS";67432;"CLAY";"785-632-6038 ";;;;
1085269;"Mary Joan Milburn Day Care Home";" 804 N Free King Hwy ";"Pittsburg";"KS";66762;"CRAWFORD";"620-231-9421 ";;;;
1055204;"Alice Ann Ledesma Group Day Care Home";" 809 N 5Th St ";"Garden City";"KS";67846;"FINNEY";"620-275-1896 ";;;;
1084381;"Deborah Jean Charbonneau Day Care Home";" 812 N Hamilton St ";"Olathe";"KS";66061;"JOHNSON";"913-829-2557 ";;;;
1085510;"Tracy Hefley Day Care Home";" 814 W Grand Ave ";"Hillsboro";"KS";67063;"MARION";"620-947-3747 ";;;;
1054924;"LoRene Marie Wille Day Care Home";" 816 Church Ave ";"Manhattan";"KS";66502;"RILEY";"785-539-7859 ";;;;
1085851;"Carolyn Curry Day Care Home";" 8203 W 96Th Ter ";"Wichita";"KS";67218;"SEDGWICK";"913-649-8747 ";;;;
1084452;"Happy Home Child Care";" 825 E Sheridan St";"Olathe";"KS";66062;"JOHNSON";"(913) 782-1115 ";;;;
1084227;"Michelle Lynn England Day Care Home";" 8250 Kickapoo St ";"De Soto";"KS";66018;"JOHNSON";"913-583-1828 ";;;;
1084234;"Barbara A Kruger Day Care Home";" 826 E 12Th St ";"Eudora";"KS";66025;"DOUGLAS";"785-542-5256
";;;;
1084531;"Katherine Denise Watkins Day Care Home";" 829 S Willow St ";"Ottawa";"KS";66067;"FRANKLIN";"785-242-2227 ";;;;
1085313;"Verla Bartholomew Day Care Home";" 830 S 16Th St ";"Burlington";"KS";66839;"COFFEY";"620-364-8209 ";;;;
1054959;"Pamela K Garrison Day Care Home";" 831 7Th St ";"Phillipsburg";"KS";67661;"SHAWNEE";"785-543-5977 ";;;;
1084694;"Marie A Graham Day Care Home";" 8312 Woodward St ";"Overland Park";"KS";66204;"Johnson";"913-649-2356 ";;;;"Monday"
1084717;"Teri A Schmidt Day Care";" 8317 Tomahawk Rd ";"Overland Park";"KS";66207;"Johnson";"913-648-5903 ";;;;
1054850;"Linda Kay Mitchell Day Care Home";" 832 S Elm St ";"Ottawa";"KS";66067;"FRANKLIN";"785-242-3811 ";;;;
1054993;"Amber Weide Day Care Home";" 833 N Jefferson Ave ";"Iola";"KS";66749;"ALLEN";"620-365-8212 ";;;;
1085175;"Regina Asher Day Care Home";" 834 Ne Kellam Ave ";"Topeka";"KS";66616;"SHAWNEE";"785-354-7399 ";;;;
1086023;"Robyn A Clark Day Care Home";" 834 Russell Ave ";"Salina";"KS";67401;"SALINE";"785-820-9571
";;;;
1084644;"Lucille Wilson Day Care Home";" 8433 Barnett Ave ";"Kansas City";"KS";66112;"WYANDOTTE";"913-334-6828
";;;;
1084716;"Sharon K Mullin Day Care Home";" 8741 Maple Dr ";"Overland Park";"KS";66207;"Johnson";" 913-341-2684 ";;;;
1084785;"Jennifer R Young Day Care Home";" 8801 Foster Ln ";"Overland Park";"KS";66214;"Johnson";"913-649-5362 ";;;;
1085649;"Alyson D Schon Day Care Home";" 8837 W Central Park Ct ";"Wichita";"KS";67205;"SEDGWICK";"316-773-5346 ";;;;
1084369;"Misty Christine Wilson Day Care Home";" 8867 Otto Ln ";"Mound City";"KS";66056;"LINN";"913-795-2417 ";;;;
1084756;"Ellen Sorour Day Care Home";" 8911 Hardy St ";"Overland Park";"KS";66212;"Johnson";"913-649-2758 ";;;;
1084773;"Suzanne Gail Alfaro Day Care Home";" 8927 Robinson St ";"Overland Park";"KS";66212;"Johnson";"913-383-2757 ";;;;
1084751;"Christine R Perlinger Day Care Home";" 8944 Farley St ";"Overland Park";"KS";66212;"Johnson";"913-894-4749 ";;;;
1085186;"Tammy A Brumbaugh Day Care Home";" 8947 Nw Topeka Blvd ";"Topeka";"KS";66617;"SHAWNEE";"785-286-0329 ";;;;
1085672;"Julieta B Mark A Appier Day Care Home";" 9006 E Skinner St ";"Wichita";"KS";67207;"SEDGWICK";"316-651-0910 ";;;;
1055174;"Peggy M Wohler Day Care Home";" 905 Hickory St ";"Victoria";"KS";67671;"ELLIS";"785-735-9280 ";;;;
1085528;"Amber Bayliff Daycare Home";" 916 Goodview St ";"Medicine Lodge";"KS";67104;"BARBER";" 620-886-3415
";;;;
1086033;"Tami Lynn Keller Daycare";" 916 S Front St ";"Salina";"KS";67401;"SALINE";"785-404-2078 ";;;;
1084795;"Frances R Cooper Day Care Home";" 9202 Greenway Ln ";"Lenexa";"KS";66215;"Johnson";"913-888-2224 ";;;;
1054888;"Janet Susan Huson Day Care Home";" 9207 W 89Th Ter ";"Overland Park";"KS";66212;"Johnson";"913-648-6937 ";;;;
1085583;"Angela Marie Girtz Day Care Home";" 9320 Hedgeapple Cir ";"Valley Center";"KS";67147;"SEDGWICK";"316-755-0729 ";;;;
1055063;"Brooke Ayala Day Care Home";" 933 N Mission Rd ";"Wichita";"KS";67206;"SEDGWICK";"316-683-5929
";;;;
1084280;"Wendy S Eaton Day Care Home";" 961 Pumpkin Ridge St ";"Gardner";"KS";66030;"JOHNSON";"913-856-4685 ";;;;
1055181;"Susan Focke Day Care Home";" 965 E 6Th St ";"Colby";"KS";67701;"THOMAS";"785-462-6625 ";;;;
1084829;"Erin R Carpenter Day Care Home";" 9728 Prairie Creek Rd ";"Lenexa";"KS";66220;"Johnson";" 913-322-6385
";;;;
1084672;"Johnna S Gonterman Day Care Home";" 9801 W 56Th Ter ";"Shawnee";"KS";66203;"Johnson";"913-384-9801 ";;;;
1084786;"Leslie Ann Wolfe Day Care Home";" 9920 Cody St ";"Overland Park";"KS";66214;"Johnson";"913-599-3661 ";;;;
1085535;"Debra L Kendrick Day Care Home";" Po Box 1202 ";"Independence";"KS";" 67301
";"SUMNER";"620-331-7209 ";;;;
1085005;"Amy Lang Day Care Home";" Po Box 383 ";"Overbrook";"KS";66524;"OSAGE";"785-665-0182 ";;;;
1055211;"Denise A Garrison Day Care Home";" Po Box 687 ";"Johnson";"KS";67855;"STANTON";"620-492-6863 ";;;;
1084901;"Brandis Childcare";"1 Hawthorne Place";"Hiawatha";"KS";66434;"BROWN";" (785) 742-2680 ";;;;
1086497;"Teddy Bear Daycare Home";"1005 N Summer St ";"Syracuse";"KS";67878;"HAMILTON";"620-384-6609 ";;;;
1051458;"First Class Preschool";"10686 SW 210th";"Douglass";"KS";67039;"BUTLER";"316-737-2476";;;;
1085305;"Playful Harts Day Care Home";"1113 Janice Street";"Emporia";"KS";66801;"LYON";" (620) 343-7718 ";;;;
1084760;"Happy Feet";"11149 W 95th St ";"Overland Park";"KS";66212;"Johnson";"913-599-3384";;;;
1084772;"Susans Day Care Home";"11517 Mastin Street";"Overland Park";"KS";66212;"Johnson";"(913) 451-5887 ";;;;
1054158;"ABC Day Care Home";"116 S Hickok Street";"Ulysses";"KS";67880;"GRANT";"(620) 356-3999";;;;
1085868;"Giggly Gaggly Tiny Tots";"1210 HARDING ST";"Wichita";"KS";67219;"SEDGWICK";"(316) 686-4772";;;;
1055153;"Rosie Redetzke Day Care Home";"1211 Motz Ave";"Hays";"KS";67601;"ELLIS";"785-621-4248";;;;
910235;"Starz Licensed Child Care";"1231 E Frontier Ln";"Olathe";"KS";;"JOHNSON";"913-390-1955 ";;;;
1054932;"Grandmas Daycare";"1245 N 14th Street";"Osage City";"KS";66523;"OSAGE";"(785) 528-4966 ";;;;
1054193;"Little Hawks Preschool";"131 Main Street";"Mound City";"KS";66056;"LINN";"(913) 795-2333";;;;
1084442;"Christys Childcare";"13105 S Trenton Street";"Olathe";"KS";66062;"JOHNSON";"(913) 558-8704";;;;
1084504;"Sharon's Childcare";"13125 W 137th Place";"Overland Park";"KS";66221;"JOHNSON";"(913) 322-1614 ";;;;
1054200;"Kids Zone Day Care Home";"1319 SW Huntoon Street";"Topeka";"KS";66605;"SHAWNEE";"(785) 235-1588";;;;
1054220;"Presbyterian Community Nursery School";"1419 Western Ave";"Wellington";"KS";67152;"SUMNER";"(620) 326-3581";;;;
1054222;"Marilyn A Beebe Day Care Home";"1421 W Forest Drive";"Olathe";"KS";66061;"JOHNSON";"(913) 210-4986";;;;
1054059;"Amita Home Day Care Home";"14406 Ballantine Lane";"Overland Park";"KS";66221;"Johnson";;;;;
1084191;"Amanda J Gibson Day Care Home";"1515 S 8th Street";"Atchison";"KS";66002;"ATCHISON";"(913) 367-3385";;;;
1086520;"First Presbyterian Child Care Center";"1551 N Western Ave";"Liberal";"KS";67901;"SEWARD";;;;;
1084513;"Trishas Day Care Home";"15583 W 154th Terrace";"Olathe";"KS";66062;"JOHNSON";"(913) 768-8995 ";;;;
1050419;"Shining Stars Daycare";"16310 W 159th Terrace";"Olathe ";"KS";66062;"JOHNSON";"(913) 829-5000";;;;
1054293;"Precious Faces Day Care Home";"1821 SE 43rd Terrace";"Topeka";"KS";66609;"SHAWNEE";"(785) 266-8707";;;;
1054297;"Pammys Day Care";"1868 N Lark Court";"Wichita";"KS";67212;"SEDGWICK";"(316) 722-1561";;;;
1050486;"Erica Marie Thomas Daycare Home";"190 Rd";"Troy";"KS";66087;"DONIPHAN";"816-752-4043";;;;
1086120;"Wiggles and Giggles Daycare";"1911 Gardenia Terrace";"Manhattan ";"KS";67460;"MCPHERSON";"(785) 587-1874";;;;
1055016;"Kountry Kids Child Care";"203 S 3rd Street";"Peabody";"KS";66866;"MARION";" (620) 382-2889 ";;;;
1054327;"First Baptist Day Care Munchkin Academy";"204 N Sherman Ave";"Liberal";"KS";67901;"SEWARD";"(620) 624-1616";;;;
1051672;"Christ Community Kids Care";"2130 S Webb Rd";"Wichita";"KS";67207;"SEDGWICK";"316-689-8361";;;;
1085608;"Cabbage Patch Day Care Home";"215 E 11th Avenue";"Winfield";"KS";67156;"COWLEY";"(620) 221-4039 ";;;;
1085935;"St Andrew Child Learning Center";"215 N Park Blvd";"Independence";"KS";67301;"MONTGOMERY";"(620) 331-2870";;;;
1086262;"Debs Discovery Day Care Home";"216 N 6th";"Sterling";"KS";67579;"RICE";;;;;
1050527;"Anointed Angels Day Care Home";"2216 N 50th Terrace";"Kansas City";"KS";66104;"WYANDOTTE";"913-707-3639";;;;
1051237;"Sweet Pea Preschool and Child Care";"223 S Sycamore";"Iola";"KS";66749;"ALLEN";"620-496-6348";;;;
1086292;"Little Angels Daycare";"227 N 3rd Street";"Dighton";"KS";67601;"ELLIS";"(620) 397-5228 ";;;;
1086490;"Little Angels Daycare";"227 N 3rd Street";"Scott City";"KS";67871;"SCOTT";"(620) 397-5228 ";;;;
955631;"Building Blocks Preschool";"234 East 7th";"Russell";"KS";67665;"RUSSELL";"785-483-2219";;;;
1085737;"Precious Moments Kidz Academy";"2390 S Erie St";"Wichita";"KS";67211;"SEDGWICK";"(316) 260-8155";;;;
1054382;"Sheridan Sports Center School Age Program";"240 San Jose";"Dodge City";"KS";67801;"FORD";"(620) 225-8157";;;;
1086405;"Dodge City Family YMCA - Camp Dodge";"240 San Jose Dr";"Dodge City";"KS";67801;"FORD";;;;;
1051065;"YMCA Prime Time-Shawnee Heights";"2410 Burton Road";"Topeka";"KS";66605;"SHAWNEE";"785-357-6766";;;;
1085811;"Teddy Bear Learning Daycare";"2446 S Yellowstone Court";"Wichita";"KS";67215;"SEDGWICK";"(316) 260-6380 ";;;;
1085905;"Building Blocks Academy Day Care Home";"2507 N Claiborn Circle";"Wichita";"KS";67226;"SEDGWICK";;;;;
1050187;"Sunflower-Hilltop Before After School Program";"2521 Inverness Drive";"Lawrence";"KS";66047;"DOUGLAS";"785-864-4940";;;;
1086271;"Bright Beginnings";"2725 Hickory St";"Hays";"KS";67601;"ELLIS";"(785) 621-4463";;;;
1085692;"Brown Day Care Home";"2737 N Poplar Street";"Wichita";"KS";67208;"SEDGWICK";"(316) 685-8458 ";;;;
1084988;"Nanas Day Care Home";"2831 S 36th St";"Kansas City";"KS";66106;"MARSHALL";"(913) 384-1514";;;;
1085704;"Ms Annies Day Care";"3009 E Conamore Street";"Wichita";"KS";67208;"SEDGWICK";"(316) 682-1931 ";;;;
1054835;"Agape House Day Care Home";"305 E Dennis Ave";"Olathe";"KS";66062;"JOHNSON";"913-764-7281";;;;
1085659;"Stepping Stones Inhome Daycare";"322 N Mount Carmel Street";"Wichita";"KS";67205;"SEDGWICK";" (316) 942-7891 ";;;;
1085132;"Sunny Patch";"3821 SE 33rd Terrace";"Topeka";"KS";66611;"SHAWNEE";"(785) 267-7059 ";;;;
1054071;"Noahs Ark Preschool";"418 N Rock St";"Minneapolis";"KS";67467;"OTTAWA";;;;;
1051471;"Little Monkeys";"424 S Derby Avenue";"Derby";"KS";67037;"BUTLER";" (316) 218-7908 ";;;;
1085816;"Creative Kidz II daycare";"4268 S Greenhaven Street";"Wichita";"KS";67216;"SEDGWICK";" (316) 522-5022 ";;;;
1051171;"YMCA Prime Time-Jay Shideler";"4948 SW Wanamaker";"Topeka";"KS";66619;"SHAWNEE";"785-862-0307";;;;
955729;"Lil Tigers Preschool";"511 Main";"Stockton";"KS";67669;"ROOKS";"(785) 623-1918";;;;
1054564;"A Mothers Love Daycare Home";"5325 Hazen Avenue";"Kansas City";"KS";66106;"WYANDOTTE";"(913) 789-9092";;;;
1085257;"Ready Set LEARN Preschool";"602 S State St";"Iola";"KS";66749;"ALLEN";;;;;
1086511;"Renees Home Day Care";"614 N Court Street";"Ulysses";"KS";67880;"GRANT";"(620) 356-5580 ";;;;
1085775;"Tiffanys Day Care Home";"6505 E 8th Street N";"Wichita";"KS";67212;"SEDGWICK";"(316) 558-0132 ";;;;
1054048;"Heartland Cornerstone";"700 Jupiter Avenue";"Salina";"KS";67401;"SALINE";"(785) 309-5000";;;;
1054645;"Learn As We Play Preschool";"710 W Waterman Ave";"Lakin";"KS";67860;"KEARNY";"(620) 355-6667";;;;
1052190;"Melindas Day Care";"719 Morphy St";"Great Bend";"KS";67530;"BARTON";"620-796-9200";;;;
1050575;"Calvarys Angels Day Care Home";"7725 Kansas Avenue";"Kansas City";"KS";66111;"WYANDOTTE";"913-334-9788";;;;
1050584;"Angies Angels Daycare Home";"8421 Barnett Avenue";"Kansas City";"KS";66112;"WYANDOTTE";"913-387-4791";;;;
1050464;"Acorns to Oaks Daycare and Preschool";"8633 W 167th St";"Stilwell";"KS";66085;"JOHNSON";"913-239-0240";;;;
1052351;"Little Angels Day Care Home";"Ave H";"Dodge City";"KS";67801;"FORD";"620-227-2449";;;;
1051902;"Crawling Caterpillars Child Care";"Beacon Hl";"Wichita";"KS";67220;"SEDGWICK";"316-260-6428";;;;
1050165;"Growing Up Green";"Bonanza";"Lawrence";"KS";66046;"DOUGLAS";"785-766-0913";;;;
1050980;"Room to Grow";"California";"Osage City";"KS";66523;"OSAGE";"785-219-1093";;;;
1052362;"We Shine Child Day Care Home";"Campus";"Dodge City";"KS";67801;"FORD";"620-225-3976";;;;
1054100;"Los Pollitos Daycare Home";"Central Avenue";"Dodge City";"KS";67801;"FORD";;;;;
1051975;"Play and Learn Daycare";"Clark";"Parsons";"KS";67357;"LABETTE";"620-778-0506";;;;
1050205;"Kids Castle Daycare";"Dakota";"Leavenworth";"KS";66048;"LEAVENWORTH";"913-758-1467";;;;
1050274;"Future Generations Day Care Home";"E Cothrell";"Olathe";"KS";66061;"JOHNSON";"913-749-3583";;;;
1054366;"Tiny Tots Daycare";"E Radio Lane";"Arkansas City";"KS";67005;"COWLEY";"(620) 442-1864";;;;
1054214;"Comstock Child Care";"E. 4th Ave.";"Winfield";"KS";67156;"COWLEY";"1-620-221-4468";;;;
1050772;"Lilly Pad";"Eicher Dr";"Shawnee";"KS";66217;"Johnson";"913-268-0938";;;;
1050233;"Imagine Drop In Childcare";"Fireside Ct Suite D";"Lawrence";"KS";66049;"DOUGLAS";"785-856-2133";;;;
1054208;"Ashwinis Day Care Home";"Gillette Street";"Overland Park";"KS";66221;"Johnson";"(913) 685-1461";;;;
1052326;"Little Mavericks Day Care Home";"Harrison Ave";"Goodland";"KS";67735;"SHERMAN";"785-890-1599";;;;
1052367;"Sandy Pickles Day Care";"Hillcrest";"Cimarron";"KS";67835;"GRAY";"620-855-3895";;;;
1050712;"Mina Zaeri Hosseinabad Group Day Care Home";"Kessler St";"Overland Park";"KS";66212;"Johnson";"913-710-1139";;;;
1054060;"Happy Explorers LLC";"Lowell Ave";"Overland Park";"KS";66204;"Johnson";;;;;
1051604;"Care A Lot Daycare";"Mound";"Winfield";"KS";67156;"COWLEY";"620-222-5060";;;;
1084632;"Jennifer LeManske Day Care Home";"N 110 Ter";"Kansas City";"KS";66109;"WYANDOTTE";"913-721-3035";;;;
1084286;"Jennys Little Lambs";"N 8th St";"Lacygne";"KS";66040;"Linn";;;;;
1051240;"Dawns Day Care";"N 9";"Neodesha";"KS";66757;"WILSON";"620-325-3917";;;;
1054389;"Kates Daycare";"N Estelle St";"Wichita";"KS";67219;"SEDGWICK";;;;;
1052096;"Mandy Johnson Day Care Home";"N Grand";"Ellsworth";"KS";67439;"ELLSWORTH";"785-531-0324";;;;
1054427;"Wallace Co Rotary Day Care Home";"N Kennedy";"Sharon Springs";"KS";67758;"WALLACE";"(785) 852-4014";;;;
1050984;"Heathers Day Care Home";"N Main";"Rossville";"KS";66533;"SHAWNEE";"785-584-6097";;;;
1052402;"Stepping Stone Child Care";"N Main St";"Lakin";"KS";67860;"KEARNY";"620-355-8011";;;;
1051553;"Michelle Lea Burch Day Care Home";"N Pine St";"Newton";"KS";67114;"HARVEY";"316-833-3398";;;;
1054742;"Lil Miracles Day Care Home";"N PINECREST ST";"Wichita";"KS";67208;"SEDGWICK";;;;;
1085958;"Busy Bee Child Care";"N Plum";"Moline";"KS";67353;"ELK";;;;;
1054478;"Micheles Daycare";"Oakwood Street";"Rose Hill";"KS";67133;"BUTLER";"(316) 260-2529";;;;
1054116;"Terris Day Care";"Pine Ave.";"Denton";"KS";66017;"DONIPHAN";;;;;
1085012;"Megan L Massey Day Care Home";"PO Box 283";"Robinson";"KS";66532;"BROWN";"(417) 776-8375";;;;
1051343;"Little Sprouts Childcare";"Pride Rd";"Concordia";"KS";66901;"CLOUD";"785-243-0884";;;;
1050550;"DeAnn Yvonne Turley Daycare Home";"S 46 St";"Kansas City";"KS";66106;"WYANDOTTE";"913-831-6907";;;;
1052422;"Carmen Mireya Baeza Day Care Home";"S Cheyenne";"Ulysses";"KS";67880;"GRANT";"620-424-2260";;;;
1054276;"Kelliz Kidz Daycare Home";"S Conley St";"Olathe";"KS";66062;"JOHNSON";;;;;
1085788;"Sonis DayCare";"S Elizabeth";"Wichita";"KS";67213;"SEDGWICK";"620-218-9280";;;;
1054175;"Debbies Day Care";"S F St";"Wellington";"KS";67152;"SUMNER";"(620) 326-5380";;;;
1052086;"Kids R Kids Daycare";"S First St";"Canton";"KS";67428;"MCPHERSON";"620-628-4340";;;;
1085735;"Open Doors Child Care";"S George Washington Dr";"Wichita";"KS";67211;"SEDGWICK";"316-821-8864";;;;
1050840;"Bern Daycare Margies Gift";"S Mathews St";"Bern";"KS";66408;"NEMAHA";"--";;;;
1051427;"Tiny Tots Group Daycare Home";"S New York";"Coldwater";"KS";67029;"COMANCHE";"620-582-2773";;;;
1050306;"Tender Hands Academy Day Care Home";"S Quail Ridge Dr";"Olathe";"KS";66061;"JOHNSON";"913-782-5889";;;;
1054654;"Little Tykes Daycare";"S St";"Atchison";"KS";66002;"ATCHISON";"(913) 367-5486";;;;
1051173;"Beckys Buttercups";"S Washington";"Fort Scott";"KS";66701;"BOURBON";"620-215-4225";;;;
1051671;"CandyLand Childcare";"S Whittier";"Wichita";"KS";67207;"SEDGWICK";"316-652-0512";;;;
1050087;"Inchworms Clubhouse Day Care Home";"Sandusky Dr";"Eudora";"KS";66025;"DOUGLAS";"785-542-3410";;;;
1054203;"The Zoo Crew LLC";"Scott Ave";"Fort Scott";"KS";66701;"BOURBON";;;;;
1051094;"Kids Rock Daycare";"SE 43rd Ter";"Topeka";"KS";66609;"SHAWNEE";"785-249-5155";;;;
1051060;"Mr Bills";"SE California Ave";"Topeka";"KS";66605;"SHAWNEE";"785-213-4670";;;;
1051051;"Grandmas Daycare and Learning";"SE Madison";"Topeka";"KS";66605;"SHAWNEE";"785-554-4717";;;;
1051273;"MeMes Daycare";"SE Quaker Rd";"Riverton";"KS";66770;"CHEROKEE";"620-304-9495";;;;
1051083;"Roots Day Care Home";"SE Rodgers St";"Topeka";"KS";66607;"SHAWNEE";"785-354-8119";;;;
1050227;"Wee Rock Daycare";"Shrine Park";"Leavenworth";"KS";66048;"LEAVENWORTH";"913-250-5598";;;;
1084619;"Alice Spears Day Care Home";"South 36th Terrace";"Kansas City";"KS";66106;"WYANDOTTE";"913-831-3582";;;;
1085138;"Brookes Home Daycare";"SW Aylesbury Ct";"Topeka";"KS";66614;"SHAWNEE";"785-608-0879";;;;
1051128;"Marolyn Qualls Day Care Home";"SW Meadow Lane";"Topeka";"KS";66614;"SHAWNEE";"785-272-0325";;;;
1054061;"Kody Bear Group Day Care Home";"Sw Webster Ave";"Topeka";"KS";66604;"SHAWNEE";;;;;
1051167;"Heavenly Melodys";"SW Windwood Lane";"Topeka";"KS";66619;"SHAWNEE";"785-250-7099";;;;
1054602;"Amys Daycare";"Terrace Court";"Newton";"KS";67114;"HARVEY";"(316) 804-4001";;;;
1052448;"Cristil E Luera Day Care Home";"Vilymaca";"Elkhart";"KS";67950;"MORTON";"620-697-4681";;;;
1054134;"Sally L Cline Day Care Home";"W 105th Street";"Overland Park";"KS";66214;"Johnson";"(913) 492-8916";;;;
1050293;"Natasha Shirey Day Care Home";"W 122 St";"Olathe";"KS";66061;"JOHNSON";"913-999-0914";;;;
1052145;"Sheryl Bradley and Sherlyn Jefferson Day Care Home";"W 12th Ave";"Hutchinson";"KS";67501;"RENO";"620-663-1911";;;;
1050167;"Karens Day Care Home";"W 27th Pl";"Lawrence";"KS";66046;"DOUGLAS";"785-840-6678";;;;
1054612;"Happy Hearts Creative Minds Inc";"W 34th St N";"Wichita";"KS";67205;"SEDGWICK";;;;;
1052280;"Lil Wildcats Day Care";"W Main #A";"Hill City";"KS";67642;"GRAHAM";"785-743-2043";;;;
1051193;"Melissa Ann Isaac Day Care Home";"W Pine";"Chanute";"KS";66720;"NEOSHO";"620-717-3603";;;;
1052312;"Care On The Corner";"W Summit";"Colby";"KS";67701;"THOMAS";"785-462-0086";;;;
1054064;"The Montessori House Day Care Home";"W. 130th Terrace";;"KS";66209;"Johnson";;;;;
1084608;"The Learning Tree";"Waverly Ave";"Kansas City";"KS";66102;"WYANDOTTE";"913-602-7396";;;;
1054038;"Color Wheel Activity Day Care";;"Manhattan";"KS";66503;"RILEY";"(785) 409-3011";;;;
914301;"Tammie's Tiny Tots";;"Haysville";"KS";67060;"SEDGWICK";"316-409-1064";;;;
914076;"Tracy Lyne Coquillette Day Care Home";;"Caney";"KS";67333;"MONTGOMERY";"620-879-2752";;;;
1084232;"Ambers Daycare";;"Eudora";"KS";66025;"DOUGLAS";"785-218-8002";;;;
912993;"Marty's Day Care Home";;"Baileyville";"KS";66404;"NEMAHA";"785-336-6623";;;;
1085999;"Janas Jungle Day Care Home";;"Salina";"KS";67401;"SALINE";"785-404-2742";;;;
913162;"Kim Geist Day Care Home";;"Hays";"KS";67601;"ELLIS";"785-639-1215";;;;
