ServiceType;ProviderName;Building;Street1;Street2;City;State;ZipCode;Building(Mailing);Street1(Mailing);Street2(Mailing);City(Mailing);State(Mailing);ZipCode(Mailing);ContactPerson;Phone;LicenseNo;LicenseName;Capacity;MinimumAge;MaximumAge;LicensePeriodStart;LicensePeriodEnd
BAS;EMMANUEL LUTHERAN CHURCH AND SCHOOLS;;520 WEST ONE ST;;KAHULUI;HI;96732;;520 WEST ONE ST;;KAHULUI;HI;96732;CARRIE DAVENPORT;808-873-6334;14389;EMMANUEL LUTHERAN SCHOOL AFTER ;49;4 years 7 months;14 years;10/01/2017;09/30/2019
BAS;AIKANE O NUUANU INC;;3055 PUIWA LN;;HONOLULU;HI;96817;;3055 PUIWA LN;;HONOLULU;HI;96817;DAYLE HOOPAI;808-595-5422;12979;AIKANE O NUUANU EARLY ARRIVAL ;200;5 years;13 years;09/01/2017;08/31/2019
BAS;FIRST ASSEMBLY OF GOD;;3400 MOANALUA RD;;HONOLULU;HI;96819;;3400 MOANALUA RD;;HONOLULU;HI;96819;BRENDA ADRES;808-836-0233;14790;CHRISTIAN ACADEMY BEFORE & AFTER ;81;5 years;15 years;01/20/2017;01/19/2019
BAS;FRIENDSHIP BIBLE CHURCH;;91-1207 RENTON RD;;EWA BEACH;HI;96706;;91-1207 RENTON RD;;EWA BEACH;HI;96706;MOLLY NORDEN;808-687-3638;13793;FRIENDSHIP CHRISTIAN SCHOOLS BEFORE ;60;5 years;12 years;05/01/2017;04/30/2019
BAS;HANAHAUOLI SCHOOL;;1922 MAKIKI ST;;HONOLULU;HI;96822;;1922 MAKIKI ST;;HONOLULU;HI;96822;JOANNE GUY;808-949-6461;13129;HANAHAUOLI SCHOOL AFTER SCHOOL ;90;4 years 8 months;13 years;05/01/2018;04/30/2020
BAS;HANALANI SCHOOLS;;94-294 ANANIA DR;;MILILANI TOWN;HI;96789;;94-294 ANANIA DR;;MILILANI TOWN;HI;96789;GWEN NAKAMOTO;808-625-0737;13818;HANALANI SCHOOLS ELEMENTARY ;150;4 years;14 years;04/01/2018;03/31/2020
BAS;HAWAIIAN MISSION ELEMENTARY & INTERMEDIATE SCHOOL;;1415 MAKIKI ST;;HONOLULU;HI;96814;;1415 MAKIKI ST;;HONOLULU;HI;96814;MICKI AKEO-NELSON;808-949-2033;13139;HAWAIIAN MISSION ELEM & INTER ;60;4 years 8 months;15 years;01/01/2016;12/31/2018
BAS;HAWAII BAPTIST ACADEMY;;21 BATES ST;;HONOLULU;HI;96817;;21 BATES ST;;HONOLULU;HI;96817;CRAIG CHANG;808-533-1106;13133;HAWAII BAPTIST ACADEMY  AFTER ;225;4 years 8 months;13 years;04/01/2018;03/31/2020
BAS;HILTON HOTELS CORP;;2005 KALIA RD;;HONOLULU;HI;96815;;2005 KALIA RD;;HONOLULU;HI;96815;BERT MOMOTOMI;808-949-4321;13151;CAMP PENGUIN;61;5 years;13 years;09/01/2017;08/31/2019
BAS;HOALA SCHOOL;;1067A CALIFORNIA AVE;;WAHIAWA;HI;96786;;1067A CALIFORNIA AVE;;WAHIAWA;HI;96786;NANCY BARRY;808-621-1898;13826;HOALA PLUS;35;4 years 8 months;12 years;10/01/2017;09/30/2019
BAS;HOLY FAMILY CATHOLIC ACADEMY;;830 MAIN ST;VALKENBURG & NIMITZ WING;HONOLULU;HI;96818;;830 MAIN ST;VALKENBURG & NIMITZ WING;HONOLULU;HI;96818;PHYLLIS GAY;808-423-9611ext 334;13832;HOLY FAMILY BEFORE & AFTER SCHOOL ;230;4 years;13 years;02/01/2017;01/31/2019
BAS;HONOLULU WALDORF SCHOOL;;350 ULUA ST;;HONOLULU;HI;96821;;350 ULUA ST;;HONOLULU;HI;96821;LAURIE;808-377-5492;13168;HONOLULU WALDORF SCHOOL AFTER ;60;6 years;14 years;01/01/2017;12/31/2018
BAS;IOLANI SCHOOL;;563 KAMOKU ST;;HONOLULU;HI;96826;;563 KAMOKU ST;;HONOLULU;HI;96826;MELISSA NAKASATO;808-943-2294;13182;IOLANI AFTER SCHOOL ENRICHMENT;180;5 years;10 years;06/01/2018;05/31/2020
BAS;MARYKNOLL SCHOOL;;1722 DOLE ST;;HONOLULU;HI;96822;;1526 ALEXANDER ST;;HONOLULU;HI;96822;DAN NAGAMI;808-952-7100;13341;MARYKNOLL SCHOOL AFTER SCHOOL ;300;4 years 8 months;13 years;12/01/2016;11/30/2018
BAS;KAWAIAHAO CHURCH CORPORATION;;872 MISSION LN;;HONOLULU;HI;96813;;872 MISSION LN;;HONOLULU;HI;96813;SHARI MARTIN;808-585-0622;13246;KAWAIAHAO CHURCH SCHOOL BEFORE & ;49;4 years;13 years;07/01/2018;06/30/2020
BAS;KIDZ KARE ENTERPRISES;;2130 HOOKIEKIE ST;;PEARL CITY;HI;96782;;94-432 PAWA WAY;;MILILANI TOWN;HI;96789;MERLE MORIKAWA;808-453-6450;14788;KIDZ KARE - MOMILANI ELEMENTARY ;100;5 years;12 years;01/01/2018;12/31/2019
BAS;KSL GRAND WAILEA RESORT HOTEL & SPA;;3850 WAILEA ALANUI DR;;WAILEA;HI;96753;;3850 WAILEA ALANUI DR;;WAILEA;HI;96753;CHARESE IRLANDEZ;808-875-1234EXT. 4577;14367;CAMP GRANDE;200;5 years;13 years;04/01/2017;03/31/2019
BAS;LE JARDIN ACADEMY;;917 KALANIANAOLE HWY;;KAILUA;HI;96734;;917 KALANIANAOLE HWY;;KAILUA;HI;96734;HEATHER TUCKER;808-261-0707EXT. 1920;14592;LE JARDIN WINDWARD OAHU ACADEMY ;160;5 years;13 years;08/16/2017;08/15/2019
BAS;MANOA VALLEY CHURCH;;2728 HUAPALA ST;;HONOLULU;HI;96822;;2728 HUAPALA ST;;HONOLULU;HI;96822;JEWELA CAMPOS;808-988-3271EXT. 230;13331;MANOA VALLEY CHURCH AFTER SCHOOL ;130;4 years 8 months;13 years;11/01/2017;10/31/2019
BAS;OUR LADY OF GOOD COUNSEL CHURCH;;1530 HOOLANA ST;;PEARL CITY;HI;96782;;1530 HOOLANA ST;;PEARL CITY;HI;96782;CINDY OLASO;808-455-4533;14058;OUR LADY OF GOOD COUNSEL MORNING ;58;4 years 9 months;13 years;02/17/2018;02/16/2020
BAS;OUR LADY OF PERPETUAL HELP SCHOOL;;91-1010 NORTH RD;;EWA BEACH;HI;96706;;91-1010 NORTH RD;;EWA BEACH;HI;96706;DAVILYN AH CHICK;808-689-0474;14060;OUR LADY OF PERPETUAL HELP BEFORE & ;50;4 years 8 months;14 years;05/20/2017;05/19/2019
BAS;OUR SAVIOR LUTHERAN CHURCH;;98-1098 MOANALUA RD;;AIEA;HI;96701;;98-1098 MOANALUA RD;;AIEA;HI;96701;BETH YEE;808-488-0000;14062;OUR SAVIOR LUTHERAN BEFORE & AFTER ;70;4 years 9 months;15 years;12/01/2017;11/30/2019
BAS;THE CHILDRENS HOUSE;;1840 KOMO MAI DR;;PEARL CITY;HI;96782;;1840 KOMO MAI DR;;PEARL CITY;HI;96782;TODD LOS BANOS;808-455-4131;13695;THE CHILDRENS HOUSE BEFORE & AFTER ;210;4 years 9 months;12 years;02/23/2018;02/22/2020
BAS;TRINITY LUTHERAN CHURCH;;1611 CALIFORNIA AVE;;WAHIAWA;HI;96786;;1611 CALIFORNIA AVE;;WAHIAWA;HI;96786;CORISSA SHEETS;808-621-6033;15378;TRINITY LUTHERAN BSC & ASC;60;4 years 8 months;15 years;03/21/2018;03/20/2020
BAS;VARIETY SCHOOL OF HAWAII;;710 PALEKAUA ST;;HONOLULU;HI;96816;;710 PALEKAUA ST;;HONOLULU;HI;96816;JOLENE CHONGCHUA;808-732-2835;13645;VARIETY SCHOOL OF HAWAII AFTER ;60;4 years 8 months;14 years;02/01/2017;01/31/2019
BAS;PUNAHOU SCHOOL;;1601 PUNAHOU ST;;HONOLULU;HI;96822;;1601 PUNAHOU ST;;HONOLULU;HI;96822;LINDA WEBB;808-944-5826;13508;PUNAHOU SCHOOL AFTER SCHOOL CARE;335;5 years;13 years;10/01/2016;09/30/2018
BAS;SEAGULL SCHOOLS INC;MAUNA LANI BAY HOTEL;68-1400 MAUNA LANI DRIVE;;KAMUELA;HI;96743;MAUNA LANI BAY HOTEL;68-1400 MAUNA LANI DRIVE;;KAMUELA;HI;96743;PHONE AT CAMP MAUNA LANI;808-885-1455;14745;CAMP MAUNA LANI;49;5 years;13 years;01/21/2017;01/20/2019
BAS;ST ANDREWS PRIORY SCHOOL;;224 QUEEN EMMA SQ;;HONOLULU;HI;96813;;224 QUEEN EMMA SQ;;HONOLULU;HI;96813;SANDY SOUZA;808-532-2421;14854;ST ANDREWS SCHOOL AFTER SCHOOL ;150;4 years 8 months;12 years;12/01/2016;11/30/2018
BAS;ST ANTHONY PARRISH SCHOOL;;148 MAKAWAO ST;;KAILUA;HI;96734;;148 MAKAWAO ST;;KAILUA;HI;96734;BRIDGET OLSEN;808-261-3331;13580;ST ANTHONY SCHOOL AFTER SCHOOL ;60;4 years 8 months;15 years;06/01/2018;05/31/2020
BAS;ST CATHERINE PRESCHOOL;;5021 KAWAIHAU RD;;KAPAA;HI;96746;;5021 KAWAIHAU RD;;KAPAA;HI;96746;BRITT COCUMELLI;808-822-4212;15374;ST CATHERINE AFTER SCHOOL PROGRAM;40;4 years 8 months;13 years;06/30/2018;06/29/2019
BAS;ST JOSEPH SCHOOL;;94-651 FARRINGTON HWY;;WAIPAHU;HI;96797;;94-651 FARRINGTON HWY;;WAIPAHU;HI;96797;BEVERLY SANDOBAL;808-677-4475;14158;ST JOSEPH SCHOOL BEFORE & AFTER ;60;4 years 8 months;14 years;10/01/2017;09/30/2019
BAS;SAINT MARK LUTHERAN CHURCH AND SCHOOL;;45-725 KAMEHAMEHA HWY;;KANEOHE;HI;96744;;45-725 KAMEHAMEHA HWY;;KANEOHE;HI;96744;DAVID GAUDI;808-247-5589;14159;SAINT MARK LUTHERAN SCHOOL BEFORE ;80;4 years 8 months;13 years;09/01/2016;08/31/2018
BAS;SAINT MICHAEL SCHOOL;;67-340 HAONA ST;;WAIALUA;HI;96791;;67-340 HAONA ST;;WAIALUA;HI;96791;ELAINE;808-637-7772X200;14161;SAINT MICHAEL'S AFTER SCHOOL CARE ;30;5 years;14 years;01/01/2017;12/31/2018
BAS;ST PATRICK SCHOOL;;3320 HARDING AVE;;HONOLULU;HI;96816;;3320 HARDING AVE;;HONOLULU;HI;96816;SR. ANNE CLARE DECOSTA;808-734-8979;13590;ST PATRICK MORNING CARE/AFTER ;120;4 years 8 months;14 years;03/01/2018;02/29/2020
BAS;WAOLANI JUDD NAZARENE SCHOOL;;408 NORTH JUDD ST;;HONOLULU;HI;96817;;408 NORTH JUDD ST;;HONOLULU;HI;96817;CINDEE ENOS;808-531-5251;13657;WAOLANI JUDD NAZARENE SCHOOL ;120;4 years 8 months;16 years;10/01/2017;09/30/2019
BAS;WESLEY CHILDRENS PROGRAMS;;1350 HUNAKAI ST;;HONOLULU;HI;96816;;1350 HUNAKAI ST;;HONOLULU;HI;96816;BILLY HENSON;808-732-3273;13661;WESLEY CHILDRENS PROGRAMS AFTER ;80;4 years;13 years;06/01/2017;05/31/2019
BAS;E MAKA'ALA SCHOOL;;440 W. LANIKAULA STREET;;HILO;HI;96720;;440 W. LANIKAULA STREET;;HILO;HI;96720;LYNDELL LINDSEY;808-961-3633;15111;E MAKA'ALA AFTERSCHOOL PROGRAM;24;4 years 8 months;10 years;06/05/2017;06/04/2019
BAS;FOUNDATIONS FOR FAMILIES;;98-450 HOOKANIKE ST;;PEARL CITY;HI;96782;;PO BOX 1554;;AIEA;HI;96701;JODIE MATSUDA;808-216-1308;15280;EARLY MORNING CARE - WAIAU ;40;4 years 8 months;13 years;01/01/2017;12/31/2018
BAS;FOUNDATIONS FOR FAMILIES;;98-825 MOANALUA RD;;AIEA;HI;96701;;P.O. BOX 1554;;AIEA;HI;96701;JODIE M MATSUDA;808-216-1308;14666;EARLY MORNING CARE - WAIMALU ;40;4 years 8 months;13 years;01/01/2017;12/31/2018
BAS;FOUNDATIONS FOR FAMILIES;;98-940 MOANALUA RD;;AIEA;HI;96701;;P.O. BOX 1554;;AIEA;HI;96701;JODIE MATSUDA;808-216-1308;14667;EARLY MORNING CARE - PEARL RIDGE ;60;4 years 8 months;13 years;01/01/2017;12/31/2018
BAS;HAILI CHRISTIAN SCHOOL;;190 ULULANI STREET;;HILO;HI;96720;;190 ULULANI STREET;;HILO;HI;96720;CHARLENE KAMAU;808-961-5026;14753;HAILI CHRISTIAN AFTERSCHOOL AND ;60;4 years 8 months;13 years;08/18/2017;08/17/2018
BAS;HAWAII PREPARATORY ACADEMY;HPA LOWER CAMPUS;651274 KAWAIHAE ROAD;;KAMUELA;HI;96743;;651692 KOHALA MOUNTAIN RD;;KAMUELA;HI;96743;DEE WALKER;808-885-2545;14742;HAWAII PREPARATORY ACADEMY AFTER ;40;5 years;13 years;10/30/2017;10/29/2019
BAS;MAPS ORCHID HOTELL LLC;MAPS ORCHID HOTEL, HAWAII;ONE NORTH KANIKU DRIVE;;KAMUELA;HI;96743;MAPS ORCHID HOTEL, HAWAII;ONE NORTH KANIKU DRIVE;;KAMUELA;HI;96743;ONA HINDS;808-887-7432;14739;KEIKI ALOHA ADVENTURE;15;5 years;13 years;06/21/2018;06/20/2020
BAS;KANEOHE CHURCH OF THE NAZARENE;;45-232 PUAAE RD;;KANEOHE;HI;96744;;P O BOX  1633;;KANEOHE;HI;96744;KAY HISHINUMA;808-235-8787;14222;WINDWARD NAZARENE ACADEMY ;100;5 years;15 years;10/01/2017;09/30/2019
BAS;KALIHI UNION CHURCH;KALIHI UNION CHURCH;2214 NORTH KING ST;;HONOLULU;HI;96819;;2214 NORTH KING ST;;HONOLULU;HI;96819;CATHERINE KAWAMURA;808-392-6718;13217;KALIHI UNION CHURCH CHILDREN'S ;110;5 years;13 years;12/01/2017;11/30/2019
BAS;FOH HOSPITALITY LLC;;6 KAI ALA DRIVE;;LAHAINA;HI;96761;;6 KAI ALA DRIVE;;LAHAINA;HI;96761;MELISSA NAEOLE;808-667-3473;15260;WESTIN KAANAPALI OCEAN RESORT ;49;5 years;13 years;04/01/2017;03/31/2019
BAS;HOLY NATIVITY SCHOOL;;5286 KALANIANAOLE HWY;;HONOLULU;HI;96821;;5286 KALANIANAOLE HWY;;HONOLULU;HI;96821;TIM SPURRIER;808-373-3232;15722;HOLY NATIVITY SCHOOL BEFORE AND ;41;4 years 8 months;13 years;02/01/2017;01/31/2019
BAS;HUALALAI INVESTORS, LLC;FOUR SEASONS RESORT;HUALALAI;72100 KAUPULEHU DRIVE;KAILUA-KONA;HI;96740;FOUR SEASONS RESORT;HUALALAI;PO BOX 1269;KAILUA-KONA;HI;96745;ROBYN SCOTT;808-325-8224;15716;KIDS FOR ALL SEASONS;34;5 years;13 years;06/22/2017;06/21/2019
BAS;PEARL HARBOR CHRISTIAN ACADEMY;;94-1044 WAIPIO UKA ST;;WAIPAHU;HI;96797;;94-1044 WAIPIO UKA ST;;WAIPAHU;HI;96797;CAROLINA WILLIAMS;808-678-3997;15995;PEARL HARBOR CHRISTIAN ACADEMY ;48;5 years;14 years;09/04/2016;09/03/2018
BAS;KIDZ KARE ENTERPRISES;;1090 WAIMANO HOME RD;;PEARL CITY;HI;96782;;94-432 PAWA WAY;;MILILANI TOWN;HI;96789;MERLE MORIKAWA;808-453-6450;14789;KIDZ KARE - PEARL CITY ELEMENTARY ;300;5 years;12 years;01/01/2018;12/31/2019
BAS;MONTESSORI COMMUNITY SCHOOL;;1239 NEHOA ST;;HONOLULU;HI;96822;;1239 NEHOA ST;;HONOLULU;HI;96822;KATHY SHIRAKAWA;808-522-0244;13376;MONTESSORI COMMUNITY SCHOOL ;80;5 years 6 months;13 years;05/03/2018;05/02/2020
BAS;ST ANTHONY'S CHURCH;;1627 A MILL ST;;WAILUKU;HI;96793;;1627 A MILL ST;;WAILUKU;HI;96793;RANA BOONE, PRINCIPAL;808-244-4976;14537;ST ANTHONY SCHOOL AFTER SCHOOL ;60;5 years;13 years;02/01/2017;01/31/2019
BAS;KINOOLE BAPTIST CHURCH ASP;;1815 KINOOLE STREET;;HILO;HI;96720;;1815 KINOOLE STREET;;HILO;HI;96720;DENISE DRAKE;808-959-8012;14754;KINOOLE BAPTIST ENRICHMENT ;60;4 years 8 months;14 years;07/01/2017;06/30/2019
BAS;WAILUKU HONGWANJI MISSION;;1828 VINEYARD ST;;WAILUKU;HI;96793;;1828 VINEYARD ST;;WAILUKU;HI;96793;TANYA ITO-SHIMA;808-244-9252;15392;WAILUKU HONGWANJI MISSION SUMMER ;120;5 years;13 years;07/01/2017;06/30/2019
BAS;KIDZ KARE ENTERPRISES;;1419 WAIMANO HOME RD;;PEARL CITY;HI;96782;;94-432 PAWA WAY;;MILILANI TOWN;HI;96789;MERLE MORIKAWA;808-453-6470EXT. 232;15464;KIDZ KARE - PEARL CITY HIGHLANDS ;60;4 years 8 months;12 years;07/28/2016;07/27/2018
BAS;MID-PACIFIC INSTITUTE;;2445 KAALA ST;;HONOLULU;HI;96822;;2445 KAALA ST;;HONOLULU;HI;96822;EDNA HUSSEY;808-441-3800;15477;MIDPACIFIC INSTITUTE ELEMENTARY ;100;4 years 8 months;12 years;12/01/2017;11/30/2019
BAS;ISLAND SCHOOL NA PUA KEIKI;;31875 KAUMUALII HWY;;LIHUE;HI;96766;;31875 KAUMUALII HWY;;LIHUE;HI;96766;KATIE MAGOUN;808-246-0233;15565;ISLAND SCHOOL DO DROP INN;24;4 years 8 months;12 years;01/31/2017;01/30/2019
BAS;HYATT CORPORATION;;200 NOHEA KAI DRIVE;;LAHAINA;HI;96761;;200 NOHEA KAI DRIVE;;LAHAINA;HI;96761;"NATHAN ""LANCE"" NANOD";808-661-1234;16630;CAMP HYATT;20;5 years;13 years;02/01/2018;01/31/2020
BAS;HONPA HONGWANJI HAWAII BETSUIN;;1728 PALI HWY;;HONOLULU;HI;96813;;1728 PALI HWY;;HONOLULU;HI;96813;THEODORA YAGI;808-532-0522;15606;HONGWANJI MISSION SCHOOL BEFORE ;300;4 years 8 months;13 years;06/06/2017;06/05/2019
BAS;SOTO ACADEMY;;1708 NUUANU AVENUE;101 ,103, 104,;HONOLULU;HI;96817;;1708 NUUANU AVE;;HONOLULU;HI;96817;ROSE ANN NAKAMOTO;808-533-0452;15134;SOTO ACADEMY BEFORE SCHOOL CARE ;100;4 years 8 months;13 years;03/01/2017;02/28/2019
BAS;ST JOHN VIANNEY SCHOOL;;940 KEOLU DR;;KAILUA;HI;96734;;940 KEOLU DR;;KAILUA;HI;96734;CARYN DEMELLO;808-261-4651;13584;ST JOHN VIANNEY SCHOOL BEFORE AND ;75;4 years 8 months;15 years;11/28/2016;11/27/2018
BAS;THE LEARNING CASA LLC;;3155 MANOA RD;30;HONOLULU;HI;96822;;PO BOX 62233;;HONOLULU;HI;96839;CHRISTINE TANIMOTO;808-781-7468;16697;THE LEARNING CASA LLC MANOA ;40;4 years 8 months;12 years;10/01/2016;03/31/2019
BAS;WESTIN MAUI CORPORATION;;2365 KAANAPALI PARKWAY;;LAHAINA;HI;96761;;2365 KAANAPALI PARKWAY;;LAHAINA;HI;96761;JOE STOHLMANN;808-667-2525EXT2470;16657;WESTIN FAMILY KIDS CLUB;30;5 years;13 years;08/01/2017;07/31/2019
BAS;FAIRMONT HOTELS & RESORTS;;4100 WAILEA ALANUI DR;WAILEA;KIHEI;HI;96753;;4100 WAILEA ALANUI DR;WAILEA;KIHEI;HI;96753;BONNEY ESBENSEN;808-875-4100;16429;FAIRMONT KEA LANI MAUI KEIKI LANI;33;5 years;13 years;03/01/2017;02/28/2019
BAS;DORIS TODD CHRISTIAN ACADEMY;;519 BALDWIN AVENUE;;PAIA;HI;96779;;519 BALDWIN AVENUE;;PAIA;HI;96779;CAROLYN MOORE;808-579-9237;16056;DORIS TODD CHRISTIAN ACADEMY;40;5 years;15 years;12/01/2017;11/30/2019
BAS;MOILIILI COMMUNITY CENTER;;2535 S KING ST;;HONOLULU;HI;96826;;2535 S KING ST;;HONOLULU;HI;96826;BRENDA NAKAMURA;808-955-1555;13368;MOILIILI COMMUNITY CENTER;140;4 years 7 months;14 years;06/01/2018;05/31/2020
BAS;NEW HOPE LEEWARD;;480 KAMOKILA BLVD;;KAPOLEI;HI;96707;;94-050 FARRINGTON HWY;C-2;WAIPAHU;HI;96797;KAREN MALUO;808-678-3776;17086;NEW HOPE CHRISTIAN SCHOOL BEFORE & ;125;5 years;13 years;08/01/2017;07/31/2019
BAS;DISNEY VACATION CLUB HAWAII MANAGEMENT COMPANY, LLC;;92-1185  ALIINUI DR;;KAPOLEI;HI;96707;ATTN: OLIVIA HO;92-1185  ALIINUI DR;;KAPOLEI;HI;96707;OLIVIA HO;808-674-6944;16915;DISNEY'S AUNTY'S BEACH HOUSE BEFORE ;90;6 years;13 years;08/18/2017;08/17/2018
BAS;HALEAKALA WALDORF SCHOOL;;4160 LOWER KULA ROAD;;KULA;HI;96790;;4160 LOWER KULA ROAD;;KULA;HI;96790;PAUL LEVINSON;808-878-2511;16871;HALEAKALA WALDORF AFTER SCHOOL ;40;5 years;14 years;05/01/2017;04/30/2019
BAS;WAILEA BEACH RESORT;;3700 WAILEA ALANUI DRIVE;WAILEA;KIHEI;HI;96753;;3700 WAILEA ALANUI DRIVE;WAILEA;KIHEI;HI;96753;EDWARD TOMLIN;808-874-7801;17566;WAILEA BEACH RESORT KOLOHE HUT;35;5 years;13 years;05/01/2018;04/30/2019
BAS;HYATT CORPORATION;;3550 WAILEA ALANUI DRIVE;WAILEA;KIHEI;HI;96753;;3550 WAILEA ALANUI DRIVE;WAILEA;KIHEI;HI;96753;ALLISON YULO;808-879-1234EXT. 4835;17407;HUB 808 AT ANDAZ MAUI AT WAILEA;27;5 years;13 years;09/01/2017;08/31/2018
BAS;FOH HOSPITALITY LLC;;45 KAI MALINA PARKWAY;WESTIN NANEA OCEAN VILLAS;LAHAINA;HI;96761;;45 KAI MALINA PARKWAY;WESTIN NANEA OCEAN VILLAS;LAHAINA;HI;96761;BRYAN LARSON;808-662-3300;17591;WESTIN NANEA FAMILY KIDS CLUB;44;5 years;13 years;07/01/2018;02/28/2019
BAS;MONTESSORI SCHOOL OF MAUI INC;;2933 BALDWIN AVE;;MAKAWAO;HI;96768;;2933 BALDWIN AVE;;MAKAWAO;HI;96768;ERIC DUSTMAN;808-573-0374;14447;MONTESSORI SCHOOL OF MAUI BEFORE ;60;5 years;14 years;02/01/2018;11/30/2018
BAS;ST ANNS CHURCH;;46-125 HAIKU RD;;KANEOHE;HI;96744;;46-125 HAIKU RD;;KANEOHE;HI;96744;MANDY THRONAS-BROWN;808-247-3092;16705;ST ANNS SCHOOL EXTENDED DAY ;120;5 years 6 months;15 years;10/01/2017;09/30/2019
BAS;LANAI RESORTS, LLC DBA PULAMA LANAI;;1 MANELE BAY ROAD;;LANAI CITY;HI;96763;;PO BOX 631380;;LANAI CITY;HI;96763;PAMELA HABAN;808-565-2398;17443;FOUR SEASONS RESORT LANAI KIDS FOR ;49;5 years;13 years;10/01/2017;10/31/2018
BAS;RITZ CARLTON HOTEL;;ONE RITZ CARLTON DRIVE;;LAHAINA;HI;96761;;ONE RITZ CARLTON DRIVE;;LAHAINA;HI;96761;CATHERINE RAPANOTTI;808-665-7292;17445;AMBASSADORS OF THE ENVIRONMENT;42;5 years;15 years;03/01/2018;02/28/2020
BAS;HONPA HONGWANJI HILO BETSUIN;;398 KILAUEA AVENUE;;HILO;HI;96720;;398 KILAUEA AVENUE;;HILO;HI;96720;MICHELLE KITAGAWA;808-935-1857;17572;HILO HONGWANJI SUMMER PLAY AND ;65;5 years;13 years;06/01/2018;05/31/2019
BAS;FOUR SEASONS KIDS FOR ALL SEASONS;;3900 WAILEA ALANUI DR;;KIHEI;HI;96753;;3900 WAILEA ALANUI DR;;KIHEI;HI;96753;BETH REGER;808-874-8000X2622;17475;FOUR SEASONS RESORT KIDS FOR ALL ;40;5 years;13 years;08/01/2017;07/31/2019
BAS;FOUR SEASONS CAMP KOHOLA AT THE HIDEAWAY;;92-1001 OLANI ST;;KAPOLEI;HI;96707;;92-1001 OLANI ST;;KAPOLEI;HI;96707;OWEITA GUNDAKER;808-679-3225;17471;CAMP KOHOLA AT THE HIDEAWAY;25;5 years;12 years;09/08/2017;09/07/2018
BAS;MAUNA KEA RESORT, LLC;;62-100 MAUNA KEA BEACH DR;;KAMUELA;HI;96743;;62-100 MAUNA KEA BEACH DR;;KAMUELA;HI;96743;GRAYDEN HAIKELLY;808-882-5774;17478;MAUNA KEA KEIKI CLUB;46;5 years;13 years;12/01/2017;11/30/2018
BAS;ST JOSEPH SCHOOL;;999 ULULANI STREET;;HILO;HI;96720;;1000 ULULANI STREET;;HILO;HI;96720;THERESA REVELL;808-935-4935;17178;ST. JOSEPH SCHOOL-AFTER SCHOOL ;49;4 years 8 months;13 years;01/28/2018;01/27/2020
BAS;SEEQS;;2705 KAIMUKI AVENUE;;HONOLULU;HI;96816;;2705 KAIMUKI AVENUE;;HONOLULU;HI;96816;BUFFY CUSHMAN PATZ;808-677-3377;17391;SEEQS BEFORE & AFTER SCHOOL ;49;7 years;14 years;10/07/2016;10/06/2017
BAS;KA WAIHONA O KA NA' AUAO;;89-195 FARRINGTON HWY;;WAIANAE;HI;96792;;89-195 FARRINGTON HWY;;WAIANAE;HI;96792;ALVIN N. PARKER;808-620-9030;17347;KA WAIHONA O KA NA'AUAO PUBLIC ;80;4 years 8 months;15 years;07/29/2017;07/28/2018
BAS;KAWAIKINI CHARTER SCHOOL;;31821 J KAUMUALII HWY;;LIHUE;HI;96766;;31821 J KAUMUALII HWY;;LIHUE;HI;96766;TERRI RUSSELL;808-346-8813;17355;KAWAIKINI NEW CENTURY PUBLIC ;80;5 years;17 years;02/01/2018;11/17/2018
BAS;INNOVATIONS PUBLIC CHARTER SCHOOL;;755815 QUEEN KAAHUMANU HW;;KAILUA-KONA;HI;96740;;755815 QUEEN KAAHUMANU HW;;KAILUA-KONA;HI;96740;"LEE ""JULIE"" NELSON";808-331-3130;17356;INNOVATIONS PUBLIC CHARTER SCHOOL ;60;5 years;13 years;06/30/2018;06/29/2019
BAS;KONA PACIFIC CHARTER SCHOOL;;79-7595 MAMALAHOA HIGHWAY;;KEALAKEKUA;HI;96750;;PO BOX 115;;KEALAKEKUA;HI;96750;MARIAH MANN;808-322-4900;17362;KONA PACIFIC CHARTER AFTERCARE ;60;5 years 2 months;14 years;05/26/2018;05/25/2019
BAS;WAIALAE ELEMENTARY PUBLIC CHARTER SCHOOL;;1045 19TH AVENUE;;HONOLULU;HI;96816;;1045 19TH AVENUE;;HONOLULU;HI;96816;MICHAEL KANEMOTO;808-735-6248;17382;WAIALAE ELEMENTARY PUBLIC CHARTER ;350;5 years;12 years;05/04/2018;05/03/2019
BAS;MAKUA LANI CHRISTIAN ACADEMY;MAKUA LANI ACADEMY;LOWER CAMPUS;74-4907 PALANI ROAD;KAILUA-KONA;HI;96740;MAKUA LANI ACADEMY;PO BOX 1179;;KAILUA-KONA;HI;96745;NANCY BEGLEY;808-329-3093;17232;MAKUA LANI CHRISTIAN ACADEMY ;39;4 years 8 months;14 years;06/11/2018;06/10/2020
BAS;MARIA LANAKILA CHURCH;;712 WAINEE STREET;;LAHAINA;HI;96761;;239 DICKENSON STREET;;LAHAINA;HI;96761;DR. MIGUEL SOLIS;808-661-4720;17637;SACRED HEARTS SCHOOL AFTERCARE ;49;5 years;14 years;02/01/2018;10/31/2018
BAS;LIHUE HONGWANJI PRESCHOOL;;33560B KUHIO HWY;;LIHUE;HI;96766;;33560B KUHIO HWY;;LIHUE;HI;96766;SANDRA FJUJIMOTO;808-245-7857;15577;LIHUE HONGWANJI AFTERSCHOOL ;40;5 years;13 years;06/16/2017;06/15/2019
BAS;TRINITY CHRISTIAN CHURCH;;875 AULOA RD;;KAILUA;HI;96734;;875 AULOA RD;;KAILUA;HI;96734;LINDA KAWAKAMI;808-262-8501;13637;TRINITY CHRISTIAN SCHOOL BEFORE & ;84;4 years 8 months;16 years;12/01/2017;11/30/2019
BAS;HAWAII CONFERENCE OF SEVENTH DAY ADVENTISTS;;261 SOUTH PUUNENE AVENUE;;KAHULUI;HI;96732;;261 SOUTH PUUNENE AVENUE;;KAHULUI;HI;96732;JENNIFER TOMITA;808-793-2645;17665;MAUI ADVENTIST PRE ELEMENTARY ;24;5 years;13 years;06/08/2018;05/31/2019
BAS;MANOA JAPANESE LANGUAGE SCHOOL;;2804 EAST MANOA RD;;HONOLULU;HI;96822;;2804 EAST MANOA RD;;HONOLULU;HI;96822;GAYE OSHIRO;808-988-2602;13328;MANOA JAPANESE LANGUAGE SCHOOL ;92;5 years;12 years;02/01/2018;01/31/2020
BAS;FRIENDS OF THE FUTURE;KEALAKEHE HIGH SCHOOL;745000 PUOHULIHULI STREET;;KAILUA-KONA;HI;96740;C/O LILINOE GRACE;PO BOX 394;;HOLUALOA;HI;96725;;;17652;ALOHA MAP SUMMER PROGRAM;235;4 years 8 months;18 years;06/01/2018;05/31/2019
BAS;WINDWARD ADVENTIST SCHOOL;;160 MOOKUA ST;;KAILUA;HI;96734;;160 MOOKUA ST;;KAILUA;HI;96734;FERNANDO LISTA;808-261-0565;13665;HAWAIIAN MISSION ACADEMY ;20;4 years 8 months;15 years;10/01/2016;09/30/2018
BAS;MALAMALAMA WALDORF SCHOOL;;15-1834 MAKUU DRIVE;;KEAAU;HI;96749;;HC 3 BOX 13068;;KEAAU;HI;96749;ALLYSON ANTHONY;808-982-7701;14749;MALAMALAMA WALDORF AFTER SCHOOL ;40;5 years;13 years;03/01/2017;02/28/2019
FCC;CRIVELLO, TARITA S;;;;KAILUA;HI;96734;;;;KAILUA;HI;96734;;808-262-6133;13065;TARITA AND ROWELL CRIVELLO;6;6 weeks;13 years;06/01/2017;05/31/2019
FCC;DAVIS, LOVENA U;;;;KANEOHE;HI;96744;;;;KANEOHE;HI;96744;;808-247-3401;13763;LOVENA AND CHARLES DAVIS;6;1 day;6 years;10/01/2017;09/30/2019
FCC;LEECOSTA, WENDY;;;;PUKALANI;HI;96768;;;;PUKALANI;HI;96768;;808-572-1033;14380;WENDY & DAN COSTA;6;3 years;6 years 6 months;08/01/2016;07/31/2018
FCC;GIBO, LEATRICE K;;;;HONOLULU;HI;96816;;;;HONOLULU;HI;96816;;808-734-2624;13111;LEATRICE GIBO;6;1 year;12 years;06/01/2017;05/31/2019
FCC;GOMES, PAMELA M;;;;KAILUA;HI;96734;;;;KAILUA;HI;96734;;808-262-2157;13114;PAMELA AND KEVIN GOMES;6;1 day;14 years;08/01/2017;07/31/2019
FCC;CAMPBELL, SHAROLYN N;;;;KANEOHE;HI;96744;;;;KANEOHE;HI;96744;;808-247-3794;13813;SHAROLYN & ADAM CAMPBELL;6;1 day;12 years;07/01/2017;06/30/2019
FCC;KAAHUI, CHRISTINE M;;;;KIHEI;HI;96753;;;;KIHEI;HI;96753;;808-990-7531;14395;CHRISTINE KAAHUI;6;2 months;13 years;07/01/2017;06/30/2019
FCC;PAA, KELLY J;;;;HAIKU;HI;96708;;;;HAIKU;HI;96708;;808-573-5923;14795;KELLY & EDWARD PAA;6;1 year;6 years;12/01/2016;11/30/2018
FCC;MCPHERSON, KIMBERLIE R;;;;KIHEI;HI;96753;;PO BOX 2;;KIHEI;HI;96753;;808-874-5367;14438;KIMBERLIE & MICHAEL MCPHERSON;6;2 years 6 months;14 years;07/01/2017;06/30/2019
FCC;MORITA, CHERYL R;;;;HONOLULU;HI;96818;;;;HONOLULU;HI;96818;;808-423-8881;13379;CHERYL & MIKE MORITA;6;1 day;5 years;07/05/2018;07/04/2020
FCC;KATAHIRA, JANE M;;;;HONOLULU;HI;96817;;;;HONOLULU;HI;96817;;808-294-3212;13244;JANE & ROY KATAHIRA;6;1 month;12 years;05/01/2017;04/30/2019
FCC;LAGAMO, ARLETIE A;;;;KAPOLEI;HI;96707;;;;KAPOLEI;HI;96707;;808-672-4328;13912;ARLETIE & ROMEO LAGAMO;6;2 months;6 years;08/01/2017;07/31/2019
FCC;LEASAU, CLARA M;;;;KOLOA;HI;96756;;PO BOX 1173;;KOLOA;HI;96756;;808-742-7480;14265;MELEKE & CLARA LEASAU;6;1 day;12 years;10/15/2016;10/14/2018
FCC;LEE, JOYCE S;;;;EWA BEACH;HI;96706;;;;EWA BEACH;HI;96706;;808-685-1416;13918;JOYCE & GARY LEE;5;6 weeks;5 years;05/24/2018;05/23/2020
FCC;LINDSAY, JEANETTE J;;;;KAILUA;HI;96734;;;;KAILUA;HI;96734;;808-262-7988;13308;JEANETTE  LINDSAY;6;1 day;13 years;01/01/2018;12/31/2019
FCC;SUWAL MAHARJAN, SURYA L;;;;HONOLULU;HI;96814;;;;HONOLULU;HI;96814;;808-536-7197;13605;SURYA SUWAL MAHARJAN & RAJU ;6;2 months;12 years;06/19/2017;06/18/2019
FCC;THAPA, BHIMA D;;;;HONOLULU;HI;96817;;;;HONOLULU;HI;96817;;808-528-3686;13612;BHIMA DEVI THAPA & MANDHOJ RAI;6;2 months;8 years;12/07/2016;12/06/2018
FCC;THAPA, SAROJ;;;;HONOLULU;HI;96826;;;;HONOLULU;HI;96826;;808-944-9871;13613;SAROJ AND YADAB THAPA;6;1 year;12 years;11/01/2017;10/31/2019
FCC;PIROS, TRICIA K;;;;HONOLULU;HI;96815;;;;HONOLULU;HI;96815;;808-732-9795;13500;TRICIA & CAESAR PIROS;5;1 month;5 years;04/01/2017;03/31/2019
FCC;QUITEVIS, REMY N;;;;MILILANI TOWN;HI;96789;;;;MILILANI TOWN;HI;96789;;808-625-2210;14100;REMY & KENNETH QUITEVIS;6;3 months;8 years;03/03/2018;03/02/2020
FCC;RAMEL, CLAIRE A;;;;HONOLULU;HI;96826;;;;HONOLULU;HI;96826;;808-292-3067;13518;CLAIRE RAMEL;6;6 months;13 years;05/01/2018;04/30/2020
FCC;RAMOS, ANN M;;;;KAILUA;HI;96734;;;;KAILUA;HI;96734;;808-262-3253;13519;ANN RAMOS;6;2 years 6 months;7 years;07/01/2018;06/30/2020
FCC;REDDY, LATHA;;;;HONOLULU;HI;96825;;;;HONOLULU;HI;96825;;808-395-0096;13522;LATHA & MANOHAR REDDY;6;5 months;6 years;09/01/2017;08/31/2019
FCC;CHUN, MARGO A;;;;KAILUA;HI;96734;;;;KAILUA;HI;96734;;808-262-6832;13051;MARGO AND GERALD CHUN;6;1 year 1 month;12 years;04/01/2017;03/31/2019
FCC;DEREGO-IGNACIO, KATHY A;;;;HILO;HI;96720;;;;HILO;HI;96720;;808-969-9427;11328;KATHY AND DAVID IGNACIO;6;6 weeks;11 years;02/04/2018;02/03/2020
FCC;KOGAMI, JUDITH F;;;;PEARL CITY;HI;96782;;;;PEARL CITY;HI;96782;;808-454-5899;15092;JUDITH AND NORMAN KOGAMI;6;6 weeks;13 years;12/16/2017;12/15/2019
FCC;KUHNS, DEBRA A;;;;KAPOLEI;HI;96707;;;;KAPOLEI;HI;96707;;808-672-0306;11637;DEBRA & CAMPBELL KUHNS;6;6 weeks;12 years;05/20/2017;05/19/2019
FCC;LUM, SUSAN G;;;;KAILUA;HI;96734;;;;KAILUA;HI;96734;;808-261-5417;15090;SUSAN LUM;6;2 months;10 years;07/01/2017;06/30/2019
FCC;MONIZ, YONNE ANN L;;;;KEAAU;HI;96749;;PO BOX 1292;;KEAAU;HI;96749;;808-966-9213;11945;YONNE AND RANDY MONIZ;6;1 month;7 years;03/01/2017;02/28/2019
FCC;PAIO, NATASHA L;;;;KAILUA KONA;HI;96740;;;;KAILUA KONA;HI;96740;;808-355-8077;14985;NATASHA & MATTHEW PAIO, DBA ;6;3 weeks;13 years;06/25/2017;06/24/2019
FCC;KINEL, MERCEDITA B;;;;HONOLULU;HI;96822;;;;HONOLULU;HI;96822;;808-941-8334;15343;MERCEDITA & RICHARD KINEL;6;1 day;4 years;07/01/2017;06/30/2019
FCC;RAZO, KAREN M;;;;KAHULUI;HI;96732;;;;KAHULUI;HI;96732;;808-872-5671;14471;KAREN & CONRAD RAZO;6;3 months;11 years;01/01/2017;12/31/2018
FCC;FONTANILLA, JASMINE R;;;;HONOLULU;HI;96819;;;;HONOLULU;HI;96819;;808-845-0377;15331;JASMINE FONTANILLA;6;1 year;12 years;07/11/2017;07/10/2019
FCC;SHIM, SUSAN E;;;;HONOLULU;HI;96821;;;;HONOLULU;HI;96821;;808-396-0549;13562;SUSAN SHIM;6;1 day;5 years;04/01/2017;03/31/2019
FCC;VILLON, STACEY L;;;;KAHULUI;HI;96732;;;;KAHULUI;HI;96732;;808-871-9776;16286;STACEY AND SHERWIN VILLON;6;3 months;6 years;09/01/2016;08/31/2018
FCC;LUM, JOANNA K;;;;KAPAA;HI;96746;;;;KAPAA;HI;96746;;808-821-1862;14942;CORNEL SR & JOANNA LUM;6;1 year 3 months;12 years;05/14/2017;05/13/2019
FCC;PERREIRA, EVELYN M;;;;HAIKU;HI;96708;;;;HAIKU;HI;96708;;808-269-3002;15041;EVELYN & HOWARD PERREIRA;6;1 day;5 years;01/01/2017;12/31/2018
FCC;MARTINEZ, SHERI A;;;;HONOLULU;HI;96826;;;;HONOLULU;HI;96826;;808-942-5051;13337;SHERI A MARTINEZ;6;1 day;13 years;01/18/2017;01/17/2019
FCC;MURAOKA, LANI M;;;;MILILANI TOWN;HI;96789;;;;MILILANI TOWN;HI;96789;;808-626-8715;15860;LANI AND STEVEN MURAOKA;6;2 months;6 years;03/29/2017;03/28/2019
FCC;QUEVEDO, ROWENA G;;;;MILILANI TOWN;HI;96789;;;;MILILANI TOWN;HI;96789;;808-258-7048;15052;ROWENA AND DANNY QUEVEDO;6;7 months;13 years;11/06/2017;11/05/2019
FCC;RIVERA, JOAN N;;;;WAHIAWA;HI;96786;;;;WAHIAWA;HI;96786;;808-621-1047;15058;JOAN & BUDDY RIVERA;6;1 day;5 years;11/06/2017;11/05/2019
FCC;HUNTER, MARNI R;;;;CAPTAIN COOK;HI;96704;;PO BOX 2042;;KEALAKEKUA;HI;96750;;808-323-2362;15302;MARNI HUNTER AND EMAILE QUINTAL ;6;1 year;13 years;11/29/2016;11/28/2018
FCC;PARKER, LISA GAYE L;;;;KAILUA;HI;96734;;;;KAILUA;HI;96734;;808-261-4420;15247;LISAGAYE & DAVID PARKER;6;1 year;13 years;11/01/2017;10/31/2019
FCC;STREADBECK, TARA-LYN K;;;;EWA BEACH;HI;96706;;PO BOX 60478;;EWA BEACH;HI;96706;;808-681-0212;15098;TARA-LYN AND LINCOLN STREADBECK;6;6 weeks;13 years;01/23/2018;01/22/2020
FCC;SILVA, INDRIKA P;;;;HONOLULU;HI;96826;;;;HONOLULU;HI;96826;;808-947-9373;15163;INDRIKA AND ASOKA SILVA;6;4 weeks;16 years;09/07/2016;09/06/2018
FCC;MADAMBA, LORELYN C;;;;HILO;HI;96720;;;;HILO;HI;96720;;808-935-1301;15266;LORELYN MADAMBA;6;1 year;5 years;09/04/2017;09/03/2019
FCC;MARTIN-KING, SARAH R;;;;HILO;HI;96720;;;;HILO;HI;96720;;808-937-0265;15189;SARAH AND JONATHAN KING;6;6 weeks;6 years;01/11/2018;01/10/2020
FCC;MARTIN, SARAHANNE M;;;;KAHULUI;HI;96732;;;;KAHULUI;HI;96732;;808-269-5290;15704;SARAH & BEN MARTIN;6;6 weeks;13 years;07/01/2017;06/30/2019
FCC;BANAS, LESLIE D;;;;PEARL CITY;HI;96782;;;;PEARL CITY;HI;96782;;808-729-4239;15925;LESLIE AND WILFREDO BANAS;6;2 months;7 years;05/16/2018;05/15/2020
FCC;VISITACION, MILDRED P;;;;HILO;HI;96720;;;;HILO;HI;96720;;808-315-8396;15823;MILDRED AND JOHN VISITACION;6;1 year;5 years;05/07/2017;05/06/2019
FCC;KALUAHINE, DESIREE L;;;;LIHUE;HI;96766;;;;LIHUE;HI;96766;;808-651-4129;15814;CLYDE AND DESIREE KALUAHINE;6;2 weeks;12 years;11/08/2016;11/07/2018
FCC;AKO MCCABE, BLANCHE;;;;KANEOHE;HI;96744;;;;KANEOHE;HI;96744;;808-239-2300;15737;BLANCHE AKO-MCCABE & STANLEY ;6;1 year 6 months;6 years;11/01/2017;10/31/2019
FCC;KANAKANUIASPILI, ANDRINA K;;;;MILILANI TOWN;HI;96789;;;;MILILANI TOWN;HI;96789;;808-306-6022;15726;ANDRINA KANAKANUI-ASPILI AND ;6;1 month;11 years;08/03/2016;08/02/2018
FCC;SMITH, TRACIE I;;;;HONOLULU;HI;96821;;;;HONOLULU;HI;96821;;808-368-8124;15811;TRACIE & MATTHEW SMITH;6;6 weeks;6 years;05/01/2018;04/30/2020
FCC;VIERRA, ALANNA M;;;;KEAAU;HI;96749;;HC 2 BOX 6889;;KEAAU;HI;96749;;808-966-5920;15970;ALANNA AND DANIEL VIERRA;6;6 months;12 years;10/05/2017;10/04/2019
FCC;ISHIKAWA, CORINA K;;;;EWA BEACH;HI;96706;;;;EWA BEACH;HI;96706;;808-685-0483;16033;CORINA AND GREGG ISHIKAWA;6;6 weeks;13 years;11/21/2016;11/20/2018
FCC;CAMBRA, BRENDA J;;;;WAIANAE;HI;96792;;;;WAIANAE;HI;96792;;808-696-2790;15786;BRENDA AND WILLIAM CAMBRA, JR;4;2 years;4 years;11/06/2017;11/05/2019
FCC;YOSHIZAWA, MONICA F;;;;HILO;HI;96720;;;;HILO;HI;96720;;808-959-2440;15783;GLENN AND MONICA YOSHIZAWA;6;6 weeks;6 years;11/13/2017;11/12/2019
FCC;AHPUCK, CAROL;;;;LAHAINA;HI;96761;;;;LAHAINA;HI;96761;;808-661-7018;14326;CAROL & EDMUND AH PUCK;6;1 day;6 years;10/01/2016;09/30/2018
FCC;PYLE, KUNIKO N;;;;WAILUKU;HI;96793;;;;WAILUKU;HI;96793;;808-249-2788;15903;KUNIKO AND DAVID PYLE;6;1 day;6 years;04/01/2017;03/31/2019
FCC;ESTEP, LESLIE M;;;;KEAAU;HI;96749;;HCR 3, BOX 11018;;KEAAU;HI;96749;;808-966-4350;15684;LESLIE ESTEP;6;1 year;12 years;06/28/2018;06/27/2019
FCC;RESPICIO, SHANESSA K;;;;HILO;HI;96720;;;;HILO;HI;96720;;808-959-0040;15794;REX AND SHANESSA RESPICIO DBA NA ;6;1 day;12 years;01/17/2018;01/16/2020
FCC;SOARES, MISTY L;;;;KALAHEO;HI;96741;;PO BOX 824;;KALAHEO;HI;96741;;808-635-8459;15538;DAVID & MISTY SOARES;5;1 year;12 years;02/02/2018;02/01/2020
FCC;PROTHE, KIKUYO G;;;;PEARL CITY;HI;96782;;;;PEARL CITY;HI;96782;;808-348-0566;15432;KIKUYO AND DONALD PROTHE;6;4 weeks;12 years;07/14/2017;07/13/2019
FCC;PERKINS, BRENDA L;;;;KAILUA;HI;96734;;PO BOX 342110;;KAILUA;HI;96734;;808-888-8580;15599;BRENDA & WILLIAM PERKINS JR;6;3 months;5 years;12/01/2017;11/30/2019
FCC;CHAMBRELLA, LEANDA M;;;;EWA BEACH;HI;96706;;PO BOX 2344;;EWA BEACH;HI;96706;;808-497-8973;15437;LEANDA CHAMBRELLA;3;1 month;13 years;05/20/2018;05/19/2019
FCC;LONG, SAMMY L;;;;HONOLULU;HI;96817;;;;HONOLULU;HI;96817;;808-224-2997;15429;SAMMY F LONG;6;6 weeks;5 years;04/01/2018;03/31/2020
FCC;BARCAI, VERNA M;;;;WAILUKU;HI;96793;;;;WAILUKU;HI;96793;;808-243-9458;14356;VERNA BARCAI;6;6 weeks;6 years;04/01/2017;03/31/2019
FCC;TANGONAN, DEANNE L;;;;WAHIAWA;HI;96786;;;;WAHIAWA;HI;96786;;808-864-5351;15340;DEANNE AND STANLEY TANGONAN;6;1 month;6 years;03/08/2017;03/07/2019
FCC;CAMACHO, MARYJANE;;;;PAAUILO;HI;96776;;PO BOX 243;;PAAUILO;HI;96776;;808-776-1245;10707;MARY JANE CAMACHO;6;4 weeks;6 years;04/01/2018;03/31/2020
FCC;FIGEROA, JOYCELYN F;;;;WAILUKU;HI;96793;;;;WAILUKU;HI;96793;;808-242-5096;15146;JOYCELYN & ANDREW FIGEROA;6;1 day;13 years;06/01/2018;05/31/2020
FCC;POTTER, DWYNA A;;;;HILO;HI;96720;;;;HILO;HI;96720;;808-959-0289;12279;DWYNA POTTER DBA KEIKI HUT;6;1 year;13 years;09/06/2017;09/05/2019
FCC;TANICALA, LORI A;;;;MAKAWAO;HI;96768;;;;MAKAWAO;HI;96768;;808-572-3843;14494;LORI & CRAWFORD TANICALA;6;1 year;7 years;10/01/2017;09/30/2019
FCC;TURNER, JACQUELINE L;;;;WAILUKU;HI;96793;;;;WAILUKU;HI;96793;;808-242-8101;14496;JACQUELINE & PATRICK TURNER;6;6 weeks;5 years;02/01/2018;01/31/2020
FCC;CARTER, COLLEEN L;;;;MILILANI TOWN;HI;96789;;;;MILILANI TOWN;HI;96789;;808-397-1820;14608;COLLEEN & DALLAS CARTER;6;6 months;13 years;04/30/2018;04/29/2020
FCC;LAU, GIGI S;;;;HONOLULU;HI;96816;;;;HONOLULU;HI;96816;;808-732-6130;15126;GIGI AND FRANKLYN LAU;6;4 weeks;12 years;07/07/2018;07/06/2020
FCC;MILAR-OKINAKA, DESIREE P;;;;HILO;HI;96720;;;;HILO;HI;96720;;808-959-7759;15244;IVAN AND DESIREE MILAR-OKINAKA DBA ;6;2 months;6 years;09/10/2016;09/09/2018
FCC;AMASOL, SOPHIA M;;;;KAPOLEI;HI;96707;;;;KAPOLEI;HI;96707;;808-674-8804;15015;SOPHIA & RUDOLPH AMASOL;6;2 months;6 years;08/06/2017;08/05/2019
FCC;CAMBRA, WINIFRED;;;;MAKAWAO;HI;96768;;;;MAKAWAO;HI;96768;;808-572-8954;14366;WINIFRED & LOUIS CAMBRA;6;1 year;6 years;10/01/2016;09/30/2018
FCC;GAUTAM, KHIMA K;;;;HONOLULU;HI;96816;;;;HONOLULU;HI;96816;;808-737-8332;13107;KHIMA KUMARI GAUTAM;6;1 year;14 years;09/01/2017;10/31/2019
FCC;GURULUWANA, RAMYALATHA G;;;;HONOLULU;HI;96816;;;;HONOLULU;HI;96816;;808-734-0458;13123;RAMYALATHA AND JOSEPH ;6;1 month;13 years;10/23/2017;10/31/2019
FCC;MEDEIROS, MAUDLYN K;;;;HILO;HI;96720;;;;HILO;HI;96720;;808-981-2483;15615;ROBERT AND MAUDLYN MEDEIROS ;6;5 months;5 years;08/24/2017;08/23/2019
FCC;LEE, MARCIA S;;;;HONOLULU;HI;96818;;;;HONOLULU;HI;96818;;808-836-4593;13922;MARCIA AND DARLENE LEE;2;1 year;6 years;07/25/2017;07/24/2019
FCC;MAYEDA, HAROLDYNE P;;;;HONOLULU;HI;96816;;;;HONOLULU;HI;96816;;808-732-1547;13345;HAROLDYNE & MAX MAYEDA;6;6 weeks;12 years;11/29/2016;11/28/2018
FCC;NUNES, GLORIA A;;;;MILILANI TOWN;HI;96789;;;;MILILANI TOWN;HI;96789;;808-623-0563;13993;GLORIA & ALFREDO NUNES;6;6 weeks;13 years;08/16/2017;08/15/2019
FCC;PAJIMOLA, DEBRA A;;;;HONOLULU;HI;96818;;;;HONOLULU;HI;96818;;808-486-6489;14069;DEBRA & RYAN PAJIMOLA;6;6 weeks;13 years;05/11/2017;05/10/2019
FCC;PURCELL, MEAFOU L;;;;EWA BEACH;HI;96706;;;;EWA BEACH;HI;96706;;808-685-5310;14098;MEAFOU & ELLIOTT PURCELL;6;2 years;11 years;03/07/2017;03/06/2019
FCC;SILVER, ANNA L;;;;EWA BEACH;HI;96706;;;;EWA BEACH;HI;96706;;808-683-3987;14143;ANNA AND JACK SILVER;6;1 day;13 years;01/06/2017;01/05/2019
FCC;HORNOS, CHARLENE A;;;;EWA BEACH;HI;96706;;;;EWA BEACH;HI;96706;;808-381-4071;15100;CHARLENE AND MAURICE HORNOS JR;6;6 weeks;8 years;11/25/2017;11/24/2019
FCC;FARLEY, TIMENA M;;;;KAHUKU;HI;96731;;;;KAHUKU;HI;96731;;808-230-1222;14860;TIMENA AND KAEO FARLEY;5;6 weeks;13 years;06/30/2018;06/29/2020
FCC;CHUN, LORIE L;;;;MILILANI TOWN;HI;96789;;;;MILILANI TOWN;HI;96789;;808-753-1622;14994;LORIE & MARSHALL CHUN;6;3 months;7 years;11/24/2017;11/23/2019
FCC;LOGAN, YVETTE Y;;;;MILILANI TOWN;HI;96789;;;;MILILANI TOWN;HI;96789;;808-625-4688;15207;YVETTE AND GARY LOGAN;6;1 year 6 months;13 years;08/20/2016;08/19/2018
FCC;TABISULA, MICHELLE L;;;;KAHULUI;HI;96732;;;;KAHULUI;HI;96732;;808-871-8625;15264;MICHELLE & DURWIN TABISULA;6;1 year 1 month;14 years;11/01/2017;10/31/2019
FCC;VALLEJO, BARBARA E;;;;KAPOLEI;HI;96707;;;;KAPOLEI;HI;96707;;808-672-6860;15209;BARBARA AND JOHN VALLEJO AND ;6;2 months;13 years;12/15/2017;12/14/2019
FCC;SHERIFF, GNEI;;;;HONOLULU;HI;96815;;;;HONOLULU;HI;96815;;808-260-9109;16742;GNEI & TUAN SHERIFF;6;3 months;12 years;04/01/2018;03/31/2020
FCC;REMIGIO, BELINDA M;;;;HONOLULU;HI;96819;;;;HONOLULU;HI;96819;;808-383-6644;15420;BELINDA AND STEVEN REMIGIO;6;4 weeks;10 years;08/01/2017;07/31/2019
FCC;FREITAS, MELISSA M;;;;KALAHEO;HI;96741;;PO BOX 56;;KALAHEO;HI;96741;;808-639-3340;15008;BYRON AND MELISSA FREITAS;6;1 month;12 years;08/27/2017;08/26/2018
FCC;LOUGHLIN, SHARENE K;;;;MILILANI TOWN;HI;96789;;;;MILILANI TOWN;HI;96789;;808-228-6045;16639;SHARENE AND JASON LOUGHLIN;6;2 months;12 years;01/12/2018;01/11/2020
FCC;FREITAS, LIANA A;;;;MAKAWAO;HI;96768;;;;MAKAWAO;HI;96768;;808-357-1110;16535;LIANA & KAMAKA FREITAS;6;1 day;6 years;08/01/2016;07/31/2018
FCC;GLAVOR, VENUS A;;;;KIHEI;HI;96753;;;;KIHEI;HI;96753;;808-879-9251;14334;VENUS & THOMAS GLAVOR;6;6 weeks;11 years;04/01/2017;03/31/2019
FCC;KAPELIELA, CHRISTINE A;;;;EWA BEACH;HI;96706;;;;EWA BEACH;HI;96706;;808-277-9111;16240;CHRISTINE AND SHAWN KAPELIELA;6;2 months;13 years;07/14/2017;07/13/2018
FCC;BALTERO, JACQUELINE H;;;;KAPOLEI;HI;96707;;;;KAPOLEI;HI;96707;;808-375-6559;16454;JACQUELINE AND GABBY BALTERO;6;1 month;12 years;07/01/2017;06/30/2019
FCC;JUARIO, KATIE K;;;;KAUNAKAKAI;HI;96748;;PO BOX 1219;;KAUNAKAKAI;HI;96748;;808-336-0037;16415;KATIE JUARIO & GUILLERMO DELA CRUZ;6;1 day;6 years;09/01/2016;08/31/2018
FCC;MAFUA, LEAHMARIE M;;;;EWA BEACH;HI;96706;;;;EWA BEACH;HI;96706;;808-722-5860;16223;LEAHMARIE AND FILOSOFIA MAFUA;6;6 weeks;10 years;08/18/2017;08/17/2019
FCC;NUNES, BOBBIE H;;;;KAPOLEI;HI;96707;;;;KAPOLEI;HI;96707;;808-620-6952;16681;BOBBIE AND ZACHERY NUNES;6;6 weeks;11 years;03/23/2018;03/22/2019
FCC;DAVIES, JENNIFER L;;;;KEAAU;HI;96749;;HCR 2, BOX 6221;;KEAAU;HI;96749;;808-982-6383;10849;JENNIFER AND CLARENCE DAVIES DBA ;6;1 day;12 years;08/01/2016;07/31/2018
FCC;ROMERO, ZOILA;;;;MILILANI TOWN;HI;96789;;;;MILILANI TOWN;HI;96789;;808-623-6734;16489;ZOILA AND HIRAM ROMERO;6;6 weeks;13 years;06/17/2017;06/16/2019
FCC;ABE, VICTORIA P;;;;AIEA;HI;96701;;;;AIEA;HI;96701;;808-372-7528;16546;VICTORIA ABE;6;6 weeks;13 years;10/11/2016;10/10/2018
FCC;CUMMINGS, ALANA M;;;;EWA BEACH;HI;96706;;;;EWA BEACH;HI;96706;;808-384-0988;16438;ALANA AND ARMOND CUMMINGS;6;1 month;12 years;03/25/2017;03/24/2019
FCC;MIIKE, CHOON O;;;;MILILANI TOWN;HI;96789;;;;MILILANI TOWN;HI;96789;;808-358-7342;16638;CHOON AND LANCE MIIKE;6;6 weeks;8 years;01/04/2018;01/03/2020
FCC;TEXEIRA, TAMMI N;;;;WAIMANALO;HI;96795;;;;WAIMANALO;HI;96795;;808-259-7824;16628;TAMMI & ABEL TEXEIRA III;6;1 year;6 years;06/01/2018;05/31/2020
FCC;LINDSEY, MELISSA K;;;;WAIKOLOA;HI;96738;;;;WAIKOLOA;HI;96738;;808-769-4804;16532;MELISSA AND JOSEPH LINDSEY;6;1 week;11 years;05/05/2017;05/04/2019
FCC;ALO, ROCHELLE C;;;;HAIKU;HI;96708;;;;HAIKU;HI;96708;;808-572-0262;16583;ROCHELLE AND MARK ALO;6;1 year;13 years;11/01/2017;10/31/2019
FCC;NEUPANE, MITRA;;;;HONOLULU;HI;96816;;;;HONOLULU;HI;96816;;808-735-1212;13394;MITRA & KABI RAJ NEUPANE;6;6 weeks;12 years;01/22/2018;01/21/2020
FCC;YOSHIKAWA, SUSAN M;;;;HONOLULU;HI;96814;;;;HONOLULU;HI;96814;;808-585-6295;13675;SUSAN & DAVID YOSHIKAWA;6;1 day;13 years;10/01/2017;09/30/2019
FCC;YOUNT, DAWN L;;;;HONOLULU;HI;96825;;;;HONOLULU;HI;96825;;808-396-8922;15403;DAWN AND JOHN YOUNT;6;2 months;9 years;03/01/2018;02/28/2020
FCC;PRIETO, DANIELLE L;;;;KAHULUI;HI;96732;;;;KAHULUI;HI;96732;;808-214-3121;16436;DANIELLE AND ROLAND PRIETO;6;1 day;9 years;05/01/2017;04/30/2019
FCC;CASCO, JOLYNN M;;;;LAHAINA;HI;96761;;PO BOX 10952;;LAHAINA;HI;96761;;808-669-3778;16559;JOLYNN AND CLIFFANE CASCO;6;1 day;7 years;08/01/2016;07/31/2018
FCC;GRACE, LORELEI N;;;;KAILUA-KONA;HI;96740;;;;KAILUA-KONA;HI;96740;;808-325-2379;14661;LORELEI AND RYAN GRACE, DBA ABC'S & ;6;6 weeks;13 years;05/22/2017;05/21/2019
FCC;AMARAL, MELBA S;;;;HONOLULU;HI;96819;;;;HONOLULU;HI;96819;;808-888-7690;15616;MELBA AND EDMUND AMARAL JR;6;1 day;13 years;05/01/2017;04/30/2019
FCC;CHANG, PERRILYNN;;;;HONOLULU;HI;96819;;;;HONOLULU;HI;96819;;808-842-5522;15825;PERRI AND RUSSELL CHANG;6;6 weeks;13 years;05/01/2017;04/30/2019
FCC;PACHECO, MARJORIE L;;;;KAILUA;HI;96734;;;;KAILUA;HI;96734;;808-261-6476;14999;MARJORIE & RANDAL PACHECO;6;1 day;13 years;10/29/2017;10/28/2019
FCC;OKAMURA, BETH M;;;;KAILUA;HI;96734;;;;KAILUA;HI;96734;;808-263-2397;13448;BETH & CLEVE OKAMURA;6;1 day;13 years;02/01/2018;01/31/2020
FCC;MARTIN, CHEYNE M;;;;HILO;HI;96720;;;;HILO;HI;96720;;808-959-8419;16700;CHEYNE AND MICHAEL MARTIN;3;1 year;6 years;09/16/2016;09/15/2018
FCC;HOOPII, IPOLANI T;;;;CAPTAIN COOK;HI;96704;;PO BOX 45;;KEALAKEKUA;HI;96750;;808-315-8813;16493;IPOLANI AND SMOKEY HOOPII, DBA ;6;2 weeks;13 years;12/01/2017;11/30/2019
FCC;MAKANE'OLE, DONI-MAE;;;;MOUNTAINVIEW;HI;96771;;P O BOX 711456;;MOUNTAINVIEW;HI;96771;;808-968-7672;15909;DONI-MAE MAKANE'OLE, LITTLE ;6;1 year 3 months;4 years;08/16/2017;05/20/2019
FCC;FISHER, ROBIN A;;;;KAILUA-KONA;HI;96740;;;;KAILUA-KONA;HI;96740;;808-329-0720;14618;ROBIN AND DONALD FISHER, DBA ;6;1 week;13 years;03/28/2018;03/27/2020
FCC;CHIN, ROSALIND L;;;;WAILUKU;HI;96793;;;;WAILUKU;HI;96793;;808-244-3543;15960;ROSALIND & LARRY CHIN;6;1 day;7 years;04/01/2018;03/31/2020
FCC;BALKOVEKVIERNES, COURTNEY N;;;;WAILUKU;HI;96793;;;;WAILUKU;HI;96793;;808-344-5276;16107;COURTNEY BALKOVEK VIERNES & ;6;1 year;12 years;12/01/2016;11/30/2018
FCC;KAINOA, KUUIPO L;;;;KAMUELA;HI;96743;;;;KAMUELA;HI;96743;;808-885-4603;15660;KUUIPO AND GODFREY KAINOA JR, DBA ;6;6 weeks;7 years;06/12/2017;06/11/2019
FCC;REDEROS, LAURA J;;;;KAILUA-KONA;HI;96740;;;;KAILUA-KONA;HI;96740;;808-640-6666;15373;LAURA AND HENRY REDEROS JR;6;6 weeks;6 years;02/28/2017;02/27/2019
FCC;RICHARDS, SHIRYLENE H;;;;KAMUELA;HI;96743;;PO BOX 2014;;KAMUELA;HI;96743;;808-937-8473(CELL);16122;SHIRYLENE AND FLOYD RICHARDS, DBA ;6;6 weeks;13 years;03/19/2017;03/18/2019
FCC;RAYMOND, TOMA M;;;;KAPAAU;HI;96755;;PO BOX 752;;KAPAAU;HI;96755;;808-889-0604;15937;TOMA AND DARRINGER RAYMOND;6;4 weeks;13 years;07/25/2017;07/24/2019
FCC;VILLAFANIA, DIAHNN F;;;;KAILUA-KONA;HI;96740;;;;KAILUA-KONA;HI;96740;;808-355-8662;15354;DIAHNN & JEFFREY VILLAFANIA, DBA ;6;1 week;11 years;01/28/2017;01/27/2019
FCC;KALEIOHI, ANDREA D;;;;KILAUEA;HI;96754;;;;KILAUEA;HI;96754;;808-346-1421;16596;JARED AND ANDREA KALEIOHI;6;6 weeks;12 years;11/03/2016;11/02/2018
FCC;BRAUN, DOROTHY D;;;;LIHUE;HI;96766;;;;LIHUE;HI;96766;;808-635-2594;14259;NORMAN & DOROTHY BRAUN;6;1 day;12 years;05/29/2017;05/28/2019
FCC;BALLESTEROS, BRENDA A;;;;MILILANI TOWN;HI;96789;;;;MILILANI TOWN;HI;96789;;808-626-8753;15479;BRENDA AND HAPHIL BALLESTEROS;6;6 weeks;13 years;09/26/2017;09/25/2019
FCC;HEE, PRISCILLA Y;;;;HONOLULU;HI;96817;;;;HONOLULU;HI;96817;;808-386-6228;16529;PRISCILLA & BRADLEY HEE;6;1 month;13 years;09/14/2016;09/13/2018
FCC;DOLE, SHYAMA R;;;;KAHULUI;HI;96732;;;;KAHULUI;HI;96732;;808-214-6989;16660;SHYAMA AND TUAN DOLE;6;1 day;13 years;02/01/2018;01/31/2020
FCC;KALER, FLORENCE M;;;;MOUNTAINVIEW;HI;96771;;P.O. BOX 711642;;MOUNTAINVIEW;HI;96771;;808-937-2786;16667;FLORENCE MAE KALER;6;2 years 6 months;12 years;02/04/2017;04/11/2019
FCC;KALILI, KRYSTAL L;;;;HILO;HI;96720;;;;HILO;HI;96720;;808-960-3759;16441;KRYSTAL AND KEOLAOKALANI  KALILI;6;2 months;13 years;02/18/2017;02/05/2019
FCC;VIDINHA, CHERYL K;;;;KALAHEO;HI;96741;;;;KALAHEO;HI;96741;;808-332-8791;16128;TOBY & CHERYL VIDINHA;6;1 day;12 years;02/25/2018;02/24/2020
FCC;BECK, MARAU K;;;;HANALEI;HI;96714;;PO BOX 371;;HANALEI;HI;96714;;808-826-7832;16189;HOBEY AND MARAU BECK;6;2 years;6 years;06/02/2017;06/01/2019
FCC;TECSON, MIKIALAPUA M;;;;KAPAA;HI;96746;;;;KAPAA;HI;96746;;808-651-9977;15944;MIKIALAPUA TECSON;5;3 weeks;6 years;12/21/2016;09/20/2018
FCC;MOLETA, DARLENE L;;;;EWA BEACH;HI;96706;;;;EWA BEACH;HI;96706;;808-772-4364;16316;DARLENE AND CHET MOLETA;6;2 weeks;8 years;11/17/2016;11/16/2018
FCC;KANAELE, YVETTE P;;;;MAKAWAO;HI;96768;;;;MAKAWAO;HI;96768;;808-281-4529;16341;YVETTE & LEIGHTON KANAELE;6;1 year 6 months;6 years;10/01/2016;09/30/2018
FCC;LAGUNDINO, FE G;;;;WAIANAE;HI;96792;;;;WAIANAE;HI;96792;;808-668-2499;16243;FE AND NESTOR LAGUNDINO;6;1 month;11 years;07/29/2016;07/28/2018
FCC;EWING, HEIDI;;;;PAAUILO;HI;96776;;PO BOX 760515;;PAAUILO;HI;96776;;808-776-1363;16244;HEIDI EWING AND THEODORE MERRELL;6;6 months;5 years;07/26/2017;07/25/2018
FCC;FREITAS, KITTY L;;;;LIHUE;HI;96766;;;;LIHUE;HI;96766;;808-482-1289;16242;KITTY FREITAS;6;1 month;12 years;07/02/2017;07/01/2019
FCC;JOHNSON, PRISCILLA G;;;;KAPOLEI;HI;96707;;;;KAPOLEI;HI;96707;;808-674-1427;16251;PRISCILLA GAYLE JOHNSON;6;2 months;8 years;09/18/2017;09/17/2019
FCC;MEDINA, CLARA M;;;;KEAAU;HI;96749;;HCR 1 BOX 5483;;KEAAU;HI;96749;;808-982-6463;16253;JOSEPH AND CLARA MEDINA DBA JC ;6;1 day;5 years;09/04/2016;09/03/2018
FCC;TAMASHIRO, SHARLENE C;;;;MILILANI TOWN;HI;96789;;;;MILILANI TOWN;HI;96789;;808-623-8699;14182;SHARLENE & NOLAN TAMASHIRO;6;1 month;12 years;11/01/2017;10/31/2019
FCC;FERNANDEZ, MARILYN M;;;;LIHUE;HI;96766;;;;LIHUE;HI;96766;;808-651-8460;15784;MELVIN & MARILYN FERNANDEZ;6;1 month;12 years;07/18/2017;07/17/2019
FCC;GALLARDO, NORNETTE P;;;;KAPAA;HI;96746;;PO BOX 2;;KAPAA;HI;96746;;808-822-0083;15065;JEFFREY & NORNETTE GALLARDO;6;1 day;12 years;02/25/2017;02/24/2019
FCC;LIMASA, KIMBERLEY A;;;;KAPOLEI;HI;96707;;PO BOX 75615;;KAPOLEI;HI;96707;;808-330-3131;16114;KIMBERLEY AND LAURENCE LIMASA JR;6;4 weeks;13 years;03/27/2018;03/26/2020
FCC;GOODMAN, CATHERINE J;;;;HILO;HI;96720;;PO BOX 1715;;HILO;HI;96721;;808-938-6783;16270;CATHERINE GOODMAN;6;1 month;13 years;08/19/2017;08/18/2019
FCC;LEE, TYRA K;;;;HILO;HI;96720;;;;HILO;HI;96720;;808-959-7674;16119;TYRA AND TYSON LEE;6;1 day;5 years;05/02/2017;05/01/2019
FCC;SILVA, LILY-ANN K;;;;HILO;HI;96720;;;;HILO;HI;96720;;808-989-8974;15984;MAURICE AND LILY-ANN SILVA;6;7 months;5 years;08/01/2017;07/31/2019
FCC;MAKANEOLE, FRANCI S;;;;WAIMANALO;HI;96795;;;;WAIMANALO;HI;96795;;808-292-4581;16426;FRANCI MAKANEOLE;6;2 months;6 years;06/01/2018;05/31/2020
FCC;BECKER, HEATHER A;;;;EWA BEACH;HI;96706;;;;EWA BEACH;HI;96706;;808-348-2467;16420;HEATHER BECKER;6;6 weeks;12 years;02/19/2018;02/18/2020
FCC;KAPELA, SANDY L;;;;EWA BEACH;HI;96706;;;;EWA BEACH;HI;96706;;808-597-4704;16288;SANDY KAPELA;6;2 months;7 years;03/04/2017;03/03/2019
FCC;BERG, SYLVIE;;;;HAIKU;HI;96708;;;;HAIKU;HI;96708;;808-264-9287;16084;SYLVIE BERG;6;1 year;13 years;02/01/2018;01/31/2020
FCC;ZANE, JIE;;;;HONOLULU;HI;96816;;;;HONOLULU;HI;96816;;808-664-9982;16300;JIE & GORDON ZANE;6;2 months;12 years;01/01/2017;12/31/2018
FCC;RIVERA, TRISH A;;;;ANAHOLA;HI;96703;;PO BOX 19;;ANAHOLA;HI;96703;;808-823-8551;16354;WENTWORTH II & TRISH RIVERA;6;4 weeks;12 years;12/03/2016;12/02/2018
FCC;ALULI, SHAVON N;;;;KAPOLEI;HI;96707;;;;KAPOLEI;HI;96707;;808-630-0554;17087;SHAVON ALULI;4;1 month;13 years;01/03/2017;01/02/2019
FCC;YAMURA, LEILANI M;;;;PEARL CITY;HI;96782;;;;PEARL CITY;HI;96782;;808-232-8035;17044;LEILANI AND SAI YAMURA;6;2 months;12 years;08/23/2017;08/22/2019
FCC;IWASAKI, DANEL N;;;;HILO;HI;96720;;;;HILO;HI;96720;;808-482-1644;17089;DANEL AND SCOTT IWASAKI;6;1 month;8 years;03/11/2018;03/10/2020
FCC;SUEOKA, ANGELA ANN A;;;;HONOLULU;HI;96817;;;;HONOLULU;HI;96817;;808-265-7293;17092;ANGELA & KEITH SUEOKA;6;6 weeks;11 years;11/01/2017;10/31/2019
FCC;NAKATSUKASA, AUBREY V;;;;MILILANI TOWN;HI;96789;;;;MILILANI TOWN;HI;96789;;808-384-2835;17093;AUBREY AND TODD NAKATSUKASA;5;2 months;12 years;12/18/2016;12/17/2018
FCC;KNIGHT, MARYANN K;;;;LAWAI;HI;96765;;PO BOX 934;;LAWAI;HI;96765;;808-634-1234;16999;WAYNE & MARYANN KNIGHT SR;6;1 month;12 years;08/28/2017;08/27/2018
FCC;DULAN-AKIMA, HENRILYN L;;;;HILO;HI;96720;;P.O. BOX 794;;KAPAAU;HI;96755;;808-969-9279(HILO HOME);17051;HENRILYN DULAN-AKIMA AND GARY ;6;1 day;12 years;09/11/2017;09/10/2019
FCC;KEOHOHOU, TIHANEI J;;;;EWA BEACH;HI;96706;;;;EWA BEACH;HI;96706;;808-753-9162;17057;TIHANEI AND GLENN KEOHOHOU, JR;4;4 weeks;9 years;10/19/2017;10/18/2018
FCC;NISHIMURA, NANA;;;;HONOLULU;HI;96816;;;;HONOLULU;HI;96816;;808-753-8407;16968;NANA NISHIMURA & DAMIAN ZUKERAN;5;6 weeks;3 years;04/02/2018;04/01/2020
FCC;ABILAY, LUANA;;;;KIHEI;HI;96753;;;;KIHEI;HI;96753;;808-298-6131;17062;LUANA & CHAD ABILAY;6;1 day;13 years;02/01/2018;01/31/2020
FCC;PASCUA, JULIE A;;;;WAIPAHU;HI;96797;;;;WAIPAHU;HI;96797;;808-258-7331;17012;JULIE AND RONALD PASCUA;6;3 months;11 years;04/11/2018;04/10/2020
FCC;KUWAYE, HELENE M;;;;HONOLULU;HI;96816;;;;HONOLULU;HI;96816;;808-737-6430;17065;HELENE KUWAYE;6;1 year 1 month;6 years;11/05/2016;11/04/2018
FCC;CLARK, INGRID R;;;;HAWI;HI;96719;;PO BOX 361;;HAWI;HI;96719;;808-889-6139;17022;INGRID AND ROBERT CLARK, DBA HAPPY ;6;1 year;13 years;08/29/2016;08/28/2018
FCC;DRUMMONDO, EVA;;;;KANEOHE;HI;96744;;;;KANEOHE;HI;96744;;808-239-7798;17023;EVA & FRANCIS DRUMMONDO JR;6;1 month;10 years;10/01/2017;09/30/2019
FCC;TOYA, MAKIKO;;;;HONOLULU;HI;96816;;;;HONOLULU;HI;96816;;808-391-0771;17066;MAKIKO & JACOB TOYA;5;6 weeks;13 years;02/04/2017;02/03/2019
FCC;TAKARA, SANDRA M;;;;PEARL CITY;HI;96782;;;;PEARL CITY;HI;96782;;808-282-1430;16981;SANDRA AND STEVEN TAKARA;6;6 weeks;13 years;03/21/2017;03/20/2019
FCC;ADAMS, MICHELLE A;;;;KAMUELA;HI;96743;;PO BOX 2612;;KAMUELA;HI;96743;;808-557-0672;17069;MICHELLE AND CHARLES ADAMS, DBA ;6;6 weeks;12 years;02/11/2017;02/10/2019
FCC;ASATO, VERA MARIE M;;;;WAIPAHU;HI;96797;;;;WAIPAHU;HI;96797;;808-688-2525;17071;VERA AND VERNON ASATO;6;6 weeks;13 years;10/29/2016;10/28/2018
FCC;IHU, TRACY K;;;;KAHULUI;HI;96732;;;;KAHULUI;HI;96732;;808-283-3012;17072;TRACY AND PATRICK IHU;6;3 months;5 years;01/01/2018;12/31/2019
FCC;KODANI, DOREEN K;;;;HILO;HI;96720;;;;HILO;HI;96720;;808-920-5072;17038;DOREEN AND RONALD KODANI;6;1 year;4 years;04/14/2017;04/13/2019
FCC;TOLENTINO, ELORENA K;;;;EWA BEACH;HI;96706;;;;EWA BEACH;HI;96706;;808-222-8726;17115;ELORENA AND NELSON TOLENTINO;6;4 weeks;12 years;04/19/2017;04/18/2019
FCC;MCCARTNEY, ANTOINETTE M;;;;KAPAA;HI;96746;;;;KAPAA;HI;96746;;808-631-3759;16986;KEVIN & ANTOINETTE MCCARTNEY;6;2 months;12 years;05/03/2018;05/02/2020
FCC;GONSALES, ANNA M;;;;EWA BEACH;HI;96706;;;;EWA BEACH;HI;96706;;808-671-0375;17039;ANNA AND RANDOLPH GONSALES;6;1 year 6 months;6 years;07/28/2017;07/27/2019
FCC;MATEO, KATERINA E;;;;LAWAI;HI;96765;;PO BOX 1313;;LAWAI;HI;96765;;808-652-8143;17041;KATERINA MATEO;6;1 year;5 years;09/05/2017;09/04/2019
FCC;LIBRANDOLACNO, LORI L;;;;MAKAWAO;HI;96768;;;;MAKAWAO;HI;96768;;808-573-2041;16917;LORI & MICHAEL LACNO;6;3 years;6 years;09/01/2016;08/31/2018
FCC;GOMME, LIKO E;;;;KIHEI;HI;96753;;;;KIHEI;HI;96753;;808-874-5978;16859;LIKO GOMME;6;1 day;13 years;05/01/2018;04/30/2020
FCC;KENDRICK, MARIA FE;;;;AIEA;HI;96701;;;;AIEA;HI;96701;;808-286-9363;16860;MARIA FE AND GARY KENDRICK;5;1 month;12 years;03/17/2018;03/16/2020
FCC;LEWITSKY, MIRANDA S;;;;HONOKAA;HI;96727;;;;HONOKAA;HI;96727;;808-339-3044;16863;MIRANDA LEWITSKY HEARTLIGHT ;6;2 years;14 years;03/30/2017;03/31/2019
FCC;OSHIRO, YUJI;;;;WAIPAHU;HI;96797;;;;WAIPAHU;HI;96797;;808-677-5797;16810;YUJI AND KATHERINE OSHIRO;6;2 weeks;13 years;11/01/2016;10/31/2018
FCC;CAIRNS, ELENA R;;;;HILO;HI;96720;;;;HILO;HI;96720;;808-937-4051;16922;ELENA AND DANE CAIRNS DBA AKAMAI ;6;4 weeks;18 years;10/31/2016;10/30/2018
FCC;DUMLAO, CHIHARU T;;;;WAILUKU;HI;96793;;;;WAILUKU;HI;96793;;808-276-7566;16870;CHIHARU & RODOLFO DUMLAO;6;1 day;13 years;07/01/2018;03/31/2020
FCC;PAIO, SHEENA E;;;;KULA;HI;96790;;;;KULA;HI;96790;;808-342-5739;16827;SHEENA & CHAZ PAIO;6;1 day;6 years;12/01/2017;11/30/2019
FCC;NEUHART, ARINEE M;;;;WAILUKU;HI;96793;;;;WAILUKU;HI;96793;;808-386-1413;16927;ARINEE & ERIC NEUHART;6;1 year 6 months;7 years;11/01/2016;10/31/2018
FCC;TODASEBASTIAN, RAYMI S;;;;WAILUKU;HI;96793;;;;WAILUKU;HI;96793;;808-357-9360;16750;RAYMI TODA SEBASTIAN & DERICK ;6;6 weeks;12 years;08/01/2016;07/31/2018
FCC;ROMERO, CISSY B;;;;KAILUA;HI;96734;;;;KAILUA;HI;96734;;808-779-2476;16828;CISSY & GARY ROMERO;6;6 weeks;13 years;05/01/2017;04/30/2019
FCC;RAPOZA, DELORSE J;;;;AIEA;HI;96701;;;;AIEA;HI;96701;;808-488-6689;16880;DELORSE & PAUL RAPOZA;6;1 day;13 years;06/01/2017;05/31/2019
FCC;DAHILIG, DIANA J;;;;MAKAWAO;HI;96768;;;;MAKAWAO;HI;96768;;808-268-2185;16733;DIANA & EDWIN DAHILIG;6;1 day;13 years;09/01/2017;08/31/2019
FCC;MALABANAN, CELIA;;;;WAIPAHU;HI;96797;;;;WAIPAHU;HI;96797;;808-688-2552;16830;CELIA AND RICHARD MALABANAN;6;3 months;12 years;01/14/2017;01/13/2019
FCC;AGUALO, JAME U;;;;EWA BEACH;HI;96706;;;;EWA BEACH;HI;96706;;808-778-9909;16831;JAME AND GREG AGUALO;6;2 months;13 years;03/01/2018;02/28/2020
FCC;THEUS, RENEE J;;;;WAIPAHU;HI;96797;;;;WAIPAHU;HI;96797;;808-600-5249;16834;RENEE AND FLOYD THEUS;6;6 weeks;13 years;12/29/2017;12/28/2019
FCC;GASPAR, MELANIE M;;;;KIHEI;HI;96753;;;;KIHEI;HI;96753;;808-250-0753;16885;MELANIE AND STEVEN GASPAR;6;1 day;11 years;07/01/2018;06/30/2020
FCC;WINGATE CHUNG, DAPHNE W;;;;KAPOLEI;HI;96707;;;;KAPOLEI;HI;96707;;808-216-3638;16886;DAPHNE WINGATE-CHUNG & CLAYTON ;6;1 day;13 years;06/02/2018;06/01/2020
FCC;EMELIANO, DANIELLE K;;;;HONOLULU;HI;96813;;;;HONOLULU;HI;96813;;808-384-6064;16840;DANIELLE EMELIANO;6;3 months;6 years;03/01/2018;02/29/2020
FCC;NAKAISHI, LYNN L;;;;HILO;HI;96720;;;;HILO;HI;96720;;808-959-2019;16895;LYNN AND CRAIG NAKAISHI;6;6 weeks;7 years;06/22/2018;06/21/2019
FCC;ARIAL, ROBERT W;;;;HILO;HI;96720;;;;HILO;HI;96720;;808-829-9565(3/17);16945;ROBERT AND SHARON ARIAL;6;1 year;6 years;10/24/2017;10/23/2018
FCC;CANNE, ELIZABETH;;;;EWA BEACH;HI;96706;;;;EWA BEACH;HI;96706;;808-386-5077627-2906 218-1464;16899;ELIZABETH AND REYNALDO CANNE;6;2 months;12 years;04/01/2017;03/31/2019
FCC;ISAAKO, JOLENE N;;;;AIEA;HI;96701;;;;AIEA;HI;96701;;808-226-5465;16724;JOLENE ISAAKO AND DEAN CLEMENTE;5;2 months;8 years;06/16/2017;06/15/2019
FCC;KAM, CHERILYN Y;;;;WAIPAHU;HI;96797;;;;WAIPAHU;HI;96797;;808-754-2413;16725;CHERILYN AND ERNEST KAM;5;6 weeks;6 years;10/28/2016;10/27/2018
FCC;RECAMARA, ELIZABETH P;;;;KAPOLEI;HI;96707;;;;KAPOLEI;HI;96707;;808-672-3191;16793;ELIZABETH AND CHARLES RECAMARA;6;3 months;12 years;09/06/2016;09/05/2018
FCC;LORENZO, LORNA ANN P;;;;KAMUELA;HI;96743;;P.O. BOX 2313;;KAMUELA;HI;96743;;808-896-2177;16858;LORNA LORENZO AND BRAD FELICIANO;6;1 week;13 years;04/04/2017;04/03/2019
FCC;KELIIPAAKAUA, SHAYE M;;;;HILO;HI;96720;;;;HILO;HI;96720;;808-936-4377;17408;SHAYE AND KIMO KELIIPAAKAUA;6;6 weeks;5 years;09/29/2017;09/28/2018
FCC;HULLINGER, MARYJANE E;;;;KANEOHE;HI;96744;;;;KANEOHE;HI;96744;;808-421-8875;17411;MARY JANE HULLINGER;6;2 months;4 years;11/09/2017;11/08/2018
FCC;HAMMOND, JENNIFER L;;;;HONOLULU;HI;96821;;;;HONOLULU;HI;96821;;808-384-2179;17506;JENNIFER & GEORGE HAMMOND;6;6 weeks;13 years;12/12/2017;12/11/2018
FCC;MONIZ, SHERI A;;;;KAPOLEI;HI;96707;;;;KAPOLEI;HI;96707;;808-489-1848;17489;SHERI & STEVEN MONIZ, JR;6;6 months;6 years;12/05/2017;12/04/2018
FCC;ONNAGAN, SHELLY B;;;;KIHEI;HI;96753;;;;KIHEI;HI;96753;;808-298-3312;17527;SHELLY ONNAGAN AND ABRAHAM RUIZ;6;1 year;7 years;10/01/2017;09/30/2018
FCC;BROWN, JUSTINA K;;;;HILO;HI;96720;;;;HILO;HI;96720;;808-785-9474;17524;JUSTINA AND SIDRA BROWN;6;1 year;12 years;07/17/2018;07/16/2019
FCC;ALAKAI, JACQUELINE R;;;;PEARL CITY;HI;96782;;;;PEARL CITY;HI;96782;;808-541-7126;17536;JACQUELINE & JOSEPH ALAKAI;5;1 day;12 years;03/02/2018;03/01/2019
FCC;SMITH, SHERRY S;;;;EWA BEACH;HI;96706;;;;EWA BEACH;HI;96706;;808-779-2865;17515;SHERRY & CLARENCE SMITH, III;6;3 months;13 years;04/19/2018;04/18/2019
FCC;BALA, LEILANI V;;;;PEARL CITY;HI;96782;;;;PEARL CITY;HI;96782;;808-330-8225;16752;LEILANI AND LOUIE BALA;6;2 months;13 years;07/12/2017;07/11/2019
FCC;CONMY, VICTORIA;;;;KULA;HI;96790;;;;KULA;HI;96790;;808-280-5354;17602;VICTORIA & PETER CONMY;6;2 years;6 years;08/01/2017;07/31/2018
FCC;REYES, CHERLYN L;;;;EWA BEACH;HI;96706;;;;EWA BEACH;HI;96706;;808-797-7106;17423;CHERLYN & JERRICK REYES;6;1 day;13 years;12/02/2017;12/01/2018
FCC;MARROTTE, SHERYL ANNE C;;;;PAHOA;HI;96778;;P.O. BOX 1077;;KEAAU;HI;96749;;808-769-4532;17492;SHERYL ANNE AND CLIFFORD MARROTTE;6;2 years;10 years;08/30/2017;08/29/2018
FCC;VIERRA, LORNA L;;;;HONOLULU;HI;96813;;;;HONOLULU;HI;96813;;808-520-8422;17499;LORNA & HERBERT VIERRA;6;2 months;13 years;10/17/2017;10/16/2018
FCC;SCHUTTE, KIMBERLY K;;;;KAMUELA;HI;96743;;PO BOX 1685;;KAMUELA;HI;96743;;808-345-7590;17597;KIMBERLY AND BARNEY SCHUTTE;6;2 months;13 years;07/28/2017;07/27/2018
FCC;RITTECORPUZ, LIANA L;;;;HOOLEHUA;HI;96729;;PO BOX 376;;HOOLEHUA;HI;96729;;808-385-3371;17425;LI-ANA RITTE-CORPUZ AND FROILAN ;6;2 months;13 years;03/01/2018;02/28/2019
FCC;KUNISHIGE, GENOVIEVE H;;;;HILO;HI;96720;;;;HILO;HI;96720;;808-640-3727;17428;GENOVIEVE AND CRAIG KUNISHIGE;6;6 months;9 years;01/13/2018;01/12/2019
FCC;RHODEN, JULLIET S;;;;HONOLULU;HI;96816;;;;HONOLULU;HI;96816;;808-285-7308;17498;JULLIET RHODEN;6;6 months;6 years;10/01/2017;09/30/2018
FCC;FERENCE, DANA J;;;;EWA BEACH;HI;96706;;;;EWA BEACH;HI;96706;;808-636-1368;17600;DANA & JAMES FERENCE;6;1 year 1 month;10 years;08/10/2017;08/09/2018
FCC;BLACKBURN, MICHELLE L;;;;WAILUKU;HI;96793;;;;WAILUKU;HI;96793;;808-870-9011;17494;MICHELLE & JOSEPH BLACKBURN;6;2 years;6 years;07/01/2018;05/31/2019
FCC;KUAHUIA, CHEYENNE M;;;;KAPOLEI;HI;96707;;;;KAPOLEI;HI;96707;;808-640-5817;17540;CHEYENNE KUAHUIA & JAMES KANE;6;2 weeks;13 years;12/08/2017;12/07/2018
FCC;ZAGOURAS, KELLINA C;;;;MAKAWAO;HI;96768;;;;MAKAWAO;HI;96768;;808-214-6020;17616;KELLINA & KONSTANDINOS ZAGOURAS;6;3 years;7 years;12/11/2017;11/30/2018
FCC;BERNADES, THERESA K;;;;WAIPAHU;HI;96797;;;;WAIPAHU;HI;96797;;808-450-9182;17435;THERESA BERNADES;5;2 weeks;13 years;03/02/2018;03/01/2019
FCC;PECK, MARSHEAL B;;;;KAILUA-KONA;HI;96740;;;;KAILUA-KONA;HI;96740;;808-355-8129;17436;MARSHEAL AND BRIAN PECK;6;6 weeks;12 years;02/16/2018;02/15/2019
FCC;KREC, EVONNA I;;;;KAHULUI;HI;96732;;;;KAHULUI;HI;96732;;808-856-1685;17521;EVONNA AND LECH KREC;6;2 years;7 years;11/01/2017;10/31/2018
FCC;TACTAY, CATHERINE T;;;;AIEA;HI;96701;;;;AIEA;HI;96701;;808-342-7228;17495;CATHERINE AND MARK TACTAY;6;1 day;13 years;11/21/2017;11/20/2018
FCC;WALKER, LORRIE;;;;WAIMEA;HI;96796;;PO BOX 49;;WAIMEA;HI;96796;;808-639-9344;17553;MATTHEW AND LORRIE WALKER;4;2 months;13 years;05/11/2018;05/10/2019
FCC;KAPANUI, JOHANNA M;;;;WAIANAE;HI;96792;;;;WAIANAE;HI;96792;;808-636-0466;17556;JOHANNA & KEANUENUE KAPANUI;6;4 weeks;10 years;02/28/2018;02/27/2019
FCC;DEPONTE, NANETTE U;;;;KEAAU;HI;96749;;PO BOX 135;;KEAAU;HI;96749;;808-982-3868;17557;NANETTE AND STANLEY DEPONTE;6;1 year 6 months;5 years;01/09/2018;07/27/2018
FCC;GRADY, CHRYSTAL T;;;;KAPAA;HI;96746;;;;KAPAA;HI;96746;;808-652-0596;17586;TOMIO AND CHRYSTAL GRADY;5;1 day;14 years;06/09/2018;06/08/2019
FCC;SARSONA, RAMONA H;;;;KAPAA;HI;96746;;;;KAPAA;HI;96746;;808-635-6536;17594;PETER AND RAMONA SARSONA;6;1 year;11 years;06/30/2018;06/29/2019
FCC;BALI, DEBRA A;;;;HONOLULU;HI;96817;;;;HONOLULU;HI;96817;;808-536-9661;15327;DEBRA BALI;4;1 year;12 years;01/17/2018;01/16/2020
FCC;SILVA, RASIKA N;;;;HONOLULU;HI;96822;;;;HONOLULU;HI;96822;;808-521-4454;15346;RASIKA AND WASANTHA SILVA;6;3 months;12 years;04/18/2017;04/17/2019
FCC;RICKARD, TESSIE R;;;;KANEOHE;HI;96744;;;;KANEOHE;HI;96744;;808-235-0718;15766;TESSIE & WALTER RICKARD JR;6;6 weeks;5 years;11/22/2016;11/21/2018
FCC;SUNKE, MICHELLE L;;;;LANAI CITY;HI;96763;;PO BOX 631492;;LANAI CITY;HI;96763;;808-649-0991;17444;MICHELLE SUNKE;6;2 years 6 months;10 years;03/01/2018;02/28/2019
FCC;RUST, TANYA K;;;;WAILUKU;HI;96793;;;;WAILUKU;HI;96793;;808-244-1574;17484;TANYA RUST;6;1 day;6 years;09/01/2017;08/31/2018
FCC;JIMENEZ, ZOYA S;;;;KILAUEA;HI;96754;;PO BOX 446;;KILAUEA;HI;96754;;808-652-4899;17559;RONALD AND ZOYA JIMENEZ;5;1 month;12 years;05/16/2018;05/15/2019
FCC;KALILIKANE, SHANEL K;;;;PAAUILO;HI;96776;;PO BOX 370;;PAAUILO;HI;96776;;808-960-3015;17561;SHANEL KALILIKANE;6;2 months;10 years;04/12/2018;04/11/2019
FCC;ALMAREZ, CHERYL ANN H;;;;WAIPAHU;HI;96797;;;;WAIPAHU;HI;96797;;808-256-8617;16063;CHERYL-ANN AND JAMES ALMAREZ;6;3 months;5 years;01/10/2018;01/09/2020
FCC;PIPER, JOHNNETTA J;;;;MILILANI TOWN;HI;96789;;;;MILILANI TOWN;HI;96789;;808-265-7160;17585;JOHNNETTA & PATRICK PIPER;6;6 weeks;13 years;04/19/2018;04/18/2019
FCC;WOODWARD, LARALEI K;;;;KAPAA;HI;96746;;;;KAPAA;HI;96746;;808-346-8273;15897;LLEWELLYN & LARALEI WOODWARD;6;1 day;12 years;05/21/2018;05/20/2020
FCC;INES, RAYDYN K;;;;KAMUELA;HI;96743;;;;KAMUELA;HI;96743;;808-960-8044;17447;RAYDYN AND SEVERO INES JR, DBA ;6;6 weeks;13 years;04/20/2018;04/19/2019
FCC;LAU, TEHANI K;;;;KANEOHE;HI;96744;;;;KANEOHE;HI;96744;;808-265-8553;17563;TEHANI & HENRY LAU, III;4;1 week;13 years;06/07/2018;06/06/2019
FCC;DUCOSIN, RACHELLE L;;;;KAMUELA;HI;96743;;PO BOX 2211;;KAMUELA;HI;96743;;808-731-6070;17567;RACHELLE DUCOSIN AND GARRICK ;6;6 weeks;13 years;03/07/2018;03/06/2019
FCC;AKAO, IRIS B;;;;KAILUA-KONA;HI;96740;;;;KAILUA-KONA;HI;96740;;808-557-9109;17528;IRIS AKAO;6;6 weeks;12 years;01/17/2018;01/16/2019
FCC;HILTON, KELEA MARIA;;;;HONOLULU;HI;96818;;;;HONOLULU;HI;96818;;808-398-0425;17501;KELEA HILTON;5;6 weeks;6 years;10/01/2017;09/30/2018
FCC;KAMI, TERRI L;;;;PEARL CITY;HI;96782;;;;PEARL CITY;HI;96782;;808-216-8253;17519;TERRI AND ROBIN KAMI;6;6 weeks;5 years;09/16/2017;09/15/2018
FCC;AQUINO, MICHELLE J;;;;KAILUA;HI;96734;;;;KAILUA;HI;96734;;808-352-5760;17541;MICHELLE & DARRELL AQUINO;6;1 year;12 years;05/01/2018;04/30/2019
FCC;AIWOHI, HANNAH K;;;;WAIANAE;HI;96792;;;;WAIANAE;HI;96792;;808-268-1438;17568;HANNAH & KEALA AIWOHI;5;2 months;7 years;04/25/2018;04/24/2019
FCC;BELL, REBECCA J;;;;HAIKU;HI;96708;;;;HAIKU;HI;96708;;808-268-5334;17570;REBECCA BELL;6;1 day;13 years;07/01/2016;06/30/2018
FCC;MEZA, DIAMOND C;;;;EWA BEACH;HI;96706;;;;EWA BEACH;HI;96706;;808-777-9080;17571;DIAMOND AND ERNESTO MEZA;4;6 weeks;14 years;04/20/2018;04/19/2019
FCC;FRAZIER, CHRISTINA M;;;;EWA BEACH;HI;96706;;;;EWA BEACH;HI;96706;;808-237-0224;17590;CHRISTINA & CHARLES FRAZIER;6;6 weeks;10 years;09/29/2017;09/28/2018
FCC;MAGLINTI, AMY J;;;;KAPAA;HI;96746;;;;KAPAA;HI;96746;;808-635-7750;16780;CARLAN & AMY MAGLINTI;6;1 day;10 years;11/08/2016;11/07/2018
FCC;HUNTER, MELODY R;;;;ANAHOLA;HI;96703;;PO BOX 239;;KILAUEA;HI;96754;;808-346-5367;17367;MELODY HUNTER;5;1 day;13 years;10/13/2017;10/12/2019
FCC;YOU, DYNASTEE L;;;;KAPOLEI;HI;96707;;;;KAPOLEI;HI;96707;;808-554-5735;17402;DYNASTEE & SAM YOU;6;2 months;6 years;09/01/2017;08/31/2018
FCC;ADAMS, DANIELLE M;;;;KULA;HI;96790;;;;KULA;HI;96790;;808-250-5579;17463;DANIELLE ADAMS;6;2 years;6 years;06/01/2018;05/31/2019
FCC;MIGUEL, JENNIFERLOUISE K;;;;KAPOLEI;HI;96707;;;;KAPOLEI;HI;96707;;808-782-3938;17468;JENNIFER-LOUISE MIGUEL;6;6 weeks;6 years;06/15/2018;06/14/2019
FCC;DOMENDEN, ROSELINE K;;;;LIHUE;HI;96766;;PO BOX 1062;;LIHUE;HI;96766;;808-645-0258;17469;ALEJANDRO AND ROSELINE DOMENDEN;6;1 day;12 years;09/07/2017;09/06/2018
FCC;HILLEN, LINDSEY K;;;;KAHULUI;HI;96732;;;;KAHULUI;HI;96732;;808-306-7814;17242;LINDSEY AND NATHAN HILLEN;6;6 weeks;6 years;07/01/2018;06/30/2020
FCC;PURDY, LACEY K;;;;MILILANI TOWN;HI;96789;;;;MILILANI TOWN;HI;96789;;808-364-4477;17243;LACEY PURDY;3;6 weeks;12 years;08/05/2017;08/04/2018
FCC;CHANG, SHAWNA M;;;;LAHAINA;HI;96761;;;;LAHAINA;HI;96761;;808-667-7655;17328;SHAWNA & RYAN CHANG;6;6 months;5 years;03/01/2018;02/29/2020
FCC;MCCOMBER, HELEN K;;;;KAPOLEI;HI;96707;;;;KAPOLEI;HI;96707;;808-636-7892;17330;HELEN AND MONTE MCCOMBER;6;3 years;6 years;02/04/2018;02/03/2019
FCC;KAKSHAPATI, SALINA;;;;HONOLULU;HI;96813;;;;HONOLULU;HI;96813;;808-429-1546;17183;SALINA & BIKRAM KAKSHAPATI;6;4 weeks;10 years;04/01/2018;03/31/2020
FCC;TOKUHISA, ROBIN E;;;;EWA BEACH;HI;96706;;;;EWA BEACH;HI;96706;;808-721-5209;17254;ROBIN AND KEVIN TOKUHISA;6;1 month;7 years;05/14/2018;05/13/2019
FCC;PEILER, MICHELLE K;;;;MILILANI TOWN;HI;96789;;;;MILILANI TOWN;HI;96789;;808-625-2577;17255;MICHELLE AND RON PEILER;6;6 weeks;12 years;07/22/2017;07/21/2018
FCC;LOPEZ, WENDY F;;;;HILO;HI;96720;;;;HILO;HI;96720;;808-959-5171;17331;WENDY AND ALBERT LOPEZ;6;2 months;5 years;04/15/2018;04/14/2019
FCC;COFFMAN, GALINA N;;;;LIHUE;HI;96766;;;;LIHUE;HI;96766;;808-634-8401;17334;COFFMAN, GALINA;4;1 day;12 years;05/24/2018;05/23/2019
FCC;GENOVIA, HEALOHAMELE W;;;;KAMUELA;HI;96743;;;;KAMUELA;HI;96743;;808-315-0080;17353;HEALOHAMELE GENOVIA;6;6 months;12 years;06/19/2018;06/18/2019
FCC;AINA-PAAOAO, CHANELLE L;;;;HILO;HI;96720;;;;HILO;HI;96720;;808-430-9770;17149;CHANELLE AINA-PA'AOAO AND HIENJI ;6;2 months;11 years;10/31/2017;10/30/2018
FCC;KUINKEL, SHANTA P;;;;HONOLULU;HI;96826;;;;HONOLULU;HI;96826;;808-892-4046;17150;SHANTA KUINKEL & NAVA RAJ KUINKEL;6;2 months;10 years;07/01/2017;06/30/2019
FCC;ZANE, JEREMY D;;;;KAHULUI;HI;96732;;;;KAHULUI;HI;96732;;808-877-3220;17200;JEREMY AND DARRYL ZANE;6;3 months;11 years;04/01/2018;03/31/2020
FCC;AKANA, DORISANN M;;;;MAKAWAO;HI;96768;;;;MAKAWAO;HI;96768;;808-268-9337;17202;DORIS ANN & JOHN AKANA;6;1 day;9 years;05/01/2018;04/30/2019
FCC;VIA, DANIELLE R;;;;KIHEI;HI;96753;;;;KIHEI;HI;96753;;808-269-6161;17278;DANIELLE AND TERRY VIA;6;1 year;11 years;10/01/2017;09/30/2018
FCC;ECHAVARIA, PEGEEN C;;;;MILILANI TOWN;HI;96789;;;;MILILANI TOWN;HI;96789;;808-381-5372;17361;PEGEEN AND TERRENCE ECHAVARIA;6;1 year 6 months;6 years;07/23/2017;07/22/2018
FCC;FERNANDEZ, BRENDA B;;;;KAHULUI;HI;96732;;;;KAHULUI;HI;96732;;808-877-0587;17153;BRENDA FERNANDEZ;6;1 day;7 years;10/01/2017;09/30/2018
FCC;LUPSKI, JAMEY K;;;;EWA BEACH;HI;96706;;;;EWA BEACH;HI;96706;;808-782-7616;17204;JAMEY AND MICHAEL LUPSKI;5;6 weeks;6 years;03/31/2018;03/30/2019
FCC;PETERSEN, LINDA L;;;;MAKAWAO;HI;96768;;;;MAKAWAO;HI;96768;;808-280-1465;17284;LINDA PETERSEN;6;2 years;13 years;09/01/2017;08/31/2019
FCC;KEUSEN DAYAO, EVA C;;;;HONOLULU;HI;96815;;;;HONOLULU;HI;96815;;808-388-4787;17210;EVA KEUSEN DAYAO & MARK DAYAO;6;1 year;9 years;08/01/2017;07/31/2018
FCC;RIECK, MARIE G;;;;KEAAU;HI;96749;;HC 3 BOX 11021;;KEAAU;HI;96749;;808-966-4436;17289;MARIE'S MONTESSORI HALE;6;2 years;6 years;10/20/2017;10/19/2018
FCC;ABREU, JOLLEEN L;;;;LIHUE;HI;96766;;;;LIHUE;HI;96766;;808-652-2652;17158;KALANI AND JOLLEEN ABREU;6;1 year 6 months;5 years;10/01/2017;09/30/2018
FCC;ALIPIO, GINETTE M;;;;HONOLULU;HI;96822;;;;HONOLULU;HI;96822;;808-382-3009;17159;GINETTE ALIPIO;6;4 months;5 years;01/02/2017;01/01/2019
FCC;WILLIAMSON, KATHLEEN M;;;;PAHOA;HI;96778;;PO BOX 1453;;PAHOA;HI;96778;;808-469-4847;17292;KATHLEEN WILLIAMSON;6;1 year;7 years;11/14/2017;11/13/2018
FCC;FLETCHER, MARLA L;;;;EWA BEACH;HI;96706;;;;EWA BEACH;HI;96706;;808-744-1186;17295;MARLA AND MICHAEL FLETCHER;6;4 months;12 years;03/09/2018;03/08/2019
FCC;GAUI, JENNIE P;;;;EWA BEACH;HI;96706;;;;EWA BEACH;HI;96706;;808-852-1270;17220;JENNIE GAUI;6;1 day;13 years;05/07/2018;05/06/2019
FCC;ASO, LUPE H;;;;WAILUKU;HI;96793;;;;WAILUKU;HI;96793;;808-298-7217;17301;LUPE ASO & BABY MAHE;6;1 day;7 years;01/01/2018;12/31/2018
FCC;MARTINS, ANNA C;;;;HILO;HI;96720;;;;HILO;HI;96720;;808-935-7170;17381;ANNA AND CHARLES MARTINS;6;1 year 6 months;8 years;08/20/2017;08/19/2018
FCC;FIGUEROA, MARYANN T;;;;KAPOLEI;HI;96707;;;;KAPOLEI;HI;96707;;808-368-3081;17387;MARYANN & JAMES FIGUEROA, JR.;6;6 weeks;10 years;08/28/2017;08/27/2018
FCC;DIRE, SHERRY L;;;;KOLOA;HI;96756;;;;KOLOA;HI;96756;;808-346-8306;17305;JAMES & SHERRY DIRE;6;1 year;6 years;02/17/2018;02/16/2019
FCC;HAYASHI, MEGAN L;;;;EWA BEACH;HI;96706;;;;EWA BEACH;HI;96706;;808-230-5059;17169;MEGAN HAYASHI AND ALVIN AGUSTIN;5;1 day;13 years;11/08/2017;11/07/2018
FCC;BALINBIN, ELIZABETH E;;;;KAHULUI;HI;96732;;;;KAHULUI;HI;96732;;651-245-8086;17231;ELIZABETH AND ERIC BALINBIN;6;1 day;7 years;09/01/2017;08/31/2018
FCC;REYES, ANGELA C;;;;KAHULUI;HI;96732;;;;KAHULUI;HI;96732;;808-276-7438;17307;ANGELA AND THOMAS REYES;6;2 years;6 years;02/01/2018;01/31/2019
FCC;WRIGHT, RACHEL-LEIGH K;;;;KAPOLEI;HI;96707;;;;KAPOLEI;HI;96707;;808-778-0563;17126;RACHEL-LEIGH WRIGHT;5;3 months;12 years;06/10/2018;06/09/2020
FCC;MARTINEZ, SHANNAN M;;;;WAIPAHU;HI;96797;;;;WAIPAHU;HI;96797;;808-888-0852;17317;SHANNAN & RUSSELL MARTINEZ;5;1 month;12 years;02/27/2017;02/26/2019
FCC;JACOBS, DALE;;;;KILAUEA;HI;96754;;;;KILAUEA;HI;96754;;808-828-1294;15010;DALE JACOBS;6;1 year;12 years;11/25/2017;11/24/2019
FCC;DELAESPRIELLA, DESIREE C;;;;LAHAINA;HI;96761;;P O BOX 12838;;LAHAINA;HI;96761;;954-397-9355;17630;DESIREE AND OSCAR DE LA ESPRIELLA;6;1 day;7 years;01/16/2018;11/30/2018
FCC;DEMELLO, DORIANN L;;;;WAIANAE;HI;96792;;;;WAIANAE;HI;96792;;808-927-1567;17623;DORIANN & WILLIAM DEMELLO;6;3 years;5 years;11/16/2017;11/15/2018
FCC;SAIKI-SAWAMURA, AMY S;;;;AIEA;HI;96701;;;;AIEA;HI;96701;;808-488-7933;14128;AMY SAIKI-SAWAMURA & EDWARD ;6;2 months;5 years;12/09/2017;12/08/2019
FCC;OHIA, CASSIDY C;;;;KAPOLEI;HI;96707;;;;KAPOLEI;HI;96707;;808-542-3879;17627;CASSIDY AND ALAKAI OHIA;5;6 weeks;13 years;12/11/2017;12/10/2018
FCC;GONSALVES, LINDA M;;;;EWA BEACH;HI;96706;;;;EWA BEACH;HI;96706;;808-312-2248;17280;LINDA AND WILLIAM GONSALVES;6;6 weeks;14 years;09/15/2017;09/14/2018
FCC;OLIVEIRA, TIFFANY M;;;;KAHULUI;HI;96732;;;;KAHULUI;HI;96732;;808-205-1071;17639;TIFFANY OLIVEIRA AND ROYCE ;5;1 day;13 years;02/26/2018;02/28/2019
FCC;ERMITANO, SUSANA M;;;;MOUNTAINVIEW;HI;96771;;P.O. BOX 662;;MOUNTAINVIEW;HI;96771;;808-968-6979;17641;SUSANA ERMITANO;6;3 months;13 years;12/06/2017;03/07/2019
FCC;CUMMINGS, KUULEI A;;;;ANAHOLA;HI;96703;;PO BOX 1913;;KAPAA;HI;96746;;808-652-2587;17657;KAPENA AND KUULEI CUMMINGS;4;1 day;12 years;06/25/2018;06/24/2019
FCC;POLENDEY, KIMBERLY J;;;;PAIA;HI;96779;;;;PAIA;HI;96779;;808-579-9378;17633;KIMBERLY POLENDEY;6;1 year 6 months;7 years;12/01/2017;11/30/2018
FCC;KEKIPI, UATUAHINE K;;;;WAIKOLOA;HI;96738;;P.O. BOX 385348;;WAIKOLOA;HI;96738;;808-785-4334;17667;WAIKOLOA KEIKI DAYCARE;0;;;;
FCC;PASCO, MISTY L;;;;KIHEI;HI;96753;;;;KIHEI;HI;96753;;808-357-3733;17675;MISTY PASCO;6;1 year 6 months;4 years;07/01/2018;06/30/2019
FCC;SANTOSBRAS, CECILIA I;;;;PUKALANI;HI;96788;;;;PUKALANI;HI;96788;;808-357-7948;17610;CECELIA SANTOS BRAS;6;1 day;13 years;08/08/2017;07/31/2018
FCC;OTAKE, RUBYLYN P;;;;KAHULUI;HI;96732;;;;KAHULUI;HI;96732;;808-269-5490;17618;RUBYLYN AND CHAD OTAKE;6;1 day;6 years;10/01/2017;09/30/2018
FCC;NOBREGA, CRYSTALNANEA K;;;;KAPAA;HI;96746;;;;KAPAA;HI;96746;;808-652-4163;17636;CRYSTAL NANEA NOBREGA;5;1 month;7 years;04/09/2018;04/08/2019
FCC;IHA, SUSAN;;;;KAILUA;HI;96734;;;;KAILUA;HI;96734;;;17619;SUSAN IHA;6;6 weeks;13 years;01/15/2018;01/14/2019
FCC;IAUKEA, CHRISTINA P;;;;KAILUA-KONA;HI;96740;;;;KAILUA-KONA;HI;96740;;808-896-3208;17532;CHRISTINA IAUKEA AND LUIS ALVES, DBA ;6;1 month;13 years;07/05/2017;07/04/2018
FCC;COBBADAMS, MONICA A;;;;KAILUA;HI;96734;;;;KAILUA;HI;96734;;808-263-3746;13056;COBBADAMS, MONICA & JACOB;6;6 weeks;13 years;03/21/2018;03/20/2020
FCC;MATSUYAMA, LAURA A;;;;LIHUE;HI;96766;;;;LIHUE;HI;96766;;808-346-8960;17100;ROY & LAURA MATSUYAMA;6;1 day;11 years;03/21/2018;03/20/2020
FCC;GARVIN, YUANA;;;;MAKAWAO;HI;96768;;;;MAKAWAO;HI;96768;;808-633-4189;15878;YUANA GARVIN;6;1 year;6 years;04/01/2018;03/31/2020
FCC;DOUGHERTY, NOREEN;;;;KAPAA;HI;96746;;PO BOX 685;;KAPAA;HI;96746;;808-823-0619;15946;NOREEN DOUGHERTY;6;2 years 6 months;12 years;08/24/2017;08/23/2019
FCC;YAMASHITA, LINDA C;;;;KAILUA-KONA;HI;96740;;;;KAILUA-KONA;HI;96740;;808-325-5498;17677;JUST KIDDING AROUND CHILDCARE;0;;;;
FCC;PINT, MEILANI;;;;KAPOLEI;HI;96707;;;;KAPOLEI;HI;96707;;808-384-8657;17298;MEILANI & MARK PINT;5;1 year 6 months;13 years;08/26/2017;08/25/2018
FCC;GAMBILL, CRYSTAL A;;;;KAILUA-KONA;HI;96740;;;;KAILUA-KONA;HI;96740;;808-990-8916;17270;CRYSTAL AND CHRISTEPHER GAMBILL;6;2 months;12 years;01/06/2018;01/05/2019
FCC;ANDAYA, NATASHA L;;;;MAKAWAO;HI;96768;;PO BOX 880559;;PUKALANI;HI;96788;;808-573-6909;17625;NATASHA & KAILANA ANDAYA;6;2 months;13 years;11/06/2017;11/30/2018
FCC;RAPOZO, ASHLEY A;;;;ANAHOLA;HI;96703;;PO BOX 112;;ANAHOLA;HI;96703;;808-652-5090;17634;RAY AND ASHLEY RAPOZO JR;3;1 month;12 years;03/01/2018;02/28/2019
FCC;NEWHOUSE, NICOLE A;;;;LIHUE;HI;96766;;;;LIHUE;HI;96766;;808-635-0232;17529;NICOLE NEWHOUSE;6;1 year;12 years;03/01/2018;12/28/2018
FCC;PEGUERO, RACHEL L;;;;WAIKOLOA;HI;96738;;;;WAIKOLOA;HI;96738;;408-775-2280;17640;RACHEL PEGUERO AND EMELIANO ;6;6 months;5 years;02/08/2018;02/07/2019
FCC;SANTOS, MAELISA;;;;WAILUKU;HI;96793;;;;WAILUKU;HI;96793;;808-250-0741;17672;MAELISA & CLIFFORD SANTOS;6;1 day;13 years;06/01/2018;05/31/2020
FCC;KENUI, DORIS M;;;;KEAAU;HI;96749;;PO BOX 2049;;KEAAU;HI;96749;;808-982-9798;17451;DORIS KENUI;6;1 year;5 years;05/11/2018;05/10/2019
FCC;GERSABA, FILEXTINE P;;;;EWA BEACH;HI;96706;;;;EWA BEACH;HI;96706;;808-222-3020;15650;FILEXTINE AND RYAN GERSABA;6;1 day;6 years;06/19/2018;06/18/2020
GCC;DOMINICAN SISTERS OF THE MOST HOLY;;94-1249 LUMIKULA ST;;WAIPAHU;HI;96797;;94-1249 LUMIKULA ST;;WAIPAHU;HI;96797;SISTER CECILIA FABULAR;808-676-1452;14124;ROSARY PRESCHOOL;58;3 years;6 years;05/16/2018;05/15/2020
GCC;DORIS TODD CHRISTIAN ACADEMY;;519 BALDWIN AVENUE;;PAIA;HI;96779;;519 BALDWIN AVENUE;;PAIA;HI;96779;ALEA TUPUA;808-579-8334;14679;DORIS TODD CHRISTIAN ACADEMY;35;3 years;6 years;06/01/2017;05/31/2019
GCC;E MALAMA I NA KEIKI O LANAI;;751 FRASER AVE;;LANAI CITY;HI;96763;;PO BOX 630327;;LANAI CITY;HI;96763;JANINE CERVANTES;808-565-6266;14386;E MALAMA I NA KEIKI O LANAI ;36;2 years;6 years;03/01/2017;03/31/2019
GCC;ABUNDANT LIFE UNITED PENTECOSTAL CHURCH;;650 KILANI AVE;;WAHIAWA;HI;96786;;650 KILANI AVE;;WAHIAWA;HI;96786;JUDITH WASSON;808-621-5433;13680;ABUNDANT LIFE CHILD CARE CENTER;45;2 years;8 years;12/01/2017;11/30/2019
GCC;AE KAMALII PRESCHOOL;;2943 KRESS ST;;LIHUE;HI;96766;;2943 KRESS ST;SUITE B;LIHUE;HI;96766;PENNI TAKETA;808-245-6622;14250;AE KAMALII PRESCHOOL;40;2 years;8 years;05/02/2017;05/01/2019
GCC;AHA PUNANA LEO INC;;103 SOUTH HIGH ST;;WAILUKU;HI;96793;;96 PUUHONU PLACE;;HILO;HI;96720;CHRISTINE KILI NAMAUU;808-244-5676;14466;PUNANA LEO O MAUI;30;2 years;6 years;11/01/2016;10/31/2018
GCC;AHA PUNANA LEO INC;;2200 FARRINGTON AVE;;HOOLEHUA;HI;96729;;96 PUUHONU STREET;;HILO;HI;96720;"CHERYL ""UILANI"" RAMOS";808-567-9211;14467;PUNANA LEO O MOLOKAI;24;2 years;6 years;11/01/2016;10/31/2018
GCC;AHA PUNANA LEO INC;;31821H KAUMUALII HWY;;LIHUE;HI;96766;;96 PUUHONU PL;;HILO;HI;96720;PUALANI KAHOOHANOHANO;808-935-4304(808);12308;PUNANA LEO O KAUAI;30;2 years;6 years;11/01/2016;10/31/2018
GCC;AHA PUNANA LEO INC;;811004 KONAWAENA SCH. RD;;KEALAKEKUA;HI;96750;C/O AHA PUNANA LEO INC;96 PUUHONU PLACE;;HILO;HI;96720;PUALANI KAHOOHANOHANO;808-323-8052;12312;PUNANA LEO O KONA;15;2 years;6 years;11/01/2017;10/31/2019
GCC;AHA PUNANA LEO INC;;64756 MAMALAHOA HWY;;KAMUELA;HI;96743;C/O AHA PUNANA LEO INC.;96 PUUHONU PLACE;;HILO;HI;96720;ERIN O'DONNELL;808-885-7166;12317;PUNANA LEO O WAIMEA;24;2 years;6 years;11/01/2016;10/31/2018
GCC;ALL SAINTS PRESCHOOL;;1065 KUHIO HWY;;KAPAA;HI;96746;;PO BOX 248;;KAPAA;HI;96746;RYAN NEWMAN;808-822-0122;14251;ALL SAINTS PRESCHOOL;60;2 years 10 months;6 years;03/18/2017;03/17/2019
GCC;MERRY GO ROUND PRESCHOOL;;98-456 KAAHELE ST;;AIEA;HI;96701;;94-069 WAIPAHU ST;;WAIPAHU;HI;96797;ROSE;808-677-8009;13719;ALPHABETLAND PRESCHOOL AND ;84;2 years;6 years;05/01/2017;04/30/2019
GCC;MERRY GO ROUND PRESCHOOL;;1716 KOMO MAI DR;;PEARL CITY;HI;96782;;94-069 WAIPAHU ST;;WAIPAHU;HI;96797;GWEN HAMAMURA;808-677-8009;13720;ALPHABETLAND PRESCHOOL - PEARL ;69;1 year;6 years;06/01/2018;05/31/2020
GCC;MERRY GO ROUND PRESCHOOL;;94-069 WAIPAHU ST;;WAIPAHU;HI;96797;;94-069 WAIPAHU ST;;WAIPAHU;HI;96797;AMY ARIZALA;808-677-8009;15283;ALPHABETLAND PRESCHOOL - WAIPAHU;170;2 years;6 years;06/01/2018;05/31/2020
GCC;ANGELS AT PLAY PRESCHOOL & KINDERGARTEN;;2062 S KING ST;;HONOLULU;HI;96826;;2062 S KING ST;;HONOLULU;HI;96826;LORI AGENA;808-944-2625;12997;ANGELS AT PLAY PRESCHOOL & ;90;2 years 8 months;7 years;06/01/2017;05/31/2019
GCC;CALVARY UNITED PENTECOSTAL CHURCH;;1215 ALA AOLANI ST;;HONOLULU;HI;96819;;1215 ALA AOLANI ST;;HONOLULU;HI;96819;KATHLEEN AGBISIT;808-834-5728;13748;CALVARY CHILD CARE CENTER;49;2 years;6 years;01/01/2016;12/31/2018
GCC;CENTRAL UNION CHURCH;;1660 S BERETANIA ST;;HONOLULU;HI;96826;;1660 S BERETANIA;;HONOLULU;HI;96826;MARIE HOOK;808-946-4025X101;13040;CENTRAL UNION CHURCH PRESCHOOL ;192;2 years;7 years;07/01/2017;06/30/2019
GCC;CHAMINADE UNIVERSITY OF HONOLULU;;3140 WAIALAE AVE;;HONOLULU;HI;96816;;3140 WAIALAE AVE;;HONOLULU;HI;96816;FRANCESCA DEMATTOS;808-735-4875;13294;L ROBERT ALLEN MONTESSORI CENTER;36;2 years 9 months;7 years;09/01/2017;08/31/2019
GCC;CHILD & FAMILY SERVICES KAUAI;;4160 HOALA ST;BUILDING 1;LIHUE;HI;96766;;2970 KELE ST;203;LIHUE;HI;96766;REINA KURISU;808-652-9262;14290;KOA KEIKI HEAD START;20;2 years 9 months;6 years;10/01/2016;09/30/2018
GCC;CHILD & FAMILY SERVICES KAUAI;;3223 POIPU RD;;KOLOA;HI;96756;;2970 KELE ST;203;LIHUE;HI;96766;REINA KURISU;808-652-9262;14773;KOLOA HEAD START;18;2 years 9 months;6 years;10/04/2016;09/25/2018
GCC;CHRIST THE KING CHURCH;;211 KAULAWAHINE ST;;KAHULUI;HI;96732;;211 KAULAWAHINE ST;;KAHULUI;HI;96732;CAROLE ARAKAWA;808-877-3587;14373;CHRIST THE KING CHILD DEVELOPMENT ;49;2 years;7 years;06/01/2018;05/31/2020
GCC;FIRST ASSEMBLY OF GOD;;3400 MOANALUA RD;;HONOLULU;HI;96819;;3400 MOANALUA RD;;HONOLULU;HI;96819;KATHRYN NISHIE;808-836-0233;13700;CHRISTIAN ACADEMY PRESCHOOL;115;2 years;6 years;01/20/2017;01/19/2019
GCC;KAAHUMANU HOU CHRISTIAN SCHOOL;;777 MOKULELE HIGHWAY;;KAHULUI;HI;96732;;777 MOKULELE HIGHWAY;;KAHULUI;HI;96732;JONI UEMURA;808-871-2477;14451;NOAHS ARK EARLY CHILDHOOD CENTER;64;2 years;6 years;11/01/2017;10/31/2019
GCC;FIRST BAPTIST CHURCH OF HALEIWA;;66-415 HALEIWA RD;;HALEIWA;HI;96712;;66-415 HALEIWA RD;;HALEIWA;HI;96712;TONI RESPICIO;808-637-4847;13786;FIRST BAPTIST PRESCHOOL OF HALEIWA;65;2 years;9 years;11/01/2017;10/31/2019
GCC;THE FIRST CHINESE CHURCH OF CHRIST;;1061 YOUNG ST;;HONOLULU;HI;96814;;1061 YOUNG ST;;HONOLULU;HI;96814;NANCY GRANT;808-593-9889;13093;THE FIRST CHINESE CHURCH OF CHRIST ;49;2 years;6 years;07/01/2017;06/30/2019
GCC;FIRST UNITED METHODIST CHURCH;;1020 S  BERETANIA ST;;HONOLULU;HI;96814;;1020 S BERETANIA ST;;HONOLULU;HI;96814;HELENA OGLE;808-522-9565;13094;FIRST UNITED METHODIST CHURCH ;49;2 years;12 years;02/01/2017;01/31/2019
GCC;FRIENDSHIP BIBLE CHURCH;;91-1207 RENTON RD;;EWA BEACH;HI;96706;;91-1207 RENTON RD;;EWA BEACH;HI;96706;MOLLY NORDEN;808-687-3638;13792;FRIENDSHIP CHRISTIAN SCHOOLS AT ;131;2 years 8 months;7 years;01/05/2017;01/04/2019
GCC;GOOD SHEPHERD LUTHERAN LCMS;;638 N KUAKINI ST;;HONOLULU;HI;96817;;638 N KUAKINI ST;;HONOLULU;HI;96817;RITA TAM WAT;808-533-3088;13117;GOOD SHEPHERD PRESCHOOL;100;2 years 8 months;8 years;04/10/2017;05/31/2019
GCC;HALEAKALA WALDORF SCHOOL;;4160 LOWER KULA ROAD;;KULA;HI;96790;;4160 LOWER KULA ROAD;;KULA;HI;96790;GISELE LALOND;808-878-2511;14545;HALEAKALA WALDORF SCHOOL;78;2 years;7 years;11/01/2017;10/31/2019
GCC;HANALANI SCHOOLS;;94-294 ANANIA DR;;MILILANI TOWN;HI;96789;;94-294 ANANIA DR;;MILILANI TOWN;HI;96789;HEATHER TALMAGE;808-625-0737;13819;HANALANI SCHOOLS EARLY CHILDHOOD;116;2 years;6 years;02/01/2018;01/31/2020
GCC;WAIOKEOLA CHURCH PRESCHOOL;;4705 KILAUEA AVE;;HONOLULU;HI;96816;;4705 KILAUEA AVE;;HONOLULU;HI;96816;LILY VIRAY-WRIGHT;808-734-4277;13656;WAIOKEOLA CHURCH PRESCHOOL;120;2 years 8 months;6 years;09/01/2017;08/31/2019
GCC;KAHULUI BAPTIST CHURCH;;309 S PUUNENE AVE;;KAHULUI;HI;96732;;309 S PUUNENE AVE;;KAHULUI;HI;96732;MELANIE NISHITA;808-877-7243;14399;KAHULUI BAPTIST PRESCHOOL;72;2 years 8 months;6 years;02/01/2017;01/31/2019
GCC;KAHULUI UNION CHURCH;;101 W KAMEHAMEHA AVE;;KAHULUI;HI;96732;;101 W KAMEHAMEHA AVE;;KAHULUI;HI;96732;CHARLENE DOI;808-871-6955;14403;KAHULUI UNION CHURCH PRESCHOOL;32;2 years 6 months;6 years;05/01/2018;04/30/2020
GCC;KAILUA METHODIST PRESCHOOL;;1110 KAILUA RD;;KAILUA;HI;96734;;1110 KAILUA RD;;KAILUA;HI;96734;JADE SANTOS;808-262-7674;13205;KAILUA METHODIST PRESCHOOL;49;2 years;6 years;02/01/2017;01/31/2019
GCC;KAIMUKI CHRISTIAN SCHOOL;;1117 KOKO HEAD AVE;;HONOLULU;HI;96816;;1117 KOKO HEAD AVE;;HONOLULU;HI;96816;MARK GALLAGHER;808-732-1781;13208;KAIMUKI CHRISTIAN SCHOOL;90;2 years;12 years;12/01/2016;11/30/2018
GCC;KALAHEO MISSIONARY PRESCHOOL;;4480 HOKUA RD;;KALAHEO;HI;96741;;PO BOX 395;;KALAHEO;HI;96741;CORINNE BARCELONA;808-332-5550;14281;KALAHEO MISSIONARY PRESCHOOL;16;3 years 7 months;6 years;01/19/2017;01/18/2019
GCC;KAMAAINA CARE INC;ROOMS 1, 2, 3, 4, & 5;539 KAPAHULU AVE;;HONOLULU;HI;96815;;156 HAMAKUA DR;C;KAILUA;HI;96734;LESLIE COLBY;808-734-6112;13229;KAMAAINA KIDS ST MARKS CHILDRENS ;103;2 years;6 years;12/01/2016;11/30/2018
GCC;KAMAAINA CARE INC;;4857 BOUGAINVILLE DR;;HONOLULU;HI;96818;;156C HAMAKUA DRIVE;;KAILUA;HI;96734;CHANELLE MATTOS;808-422-9491;13861;KAMAAINA KIDS - MOANALUA;89;2 years;6 years;06/16/2018;06/15/2020
GCC;KAMAAINA CARE INC;;784 KAMEHAMEHA HWY;;PEARL CITY;HI;96782;;156 HAMAKUA DR;C;KAILUA;HI;96734;CHANELLE MATTOS;808-455-3330;13862;KAMAAINA KIDS - PEARL CITY ;54;2 years;6 years;01/29/2017;01/28/2019
GCC;KAMAAINA CARE INC;;91-1841 FT WEAVER RD;;EWA BEACH;HI;96706;;156 HAMAKUA DR;C;KAILUA;HI;96734;ERNESTINE MIRANDA;808-681-1503;14728;KAMAAINA KIDS @ CFS EWA PRESCHOOL;47;2 years;6 years;08/16/2017;08/15/2018
GCC;KAMAAINA CARE INC;;38 KANEOHE BAY DR;;KAILUA;HI;96734;;156 HAMAKUA DR;C;KAILUA;HI;96734;NICOLE SHODAHL;808-254-5402;13220;KAMAAINA KIDS AIKAHI;59;2 years;6 years;06/01/2017;05/31/2019
GCC;HAWAII BAPTIST ACADEMY;;21 BATES ST;;HONOLULU;HI;96817;;21 BATES ST;;HONOLULU;HI;96817;CHERYL HIGA;808-545-4485;13134;HAWAII BAPTIST ACADEMY SUMMER ;45;4 years;6 years;06/01/2017;05/31/2019
GCC;HAWAII KAI BAPTIST CHURCH;;265 LUNALILO HOME RD;;HONOLULU;HI;96825;;265 LUNALILO HOME RD;;HONOLULU;HI;96825;CHARLENE SATO;808-395-7854;13136;HAWAII KAI CHURCH EARLY LEARNING ;80;2 years 8 months;6 years;05/01/2018;04/30/2020
GCC;HOLY FAMILY CATHOLIC ACADEMY;;830 MAIN STREEET;;HONOLULU;HI;96818;;830 MAIN STREET;;HONOLULU;HI;96818;ALLEN AKIONA;808-421-1265;13831;HOLY FAMILY EARLY LEARNING CENTER;108;2 years 8 months;8 years;07/09/2017;07/08/2019
GCC;HOLY INNOCENTS EPISCOPAL CHURCH;;561 FRONT ST;;LAHAINA;HI;96761;;561 FRONT ST;;LAHAINA;HI;96761;CYNTHIA SHIBAO;808-667-9058;14342;HOLY INNOCENTS PRESCHOOL;34;3 years;7 years;05/01/2017;04/30/2019
GCC;HOLY NATIVITY SCHOOL;;5286 KALANIANAOLE HWY;;HONOLULU;HI;96821;;5286 KALANIANAOLE HW;;HONOLULU;HI;96821;DEDEE WONG;808-373-3232;13158;HOLY NATIVITY SCHOOL;46;2 years;6 years;09/01/2016;08/31/2018
GCC;HONOLULU CHRISTIAN CHURCH;;2207 OAHU AVE;;HONOLULU;HI;96822;;2207 OAHU AVE;;HONOLULU;HI;96822;SUZANNE HERDER;808-973-4340;13622;THE HONOLULU CHRISTIAN PRESCHOOL;49;2.5 years;6 years;02/01/2017;01/31/2019
GCC;HONOLULU COMMUNITY ACTION PROGRAM INC;;94-1170 WAIPAHU ST;ROOM 1-3A;WAIPAHU;HI;96797;;94-810 MOLOALO ST;SUITE 200;WAIPAHU;HI;96797;MARGIE HIGA;808-686-7292;13996;HCAP HEAD START AUGUST AHRENS ;24;3 years;6 years;12/01/2016;11/30/2018
GCC;HONOLULU COMMUNITY ACTION PROGRAM INC;;45-259 WAIKALUA RD;A6;KANEOHE;HI;96744;;94-810 MOLOALO ST;SUITE 200;WAIPAHU;HI;96797;KATHLEEN H MINAMI;808-235-4172;13998;HCAP HEAD START BEN PARKER ;20;3 years;6 years;06/01/2018;05/31/2020
GCC;HONOLULU COMMUNITY ACTION PROGRAM INC;;54-046 KAMEHAMEHA HWY;RM C15;HAUULA;HI;96717;;94-810 MOLOALO ST;SUITE 200;WAIPAHU;HI;96797;PATTY WILLIAMS;808-293-1934;14002;HCAP HEAD START HAUULA ;20;3 years;6 years;12/01/2016;11/30/2018
GCC;HONOLULU COMMUNITY ACTION PROGRAM INC;;94-827 KUHAULUA ST;;WAIPAHU;HI;96797;;94-810 MOLOALO ST;SUITE 200;WAIPAHU;HI;96797;SUZIE UYEDA;808-847-2400;14008;HCAP HEAD START JACK HALL;21;3 years;6 years;12/01/2017;11/30/2019
GCC;HONOLULU COMMUNITY ACTION PROGRAM INC;;47-280 WAIHEE RD;RM A6;KANEOHE;HI;96744;;94-810 MOLOALO ST;SUITE 200;WAIPAHU;HI;96797;LYNN SAKAMOTO;808-847-2400;14009;HCAP HEAD START KAHALUU;20;3 years;6 years;12/01/2016;11/30/2018
GCC;HONOLULU COMMUNITY ACTION PROGRAM INC;;45-495 KAMEHAMEHA HWY;A1;KANEOHE;HI;96744;;94-810 MOLOALO ST;SUITE 200;WAIPAHU;HI;96797;GRANT KOGAMI;808-843-4323;14011;HCAP HEAD START KANEOHE ;20;3 years;6 years;04/01/2017;03/31/2019
GCC;HONOLULU COMMUNITY ACTION PROGRAM INC;;95-076 KIPAPA DR;RM P4;MILILANI TOWN;HI;96789;;94-810 MOLOALO ST;SUITE 200;WAIPAHU;HI;96797;RICHELLE KIMURA-GONZALES;808-625-7193;14012;HCAP HEAD START KIPAPA ELEMENTARY;22;3 years;6 years;12/01/2016;11/30/2018
GCC;HONOLULU COMMUNITY ACTION PROGRAM INC;;92-1750 KUNIA DR;ROOMS 1 & 2;KUNIA;HI;96759;;94-810 MOLOALO ST;SUITE 200;WAIPAHU;HI;96797;BARBARA OFFERMAN;808-621-5099;14833;HCAP HEAD START KUNIA;40;3 years;6 years;12/01/2017;11/30/2019
GCC;HONOLULU COMMUNITY ACTION PROGRAM INC;ROOMS P1 & P2;55-109 KULANUI ST;;LAIE;HI;96762;;94-810 MOLOALO ST;SUITE 200;WAIPAHU;HI;96797;GWYNNE HAIOLA-FOSSEK;808-293-9410;14017;HCAP HEAD START LAIE ELEMENTARY;40;3 years;6 years;12/01/2016;11/30/2018
GCC;HONOLULU COMMUNITY ACTION PROGRAM INC;;91-750 FT WEAVER RD;C-4;EWA BEACH;HI;96706;;94-810 MOLOALO ST;SUITE 200;WAIPAHU;HI;96797;SHANNON ANCHETA;808-689-3575;14030;HCAP HEAD START POHAKEA ;25;3 years;6 years;12/01/2016;11/30/2018
GCC;HONOLULU COMMUNITY ACTION PROGRAM INC;;87-169 HELELUA ST;;WAIANAE;HI;96792;;94-810 MOLOALO ST;SUITE 200;WAIPAHU;HI;96797;KAREN NOA;808-668-8033;14031;HCAP HEAD START PUU HELEAKALA;17;3 years;6 years;12/01/2016;11/30/2018
GCC;HONOLULU COMMUNITY ACTION PROGRAM INC;;85-555B FARRINGTON HWY;;WAIANAE;HI;96792;;94-810 MOLOALO ST;SUITE 200;WAIPAHU;HI;96797;ROXANNE BELL;808-696-4815;14038;HCAP HEAD START 442;49;3 years;5 years;12/01/2016;11/30/2018
GCC;HONOLULU COMMUNITY ACTION PROGRAM INC;;94-465 WAIPAHU ST;P-14;WAIPAHU;HI;96797;;94-810 MOLOALO ST;SUITE 200;WAIPAHU;HI;96797;MICHIELLE FONG;808-675-0161;14040;HCAP HEAD START WAIPAHU ;24;3 years;6 years;12/01/2016;11/30/2018
GCC;HONOLULU COMMUNITY ACTION PROGRAM INC;;1929 KAMEHAMEHA IV RD;RM. G-29;HONOLULU;HI;96819;;33 SOUTH KING ST;300;HONOLULU;HI;96813;<NO NAME>;808-841-1005;13412;HCAP HEAD START KAEWAI ELEMENTARY;20;3 years;6 years;03/01/2017;02/28/2019
GCC;HONOLULU COMMUNITY ACTION PROGRAM INC;;41133 HULI ST;RM B106;WAIMANALO;HI;96795;;1132 BISHOP STREET;SUITE 100;HONOLULU;HI;96813;PAULA HASEGAWA;808-259-7760;13438;POPE HEAD START;20;3 years;6 years;04/24/2018;04/23/2020
GCC;HONOLULU COMMUNITY ACTION PROGRAM INC;;324 KAPAHULU AVE;N101  N102;HONOLULU;HI;96815;;1132 BISHOP STREET;SUITE 100;HONOLULU;HI;96813;KIMBERLY ITAGAKI;808-847-2400;13410;JEFFERSON II HEAD START;20;3 years;6 years;10/01/2016;09/30/2018
GCC;HONOLULU COMMUNITY ACTION PROGRAM INC;;165 KAIHOLU ST;F13;KAILUA;HI;96734;;1132 BISHOP ST;100;HONOLULU;HI;96813;KIMBERLY ITAGAKI;808-847-2400;13415;KAINALU ELEMENTARY HEAD START;20;3 years;6 years;10/01/2017;09/30/2019
GCC;HONOLULU COMMUNITY ACTION PROGRAM INC;;783 NORTH KING ST;C24 & C25;HONOLULU;HI;96817;;1132 BISHOP STREET;100;HONOLULU;HI;96813;MELANIE HO;808-847-2400;13416;KAIULANI I & II HEAD START;40;3 years;6 years;09/01/2017;08/31/2019
GCC;HONOLULU COMMUNITY ACTION PROGRAM INC;;402 KAULUWELA PL;;HONOLULU;HI;96817;;1132 BISHOP STREET;100;HONOLULU;HI;96813;KIM ITAGAKI;808-847-2400;13422;KAULUWELA HEAD START;20;3 years;6 years;05/01/2018;04/30/2020
GCC;HONOLULU COMMUNITY ACTION PROGRAM INC;579, MARINE CORPS HAWAII;257 REED RD;3;KAILUA;HI;96734;;1132 BISHOP STREET;100;HONOLULU;HI;96813;KIM ITAGAKI;808-847-2400;15053;KMCBH HEAD START;18;3 years;6 years;02/01/2018;01/31/2020
GCC;HONOLULU COMMUNITY ACTION PROGRAM INC;;717 N KUAKINI ST;B3;HONOLULU;HI;96817;;1132 BISHOP ST;100;HONOLULU;HI;96813;KIMBERLY ITAGAKI;808-847-2400;13428;LANAKILA ELEMENTARY HEAD START;20;3 years;6 years;10/01/2017;09/30/2019
GCC;HONOLULU COMMUNITY ACTION PROGRAM INC;;1701 LANAKILA AVE;;HONOLULU;HI;96817;;1132 BISHOP STREET;SUITE 100;HONOLULU;HI;96813;<NO NAME>;808-521-4531;13429;HCAP LANAKILA CDC 1 HEAD START;20;3 years;6 years;04/27/2017;04/26/2019
GCC;HONOLULU COMMUNITY ACTION PROGRAM INC;;1465 ULUPII ST;A12;KAILUA;HI;96734;;1132 BISHOP ST;100;HONOLULU;HI;96813;GRANT KOGAMI;808-847-2400;13433;MAUNAWILI ELEMENTARY HEAD START;20;3 years;6 years;11/01/2017;10/31/2019
GCC;HONOLULU COMMUNITY ACTION PROGRAM INC;;46-202 HAIKU RD;E6;KANEOHE;HI;96744;;94-810 MOLOALO ST;SUITE 200;WAIPAHU;HI;96797;CLASSROOM;808-247-1049;14819;HCAP HEAD START HEEIA;20;3 years;6 years;02/01/2018;01/31/2020
GCC;HONOLULU COMMUNITY ACTION PROGRAM INC;;91-1028 KAUNOLU ST;RM P-13;EWA BEACH;HI;96706;;94-810 MOLOALO ST;SUITE 200;WAIPAHU;HI;96797;JENNIFER TANELE;808-689-1300X282;14820;HCAP HEAD START KAIMILOA ;21;3 years;6 years;12/01/2017;11/30/2019
GCC;HONOLULU COMMUNITY ACTION PROGRAM INC;;1402 GLEN AVE;;WAHIAWA;HI;96786;;94-810 MOLOALO ST;SUITE 200;WAIPAHU;HI;96797;STEPHANIE PAZ;808-622-5370;14834;HCAP HEAD START WAHIAWA ;20;3 years;6 years;12/01/2016;11/30/2018
GCC;HONOLULU COMMUNITY ACTION PROGRAM INC;;67-174 FARRINGTON HWY;;WAIALUA;HI;96791;;94-810 MOLOALO ST;SUITE 200;WAIPAHU;HI;96797;KAUI BLOOMFIELD;808-637-4488;14850;HCAP HEAD START WAIALUA;24;3 years;6 years;12/01/2017;11/30/2019
GCC;HONOLULU COMMUNITY ACTION PROGRAM INC;;324 KAPAHULU AVENUE;;HONOLULU;HI;96815;;1132 BISHOP STREET;100;HONOLULU;HI;96813;KIM ITAGAKI;808-847-2400;15263;JEFFERSON PRE-PLUS HEAD START;20;3 years;6 years;04/01/2018;03/31/2020
GCC;HONOLULU COMMUNITY ACTION PROGRAM INC;;130 CALIFORNIA AVE;;WAHIAWA;HI;96786;;94-810 MOLOALO ST;SUITE 200;WAIPAHU;HI;96797;MARK MENDOZA;808-622-5368;14916;HCAP HEAD START KAALA ELEMENTARY ;20;3 years;6 years;12/01/2017;01/30/2019
GCC;HONOLULU COMMUNITY ACTION PROGRAM INC;;1131 ALA LILIKOI ST;;HONOLULU;HI;96818;;1132 BISHOP ST;100;HONOLULU;HI;96813;DONA VER;808-837-8068;14919;HCAP HEAD START SALT LAKE ;20;3 years;6 years;12/01/2016;11/30/2018
GCC;HONOLULU COMMUNITY ACTION PROGRAM INC;;99-370 MOANALUA RD;;AIEA;HI;96701;;94-810 MOLOALO ST;SUITE 200;WAIPAHU;HI;96797;SAMMI RAFAEL;808-485-0904;14920;HCAP HEAD START AIEA ELEMENTARY ;20;3 years;6 years;12/01/2016;11/30/2018
GCC;HONOLULU COMMUNITY ACTION PROGRAM INC;PORTABLE;98-450 HOOKANIKE ST;;PEARL CITY;HI;96782;;94-810 MOLOALO ST;SUITE 200;WAIPAHU;HI;96797;MAXINE IGARASHI;808-454-8829;14921;HCAP HEADSTART WAIAU ELEMENTARY ;20;3 years;6 years;12/01/2017;11/30/2019
GCC;HONOLULU COMMUNITY COLLEGE;;874 DILLINGHAM BLVD;;HONOLULU;HI;96817;;874 DILLINGHAM BLVD;;HONOLULU;HI;96817;LISA YOGI;808-845-9466;13160;HONOLULU COMMUNITY COLLEGE KEIKI ;20;2 years 6 months;6 years;11/01/2017;10/31/2019
GCC;HONOLULU WALDORF SCHOOL;;350 ULUA ST;;HONOLULU;HI;96821;;350 ULUA ST;;HONOLULU;HI;96821;JOCELYN ROMERO DEMIRBAG;808-373-5492;13167;HONOLULU WALDORF SCHOOL;90;2 years;7 years;03/01/2018;02/29/2020
GCC;IAO CONGREGATIONAL CHURCH;;2371 WEST VINEYARD ST;;WAILUKU;HI;96793;;2371 WEST VINEYARD ST;;WAILUKU;HI;96793;"FLERIDA ""FLEY"" INIBA";808-242-1995;14346;IAO PRESCHOOL;40;2 years 6 months;7 years;09/01/2007;06/30/2019
GCC;KAMAAINA CARE INC;;345 KAHELU AVE;;MILILANI TOWN;HI;96789;;156C HAMAKUA DR;;KAILUA;HI;96734;KALEI LENCHANKO;808-623-1322;13859;KAMAAINA KIDS - MILILANI TECH PARK ;100;2 years;7 years;06/16/2017;06/15/2019
GCC;MENEHUNE SCHOOL;;55428 KUHIO HWY;;HANALEI;HI;96714;;PO BOX 191;;HANALEI;HI;96714;DIANE DANIELLS;808-826-6133;14314;MENEHUNE SCHOOL;16;2 years;6 years;03/18/2018;03/17/2019
GCC;MEO INC MAUI HEADSTART;;816 NIHEU ST;;LAHAINA;HI;96761;;99 MAHALANI ST;;WAILUKU;HI;96793;DEBORAH AMARAL;808-249-2988;14547;LAHAINA HEAD START;20;3 years;6 years;06/01/2017;05/31/2019
GCC;MEO INC MAUI HEADSTART;;670 WAIALE DRIVE;;WAILUKU;HI;96793;;99 MAHALANI ST;;WAILUKU;HI;96793;"DEBORAH ""DEBBI"" AMARAL";808-249-2988;14549;WAILUKU A HEAD START;20;3 years;6 years;04/01/2017;03/31/2019
GCC;MEO INC MAUI HEADSTART;;355 SOUTH HIGH ST;;WAILUKU;HI;96793;;99 MAHALANI ST;;WAILUKU;HI;96793;DEBORAH AMARAL;808-249-2988;14550;WAILUKU B HEAD START;20;3 years;6 years;12/01/2016;11/30/2018
GCC;MEO INC MAUI HEADSTART;;615 WEST PAPA AVENUE;;KAHULUI;HI;96732;;PO BOX 2122;;KAHULUI;HI;96733;DEBORAH AMARAL;808-249-2988;14579;KAHULUI A&B HEAD START;40;3 years;6 years;04/01/2018;03/31/2020
GCC;MEO INC MAUI HEADSTART;;97 PAUWELA RD;;HAIKU;HI;96708;;99 MAHALANI STREET;;WAILUKU;HI;96793;DEBORAH AMARAL;808-249-2988;14571;HAIKU HEAD START;20;2 years 8 months;6 years;01/01/2017;12/31/2018
GCC;MEO INC MAUI HEADSTART;;387 KOLAPA PL;;KAUNAKAKAI;HI;96748;;99 MAHALANI ST;;WAILUKU;HI;96793;DEBORAH AMARAL;808-249-2988;14575;KAUNAKAKAI HEAD START A;20;3 years;6 years;01/01/2017;12/31/2018
GCC;MEO INC MAUI HEADSTART;;250 EAST LIPOA ST;;KIHEI;HI;96753;;99 MAHALANI STREET;;WAILUKU;HI;96793;DEBBIE AMARAL;808-249-2988;14577;KIHEI A HEAD START;20;2 years 8 months;6 years;12/01/2017;11/30/2019
GCC;MEO INC MAUI HEADSTART;;931B MAKAWAO AVENUE;;MAKAWAO;HI;96768;;PO BOX 2122;;KAHULUI;HI;96733;DEBORAH AMARAL;808-249-2988;14582;MAKAWAO A & B HEAD START;40;3 years;6 years;01/01/2017;12/31/2018
GCC;MEO INC MAUI HEADSTART;;310 KAAHUMANU AVE;;KAHULUI;HI;96732;;PO BOX 2122;;KAHULUI;HI;96733;DEBORAH AMARAL;808-249-2988;15102;UH MAUI COLLEGE HEAD START;20;3 years;6 years;10/01/2017;09/30/2019
GCC;MILILANI BAPTIST CHURCH;;94-293 ANANIA DR;;MILILANI TOWN;HI;96789;;94-293 ANANIA DR;;MILILANI TOWN;HI;96789;CARMEL HALL;808-625-7499;13958;MILILANI BAPTIST PRESCHOOL;90;2 years 8 months;6 years;05/18/2017;05/17/2019
GCC;EXCEL CHURCH;;95-801 KIPAPA DR;;MILILANI TOWN;HI;96789;;95-801 KIPAPA DR;;MILILANI TOWN;HI;96789;DALE FAULKER;808-625-7571;13960;EXCEL CHURCH PRESCHOOL;53;2 years 9 months;12 years;05/01/2017;04/30/2019
GCC;MILILANI PRESBYTERIAN CHURCH;;95-410 KUAHELANI AVE;;MILILANI TOWN;HI;96789;;95-410 KUAHELANI AVE;;MILILANI TOWN;HI;96789;KRYSTINA YADAO;808-623-6663;13961;MILILANI PRESBYTERIAN PRESCHOOL;145;2 years;7 years;03/01/2017;02/28/2019
GCC;MOLOKAI CHRISTIAN ACADEMY;;495 PUUPEELUA AVE;;HOOLEHUA;HI;96729;;PO BOX 555;;HOOLEHUA;HI;96729;AMBER KAAHANUI;808-567-6693;14987;ALL GOD'S CHILDREN PRESCHOOL;24;3 years;6 years;03/01/2018;02/29/2020
GCC;MONTESSORI HALE O KEIKI INC;;100 KULANIHAKOI ST;;KIHEI;HI;96753;;PO BOX 2348;;KIHEI;HI;96753;LARA GAUTHIER;808-874-7441;14724;MONTESSORI HALE O KEIKI;48;2 years 8 months;10 years;03/01/2017;02/28/2019
GCC;MONTESSORI SCHOOL OF MAUI INC;;2933 BALDWIN AVE;;MAKAWAO;HI;96768;;2933 BALDWIN AVE;;MAKAWAO;HI;96768;CHERYL KAUPALOLO;808-573-0374;14446;MONTESSORI SCHOOL OF MAUI;123;2 years;7 years;12/01/2016;11/30/2018
GCC;KAMEHAMEHA SCHOOLS;;66-279A HALEIWA RD;;HALEIWA;HI;96712;;46-430 KAHUHIPA STREET;;KANEOHE;HI;96744;ANDREA WAIA'U;808-534-8742;13870;KAMEHAMEHA PRESCHOOL - HALEIWA I ;36;3 years;6 years;05/01/2017;04/30/2019
GCC;KAMEHAMEHA SCHOOLS;;87-115 WAIOLU ST;;WAIANAE;HI;96792;;87-115 WAIOLU ST;;WAIANAE;HI;96792;DARLENE PANG;808-668-1196;13873;KAMEHAMEHA PRESCHOOL - HOALIKU ;112;3 years;6 years;02/01/2018;01/31/2020
GCC;KAMEHAMEHA SCHOOLS;;45-253 WAIHEE RD;;KANEOHE;HI;96744;;41-235 ILAUHOLE ST;;WAIMANALO;HI;96795;LANI RAE LAVE;808-239-4073;13874;KAMEHAMEHA PRESCHOOL KAHALUU;20;3 years;6 years;06/01/2017;05/31/2019
GCC;KAMEHAMEHA SCHOOLS;;56-117 PUALALEA ST;#17;KAHUKU;HI;96731;;41-235 ILAUHOLE ST;;WAIMANALO;HI;96795;LANI RAE LAVE;808-293-9666;13875;KAMEHAMEHA PRESCHOOL KAHUKU;20;3 years;6 years;06/01/2018;05/31/2020
GCC;KAMEHAMEHA SCHOOLS;;1850 MAKUAKANE ST;;HONOLULU;HI;96817;;1850 MAKUAKANE ST;;HONOLULU;HI;96817;DEBBIE SUYAT;808-842-8461;13232;KAMEHAMEHA PRESCHOOL KALIHI-;144;3 years;6 years;05/01/2017;04/30/2019
GCC;KAMEHAMEHA SCHOOLS;;41235 ILAUHOLE ST;;WAIMANALO;HI;96795;;41-235 ILAUHOLE STREET;;WAIMANALO;HI;96795;SUZANNE RAMOS;808-842-8887;13235;KAMEHAMEHA PRESCHOOL WAIMANALO;80;3 years;6 years;05/01/2018;04/30/2020
GCC;KAMEHAMEHA SCHOOLS;MOKUAIKAUA CHURCH;75-5713 ALII DRIVE;;KAILUA-KONA;HI;96740;;PO BOX 1659;;KAILUA-KONA;HI;96745;WALLIE KIMURA-NOBRIGA;808-334-0599EXT 223;14641;KAMEHAMEHA SCHOOLS, KAILUA-KONA ;48;2 years;5 years;02/08/2017;02/07/2019
GCC;KAMEHAMEHA SCHOOLS;;551999 KOHALA MOUNTAIN RD;;HAWI;HI;96719;C/O KAM PRESCHOOL WAIMEA;64780 MAMALAHOA HWY;;KAMUELA;HI;96743;TRICIA TOM;;14647;KAMEHAMEHA SCHOOLS - KOHALA ;40;2 years;7 years;05/16/2018;05/15/2020
GCC;KAMEHAMEHA SCHOOLS;;64780 MAMALAHOA HWY;;KAMUELA;HI;96743;;64780 MAMALAHOA HWY;;KAMUELA;HI;96743;KAREN TOMITA;808-982-0952;14644;KAMEHAMEHA SCHOOLS - WAIMEA ;80;2 years;6 years;04/22/2018;04/21/2020
GCC;KAMEHAMEHA SCHOOLS;;374 WAIANUENUE AVENUE;;HILO;HI;96720;;101 AUPUNI STREET;STE 227;HILO;HI;96720;DARISSA KEKUAWELA;808-935-2165;14697;KAMEHAMEHA PRESCHOOL-;40;3 years;6 years;07/15/2017;07/14/2019
GCC;KAMEHAMEHA SCHOOLS;;162 BAKER AVENUE;;HILO;HI;96720;;101 AUPUNI ST;SUITE 227;HILO;HI;96720;KAREN TOMITA;808-935-2165;14830;KAMEHAMEHA PRESCHOOL - KEAUKAHA;76;2 years 6 months;6 years;01/27/2017;01/26/2019
GCC;KAMEHAMEHA SCHOOLS;;300 W. LANIKAULA STREET;;HILO;HI;96720;;101 AUPUNI STREET;STE 227;HILO;HI;96720;DARISSA KEKUAWELA;808-935-2165;15323;KAMEHAMEHA PRESCHOOL-HILO;40;3 years;6 years;08/07/2017;06/06/2019
GCC;KAMEHAMEHA SCHOOLS;CHURCH OF THE NAZARENE;74-5100 PALANI RD;;KAILUA-KONA;HI;96740;;P.O. BOX 1659;;KAILUA-KONA;HI;96745;WALLIE KIMURA-NOBRIGA;808-334-0599EXT 223;14849;KAMEHAMEHA SCHOOLS - KONA ;60;3 years;6 years;05/01/2017;04/30/2019
GCC;KAMEHAMEHA SCHOOLS;;85-179 ALA HEMA ST;;WAIANAE;HI;96792;;87-115 WAIOLU ST;;WAIANAE;HI;96792;DARLENE PANG;808-696-0152;15107;KAMEHAMEHA PRESCHOOL - PUU KAHEA;80;3 years;6 years;02/01/2018;01/31/2020
GCC;KANEOHE CHURCH OF THE NAZARENE;;45-232 PUAAE RD;;KANEOHE;HI;96744;;P O BOX  1633;;KANEOHE;HI;96744;KAY HISHINUMA;808-235-8787;14617;WINDWARD NAZARENE ACADEMY ;94;2 years;6 years;12/01/2017;11/30/2019
GCC;KAWAIAHAO CHURCH CORPORATION;;872 MISSION LN;;HONOLULU;HI;96813;;872 MISSION LN;;HONOLULU;HI;96813;SHARI MARTIN;808-585-0622;13245;KAWAIAHAO CHURCH SCHOOL;127;2 years;7 years;02/01/2018;01/31/2020
GCC;KCAA PRESCHOOLS OF HAWAII;;410 ONEAWA ST;;KAILUA;HI;96734;;2707 SOUTH KING ST;;HONOLULU;HI;96826;CHRISTINA COX;808-261-8333;13249;KCAA ATHERTON PRESCHOOL;90;2 years;6 years;04/01/2018;03/31/2020
GCC;KCAA PRESCHOOLS OF HAWAII;;6774 HAWAII KAI DR;;HONOLULU;HI;96825;;2707 S KING ST;;HONOLULU;HI;96826;LORELEI TAGAMI;808-395-7345;13250;KCAA KUAPA PRESCHOOL;150;2 years;6 years;02/01/2018;01/31/2020
GCC;KCAA PRESCHOOLS OF HAWAII;;2707 SOUTH KING ST;;HONOLULU;HI;96826;;2707 SO KING ST;;HONOLULU;HI;96826;TERRY KANDA;808-946-4072;13253;KCAA MOTHER RICE PRESCHOOL;210;2 years;6 years;04/01/2017;03/31/2019
GCC;KCAA PRESCHOOLS OF HAWAII;;1045 KAWAIAHAO ST;;HONOLULU;HI;96814;;2707 SO KING ST;;HONOLULU;HI;96826;KELLY MCNALLY;808-593-0567;13254;KCAA MURIEL PRESCHOOL;161;2 years;6 years;04/05/2017;04/04/2019
GCC;KCAA PRESCHOOLS OF HAWAII;;2511 ROSE ST;;HONOLULU;HI;96819;;2707 SO KING ST;;HONOLULU;HI;96826;KELLY KURAKAKE;808-845-4115;13256;KCAA NA LEI PRESCHOOL;114;2 years;6 years;04/21/2018;04/20/2020
GCC;KCAA PRESCHOOLS OF HAWAII;;1261 PUEO ST;;HONOLULU;HI;96816;;2707 SO KING ST;;HONOLULU;HI;96826;CHRISTINA COX;808-732-1755;13257;KCAA WAI KAHALA PRESCHOOL;125;2 years;6 years;07/01/2017;06/30/2019
GCC;KIDS INC;;2140 KANAKANUI RD;;KIHEI;HI;96753;;2140 KANAKANUI RD;;KIHEI;HI;96753;BARBARA GREEN;808-879-8786;14495;CHILDREN'S GARDEN;41;2 years;6 years;02/01/2017;01/31/2019
GCC;KILOHANA UNITED METHODIST CHURCH PRESCHOOL INC;;5829 MAHIMAHI ST;;HONOLULU;HI;96821;;5829 MAHIMAHI ST;;HONOLULU;HI;96821;ARLENE KOEGLER;808-373-4434;13273;KILOHANA UNITED METHODIST CHURCH ;68;2 years;7 years;04/01/2017;03/31/2019
GCC;PRESCHOOL AT KAPALUA;;5960 L HONOAPIILANI HWY;;LAHAINA;HI;96761;;5960 L HONOAPIILANI HWY;;LAHAINA;HI;96761;RONDILYN FRANZ;808-669-5577;14462;PRESCHOOL AT KAPALUA, THE;31;3 years;7 years;12/01/2016;11/30/2018
GCC;LAHAINA UNITED METHODIST CHURCH;;142 BAKER ST;;LAHAINA;HI;96761;;142 BAKER ST;;LAHAINA;HI;96761;MEJA KANIHO;808-661-8281;14371;CHILDREN OF THE RAINBOW PRESCHOOL;45;3 years;6 years;01/01/2018;12/31/2019
GCC;LITTLE FRIENDS LEARNING CENTER;;2313 NUUANU AVE;;HONOLULU;HI;96817;;2313 NUUANU AVE;;HONOLULU;HI;96817;MARK MATSUOKA;808-538-7624;13309;LITTLE FRIENDS LEARNING CENTER;49;2 years;6 years;03/01/2018;02/28/2020
GCC;LOVE A KEIKI LEARNING CENTER;;1239 OLOMEA ST;;HONOLULU;HI;96817;;745 FORT ST;702;HONOLULU;HI;96813;ROSELYN GALVAN;808-842-5444;13315;LOVE A KEIKI LEARNING CENTER;49;2 years 6 months;9 years;11/01/2017;10/31/2019
GCC;MANOA VALLEY CHURCH;;2728 HUAPALA ST;;HONOLULU;HI;96822;;2728 HUAPALA ST;;HONOLULU;HI;96822;MARILYN PAYAPAYA;808-988-3271;13332;MANOA VALLEY CHURCH PRESCHOOL;43;2 years;5 years 9 months;08/01/2017;07/31/2019
GCC;MARIA LANAKILA CHURCH;;239 DICKENSON ST;;LAHAINA;HI;96761;;239 DICKENSON ST;;LAHAINA;HI;96761;VANESSA BROVELLI;808-662-8689;14479;KE KULA KAMALII PUUWAI LAA;48;3 years;7 years;08/01/2017;05/31/2019
GCC;NUUANU BAPTIST CHURCH;;2010 NUUANU AVE;;HONOLULU;HI;96817;;2010 NUUANU AVE;;HONOLULU;HI;96817;JANICE NAKAMURA;808-537-3644;13402;NUUANU BAPTIST CHURCH PRESCHOOL;49;2 years 9 months;6 years;06/22/2017;06/21/2019
GCC;NUUANU KEIKI CARE;;110 COELHO WAY;;HONOLULU;HI;96817;;110 COELHO WAY;;HONOLULU;HI;96817;ANNETTE ARAKAKI;808-256-2227;13404;NUUANU KEIKI CARE & PRESCHOOL;49;2 years;6 years;03/01/2017;02/28/2019
GCC;CALVARY CHAPEL WEST OAHU;;91-928 FT WEAVER RD;;EWA BEACH;HI;96706;;91-928 FT WEAVER RD;;EWA BEACH;HI;96706;SAYOKO YAMAGUCHI;808-689-3444;15307;CALVARY CHAPEL WEST OAHU ;49;2 years;6 years;02/01/2018;01/31/2020
GCC;OLIVET BAPTIST CHURCH;;1775 S BERETANIA ST;;HONOLULU;HI;96826;;1775 S BERETANIA ST;;HONOLULU;HI;96826;REBECCA MCGUIRE;808-949-7548;13450;OLIVET BAPTIST PRESCHOOL;75;2 years;6 years;11/01/2017;10/31/2019
GCC;OUR LADY OF GOOD COUNSEL CHURCH;;1530 HOOLANA ST;;PEARL CITY;HI;96782;;1530 HOOLANA ST;;PEARL CITY;HI;96782;CINDY OLASO;808-455-4533;14059;OUR LADY OF GOOD COUNSEL ;58;2 years 9 months;6 years;02/17/2018;02/16/2020
GCC;OUR SAVIOR LUTHERAN CHURCH;;98-1098 MOANALUA RD;;AIEA;HI;96701;;98-1098 MOANALUA RD;;AIEA;HI;96701;GEORGE EVENSEN;808-488-0000;15279;OUR SAVIOR LUTHERAN PRESCHOOL;70;2 years;6 years;12/01/2017;11/30/2019
GCC;PALISADES BAPTIST CHURCH;;2251 AUHUHU ST;;PEARL CITY;HI;96782;;2251 AUHUHU ST;;PEARL CITY;HI;96782;KIMBERLY INAFUKU;808-456-9066;14072;PALISADES BAPTIST CHURCH PRESCHOOL;35;2 years 6 months;6 years;08/01/2017;07/31/2019
GCC;PALI VIEW BAPTIST CHURCH;;45-510 HALEKOU RD;;KANEOHE;HI;96744;;45-510 HALEKOU RD;;KANEOHE;HI;96744;ANGALEE MCKEAGUE;808-235-2271;14071;PALI VIEW BAPTIST PRESCHOOL;75;2 years;7 years;10/01/2017;09/30/2019
GCC;PARENT PARTICIPATION NURSERY SCHOOL;;92 KANEOHE BAY DR;;KAILUA;HI;96734;;92 KANEOHE BAY DR;;KAILUA;HI;96734;NADEGE POWERS;808-254-8833;13488;PARENT PARTICIPATION NURSERY ;30;2 years 8 months;7 years;07/01/2017;06/30/2019
GCC;PARENTS AND CHILDREN TOGETHER;;1121 MIDDLE ST;;HONOLULU;HI;96819;;1485 LINAPUNI ST;105;HONOLULU;HI;96819;LORI-LEI TAGAMI;808-792-9769;15213;PACT FERN PREPLUS HEAD START;20;2 years;6 years;07/01/2018;06/30/2020
GCC;PARENTS AND CHILDREN TOGETHER;;2471 KULA KOLEA DR;A15  A16;HONOLULU;HI;96819;;1485 LINAPUNI ST;105;HONOLULU;HI;96819;LORI-LEI TAGAMI;808-842-5996;13467;PACT KALIHI ELEMENTARY HEAD START ;40;2 years;6 years;04/01/2018;03/31/2020
GCC;PSI CHILD CENTERS;;175 KIHAPAI ST;;KAILUA;HI;96734;;175 KIHAPAI ST;;KAILUA;HI;96734;MARGARETE KEEGAN;808-261-8278;13603;SUNSHINE SCHOOL;49;2 years 8 months;9 years;03/18/2017;03/17/2019
GCC;THE CHILDRENS HOUSE;;1840 KOMO MAI DR;;PEARL CITY;HI;96782;;1840 KOMO MAI DR;;PEARL CITY;HI;96782;TODD LOS BANOS;808-455-4131;13696;THE CHILDRENS HOUSE PRESCHOOL;210;2 years 6 months;6 years;02/23/2018;02/22/2020
GCC;THE EARLY SCHOOL;;2510 BINGHAM ST;;HONOLULU;HI;96826;;2510 BINGHAM ST;;HONOLULU;HI;96826;FRANCES DOTE;808-955-5881;13620;THE EARLY SCHOOL;45;2 years 9 months;7 years;06/01/2018;05/31/2020
GCC;THE SALVATION ARMY;;75223 KALANI ST;;KAILUA-KONA;HI;96740;;PO BOX 1358;;KAILUA-KONA;HI;96745;RODELLE SMITH;808-326-7780EXT 1;12092;THE SALVATION ARMY OHANA KEIKI DAY ;75;2 years;12 years;04/01/2018;03/31/2020
GCC;THE TODDLER PROGRAM;;3509 PAHOA AVE;;HONOLULU;HI;96816;;3509 PAHOA AVE;;HONOLULU;HI;96816;CATHY OGAWA;808-735-3197;13626;THE TODDLER PROGRAM;32;2 years;6 years;02/01/2017;01/31/2019
GCC;TRINITY CHRISTIAN CHURCH;;875 AULOA RD;;KAILUA;HI;96734;;875 AULOA RD;;KAILUA;HI;96734;LINDA KAWAKAMI;808-262-8501;13636;TRINITY CHRISTIAN SCHOOL;66;3 years;6 years;09/01/2017;08/31/2019
GCC;TRINITY LUTHERAN CHURCH;;1611 CALIFORNIA AVE;;WAHIAWA;HI;96786;;1611 CALIFORNIA AVE;;WAHIAWA;HI;96786;CORISSA SHEETS;808-621-6033;14197;TRINITY LUTHERAN SCHOOL PRESCHOOL ;49;3 years;6 years;12/14/2017;12/13/2019
GCC;UNITED CHURCH OF CHRIST JUDD ST;;467 N JUDD ST;;HONOLULU;HI;96817;;467 N JUDD ST;;HONOLULU;HI;96817;KALEI DEMELLO;808-523-6495;13480;PALI PRESCHOOL;190;2 years;9 years;08/01/2016;07/31/2018
GCC;UNITY SCHOOL;;3608 DIAMOND HD CIR;;HONOLULU;HI;96815;;3608 DIAMOND HD CIR;;HONOLULU;HI;96815;RANDI ROBERTS;808-735-7666;13641;UNITY SCHOOL;80;2 years;6 years;10/01/2016;09/30/2018
GCC;RAINBOW SCHOOL;;300 ALA MOANA BLVD;1-108;HONOLULU;HI;96850;;PO BOX 50043;;HONOLULU;HI;96850;GENEE DEMELLO;808-541-1701;13517;RAINBOW SCHOOL HONOLULU;75;2 years;6 years;01/01/2018;12/31/2019
GCC;RAINBOW SCHOOL;;56-463 KAMEHAMEHA HWY;;KAHUKU;HI;96731;;56-463 KAMEHAMEHA HWY;;KAHUKU;HI;96731;ELLEN VIERRA;808-293-9341EXT 102;14103;RAINBOW SCHOOL KAHUKU;75;2 years;6 years;10/28/2017;10/27/2019
GCC;RAINBOW SCHOOL;;95-1361 MEHEULA PKWY;;MILILANI TOWN;HI;96789;;95-1361 MEHEULA PKWY;;MILILANI TOWN;HI;96789;PAMELA LANIAS;808-623-3955;14105;RAINBOW SCHOOL - MILILANI, A ;62;2 years;6 years;04/15/2018;04/14/2020
GCC;RAINBOW SCHOOL;;108 CALIFORNIA AVE;;WAHIAWA;HI;96786;;108 CALIFORNIA AVE;;WAHIAWA;HI;96786;SARAH DESCUCIADO;808-621-3933;14656;RAINBOW SCHOOL - WAHIAWA;49;2 years;6 years;06/15/2017;06/14/2019
GCC;ST ANTHONY'S CHURCH;;1627 B MILL ST;;WAILUKU;HI;96793;;1627 B MILL ST;;WAILUKU;HI;96793;CARLENE SANTOS;808-242-9024;14733;ST ANTHONY PRESCHOOL;48;3 years;7 years;02/01/2017;01/31/2019
GCC;SACRED HEARTS ACADEMY;;3253 WAIALAE AVE;;HONOLULU;HI;96816;;3253 WAIALAE AVE;;HONOLULU;HI;96816;REMEDIOS BOLANTE TAM;808-734-5058;13540;SACRED HEARTS ACADEMY JUNIOR ;50;3 years;6 years;10/01/2016;09/30/2018
GCC;SEAGULL SCHOOLS INC;;1300 KAILUA RD;;KAILUA;HI;96734;;1300 KAILUA RD;;KAILUA;HI;96734;JAYNE ARASAKI;808-261-8534;13554;SEAGULL SCHOOL OF KAILUA;74;2 years;7 years;01/01/2017;12/31/2018
GCC;SEAGULL SCHOOLS INC;;531 FARRINGTON HWY;;KAPOLEI;HI;96707;;531 FARRINGTON HWY;;KAPOLEI;HI;96707;JAYNE ARASAKI;808-674-1444;14137;SEAGULL SCHOOL AT KAPOLEI;240;2 years;12 years;03/02/2018;03/01/2020
GCC;SEAGULL SCHOOLS INC;;1130 ALAPAI ST;;HONOLULU;HI;96813;;1300 KAILUA RD;;KAILUA;HI;96734;LISA UYEHARA;808-533-0004;13618;THE EARLY EDUCATION CENTER;236;2 years;7 years;02/01/2017;01/31/2019
GCC;ST ANNS CHURCH;;46-125 HAIKU RD;;KANEOHE;HI;96744;;46-125 HAIKU RD;;KANEOHE;HI;96744;FRANCES R VASQUEZ;808-247-3324;14151;ST ANNS MODEL EARLY LEARNING ;168;2 years;5 years;01/01/2018;12/31/2019
GCC;ST ANTHONY PARRISH SCHOOL;;148 MAKAWAO ST;;KAILUA;HI;96734;;148 MAKAWAO ST;;KAILUA;HI;96734;BRIDGET OLSEN;808-261-3331;13581;ST ANTHONY SCHOOL EARLY LEARNING ;80;2 years;6 years;07/01/2017;06/30/2019
GCC;STAR OF THE SEA SCHOOLS;;4470 ALIIKOA ST;100;HONOLULU;HI;96821;;4470 ALIIKOA ST;100;HONOLULU;HI;96821;LISA FOSTER;808-734-3840;13593;MARY, STAR OF THE SEA EARLY ;250;2 years;7 years;05/20/2018;05/19/2020
GCC;ST CATHERINE PRESCHOOL;;5021 KAWAIHAU RD;;KAPAA;HI;96746;;5021 KAWAIHAU RD;;KAPAA;HI;96746;GINGER OTTO;808-822-4212;14317;ST CATHERINE PRESCHOOL;60;2 years 8 months;6 years;06/30/2018;06/29/2019
GCC;ST JOHN APOSTLE AND EVANGELIST CHURCH;;95-370 KUAHELANI AVE;;MILILANI TOWN;HI;96789;;95-370 KUAHELANI AVE;;MILILANI TOWN;HI;96789;CATHERINE AWONG;808-744-9538;14156;ST JOHNS CATHOLIC PRESCHOOL;75;2 years 8 months;6 years;10/01/2016;09/30/2018
GCC;ST JOHN THE BAPTIST CATHOLIC PRESCHOOL;;2340 OMILO LN;;HONOLULU;HI;96819;;2340 OMILO LN;;HONOLULU;HI;96819;JUANITA MIGUEL;808-841-5551;13583;ST JOHN THE BAPTIST CATHOLIC ;24;3 years;6 years;05/01/2018;04/30/2020
GCC;ST JOHN VIANNEY SCHOOL;;940 KEOLU DR;;KAILUA;HI;96734;;940 KEOLU DR;;KAILUA;HI;96734;CARYN DEMELLO;808-262-8317;14918;ST JOHN VIANNEY EARLY LEARNING ;49;3 years;7 years;02/01/2018;01/31/2020
GCC;ST JOSEPH SCHOOL;;94-651 FARRINGTON HWY;;WAIPAHU;HI;96797;;94-651 FARRINGTON HWY;;WAIPAHU;HI;96797;BEVERLY SANDOBAL;808-677-4475;14157;ST JOSEPH SCHOOL PRE-KINDERGARTEN;24;3 years 5 months;6 years;10/01/2017;09/30/2019
GCC;SAINT MICHAEL SCHOOL;;67-340 HAONA ST;;WAIALUA;HI;96791;;67-340 HAONA ST;;WAIALUA;HI;96791;KAINOA FUKUMOTO;808-677-7772;14160;SAINT MICHAEL SCHOOL;48;2 years 9 months;6 years;04/03/2018;04/02/2020
GCC;ST PHILOMENA EARLY LEARNING CENTER;;3300 ALA LAULANI ST;;HONOLULU;HI;96818;;3300 ALA LAULANI ST;;HONOLULU;HI;96818;PETER TEDTAOTAO;808-833-8080;14162;ST PHILOMENA EARLY LEARNING CENTER ;185;2 years;8 years;01/01/2018;12/31/2019
GCC;WAIKIKI COMMUNITY CENTER;;310 PAOAKALANI AVE;;HONOLULU;HI;96815;;310 PAOAKALANI AVE;;HONOLULU;HI;96815;PAMELA SEELIG;808-922-2098;13651;WAIKIKI COMMUNITY CENTER EARLY ;98;2 years;7 years;02/01/2018;01/31/2020
GCC;WAOLANI JUDD NAZARENE SCHOOL;;408 NORTH JUDD ST;;HONOLULU;HI;96817;;408 NORTH JUDD ST;;HONOLULU;HI;96817;SANDY PASELIO;808-531-5251EXT 303;13658;WAOLANI-JUDD NAZARENE SCHOOL;84;2 years 8 months;6 years;04/01/2018;03/31/2020
GCC;WESLEY CHILDRENS PROGRAMS;;1350 HUNAKAI ST;;HONOLULU;HI;96816;;1350 HUNAKAI ST;;HONOLULU;HI;96816;BILLY HENSON;808-732-3273;13660;WESLEY CHILDRENS PROGRAMS ;34;3 years;6 years;11/15/2017;11/14/2019
GCC;CHRISTIAN LIBERTY SCHOOL;;16-675 MILO STREET;;KEAAU;HI;96749;;16-675 MILO STREET;;KEAAU;HI;96749;DIANA PEREIRA;808-966-8866(ELEM);10772;CHRISTIAN LIBERTY PRESCHOOL;45;3 years;6 years;08/29/2017;08/19/2018
GCC;CREATIVE DAY PRESCHOOL INC;;744981 PALANI RD;;KAILUA-KONA;HI;96740;;PO BOX 2531;;KAILUA-KONA;HI;96745;JAN ACHAY;808-329-1323;14657;CREATIVE DAY PRESCHOOL;150;2 years;8 years;11/01/2017;10/31/2019
GCC;E MAKA'ALA SCHOOL;;440 W. LANIKAULA STREET;;HILO;HI;96720;;440 W. LANIKAULA STREET;;HILO;HI;96720;LYNDELL LINDSEY;808-961-3633;10939;E MAKA'ALA PRESCHOOL PROGRAM;56;2 years;5 years;06/05/2017;06/04/2019
GCC;LIFEWATER CHURCH;;816614 MAMALAHOA HWY;;KEALAKEKUA;HI;96750;;PO BOX 676;;KEALAKEKUA;HI;96750;LORI KAHAWAII;808-323-2463;12569;SON SHINE PRESCHOOL & DAY CARE ;48;2 years;8 years;03/11/2018;03/10/2020
GCC;HALE ALOHA NAZARENE SCHOOL;;595 KUPULAU ROAD;;HILO;HI;96720;;595 KUPULAU ROAD;;HILO;HI;96720;STACIA BURTON;808-959-4949;11140;HALE ALOHA NAZARENE SCHOOL;60;2 years;6 years;11/01/2016;10/31/2018
GCC;YWCA OF HAWAII ISLAND;;145 ULULANI STREET;;HILO;HI;96720;;1382 KILAUEA AVENUE;;HILO;HI;96720;MICHELLE FLEMMING;808-935-7141EXT203;11177;YWCA OF HAWAII ISLAND ;115;2 years;6 years;08/03/2017;08/02/2018
GCC;HAWAII MONTESSORI INC.;;74978 MANAWALEA STREET;;KAILUA-KONA;HI;96740;;74978 MANAWALEA STREET;;KAILUA-KONA;HI;96740;MAYA WHEATON;808-329-0700;14602;HAWAII MONTESSORI SCHOOLS, KONA ;56;2 years;8 years;09/29/2016;09/28/2018
GCC;KAUAI INDEPENDENT DAYCARE SERVICES INC;;1346 INIA ST;;KAPAA;HI;96746;;1346 INIA ST;;KAPAA;HI;96746;JANIS MARDONADA;808-822-0262;11537;KAUAI INDEPENDENT DAYCARE SERVICES;84;3 years;8 years;12/16/2016;12/15/2018
GCC;KEIKI ALOHA PRESCHOOL;;98-027 HEKAHA ST;47;AIEA;HI;96701;;98-027 HEKAHA ST;47;AIEA;HI;96701;TROY CYPRIANO;808-488-5585;11581;KEIKI ALOHA PRESCHOOL;48;2 years;6 years;03/01/2017;02/28/2019
GCC;MALAMALAMA WALDORF SCHOOL;;15-1834 MAKUU DRIVE;;KEAAU;HI;96749;;HC 3 BOX 13068;;KEAAU;HI;96749;ALLYSON ANTHONY;808-982-7701;11801;MALAMALAMA WALDORF SCHOOL ;52;3 years;7 years;03/20/2018;03/19/2020
GCC;ST THERESA PRESCHOOL;;8311 KAUMUALII HWY;;KEKAHA;HI;96752;;PO BOX 277;;KEKAHA;HI;96752;KACIE PRATICO;808-337-1351EXT. 24;12626;ST THERESA EARLY LEARNING ACADEMY;39;2 years 8 months;7 years;04/21/2018;04/20/2020
GCC;JIKOEN HONGWANJI MISSION;;1731 N SCHOOL STREET;;HONOLULU;HI;96819;;1731 N SCHOOL STREET;;HONOLULU;HI;96819;SUZUE NISHIYAMA;808-845-7720;13318;JIKOEN HONGWANJI LUMBINI PRESCHOOL;68;2 years;6 years;11/01/2016;10/31/2018
GCC;MAKAWAO HONGWANJI;;223 HIWALANI LP;;PUKALANI;HI;96788;;223 HIWALANI LP;;PUKALANI;HI;96788;Lei Naylor;808-572-7883;14426;MAKAWAO HONGWANJI PRESCHOOL;45;3 years;6 years;11/01/2016;10/31/2018
GCC;THE CHILDREN'S CENTER INC;;2651A PALI HWY;;HONOLULU;HI;96817;;2651A PALI HWY;;HONOLULU;HI;96817;TERRY STONE;808-595-6341;13616;THE CHILDRENS CENTER, INC.;60;2 years;7 years;01/01/2018;12/31/2019
GCC;BRIGHT BEGINNING LEARNING CENTER;;54-109 KAWAIPUNA ST;;HAUULA;HI;96717;;PO BOX 638;;HAUULA;HI;96717;LARA WASSON;808-293-1801;14769;BRIGHT BEGINNING LEARNING CENTER;42;3 years;5 years;08/14/2016;08/13/2018
GCC;AIEA HONGWANJI MISSION;;99-186 PUAKALA ST;;AIEA;HI;96701;;99-186 PUAKALA ST;;AIEA;HI;96701;CLAIRE TAMAMOTO;808-488-0404;14777;AIEA HONGWANJI PRESCHOOL;105;2 years;6 years;06/29/2018;06/28/2020
GCC;UNIVERSITY AVENUE BAPTIST PRESCHOOL;;2305 UNIVERSITY AVE;;HONOLULU;HI;96822;;2305 UNIVERSITY AVE;;HONOLULU;HI;96822;NAPUALANI NIAU-PUHIPAU;808-947-6679;13642;UNIVERSITY AVENUE BAPTIST ;49;2 years;8 years;12/01/2017;11/30/2019
GCC;INTERNATIONAL CHRISTIAN SCHOOLS KONA HAWAII CAMPUS INC;;755851 KUAKINI HWY;;KAILUA-KONA;HI;96740;;755851 KUAKINI HWY;;KAILUA-KONA;HI;96740;FUANUU LAAPUI;808-326-4411;12765;UNIVERSITY OF THE NATIONS ;88;2 years 8 months;8 years;04/30/2018;04/29/2020
GCC;FIRST BAPTIST CHURCH OF WAHIAWA;;1233 CALIFORNIA AVE;;WAHIAWA;HI;96786;;1233 CALIFORNIA AVE;;WAHIAWA;HI;96786;BELINDA CATINGUB;808-622-2454;14204;WAHIAWA BAPTIST PRESCHOOL;61;2 years;7 years;05/18/2017;05/17/2019
GCC;SMALL WORLD PRESCHOOL;;65 1253 KAWAIHAE ROAD;;KAMUELA;HI;96743;;P O BOX 636;;KAMUELA;HI;96743;BARBARA OZAKI;808-885-4388;12551;SMALL WORLD PRESCHOOL;49;2 years;7 years;11/09/2017;11/08/2019
GCC;EMMANUEL LUTHERAN CHURCH AND SCHOOLS;;520 WEST ONE ST;;KAHULUI;HI;96732;;520 WEST ONE ST;;KAHULUI;HI;96732;PENNY SPANGLER;808-873-6339;14390;EMMANUEL LUTHERAN PRESCHOOL;42;3 years;6 years;03/01/2017;02/28/2019
GCC;PAHALA PRESCHOOL;PAHALA UNITED METHODIST;961225 HUAPALA ST;;PAHALA;HI;96777;;PO BOX 366;;PAHALA;HI;96777;KATHY ANDRADE;808-928-8541;12150;PAHALA PRESCHOOL;24;2 years 8 months;6 years;05/01/2017;04/30/2019
GCC;AHA PUNANA LEO INC;;16-120 'OPUKAHA'IA STREET;;KEAAU;HI;96749;;96 PU'UHONU PLACE;;HILO;HI;96720;LENNETH PAVAO;808-982-8870;12302;PUNANA LEO O HILO;41;2 years;6 years;11/01/2016;10/31/2018
GCC;HONOLULU COMMUNITY ACTION PROGRAM INC;;315 KUULEI;F103;KAILUA;HI;96734;;1132 BISHOP ST.;STE 100;HONOLULU;HI;96813;KIMBERLY ITAGAKI;808-847-2400;14869;KAILUA ELEMENTARY PRE-PLUS HEAD ;20;3 years;6 years;10/01/2016;09/30/2018
GCC;KAMAAINA CARE INC;;1425 KEOLU DR;;KAILUA;HI;96734;;156 HAMAKUA DR;C;KAILUA;HI;96734;NICOLE SHODAHL;808-263-5554;13222;KAMAAINA KIDS ENCHANTED LAKE;80;2 years;13 years;06/26/2017;06/25/2019
GCC;KAMAAINA CARE INC;;50 S PAPA AVENUE;;KAHULUI;HI;96732;;156C HAMAKUA DRIVE;;KAILUA;HI;96734;KIM DAVIS;808-877-7256;14677;KAMAAINA KIDS KAHULUI PRESCHOOL;49;2 years;7 years;05/01/2018;04/30/2020
GCC;HONOLULU COMMUNITY ACTION PROGRAM INC;;1601 N SCHOOL ST;BLDG F4;HONOLULU;HI;96817;;1132 BISHOP STREET;SUITE 100;HONOLULU;HI;96813;MELANIE HO;808-847-2400;13421;KAPALAMA ELEMENTARY HEAD START;20;3 years;6 years;07/01/2018;06/30/2020
GCC;KAMEHAMEHA SCHOOLS;;845574 HONAUNAU BEACH RD;;CAPTAIN COOK;HI;96704;;P O BOX 1659;;KAILUA-KONA;HI;96745;WALLIE KIMURA-NOBRIGA;808-334-0599EXT 223;14642;KAMEHAMEHA SCHOOLS - HONAUNAU ;22;3 years;6 years;05/01/2018;04/30/2020
GCC;ARK OF SAFETY CHRISTIAN FELLOWSHIP;;86-120 FARRINGTON HWY;A109 & A110;WAIANAE;HI;96792;;85-179 WAIANAE VALLEY RD;;WAIANAE;HI;96792;JADEEN MEYERS;808-696-8928;15031;ARK OF SAFETY CHRISTIAN ACADEMY;42;2 years 6 months;6 years;02/01/2018;01/31/2020
GCC;THE COLE ACADEMY;;36 MERCHANT STREET;;HONOLULU;HI;96813;;46-471 HOLOLIO STREET;;KANEOHE;HI;96744;EMILY LEONG;808-772-0210;15131;THE COLE ACADEMY PRESCHOOL;32;2 years;6 years;12/01/2016;11/30/2018
GCC;NEW HOPE LEEWARD;;94-050 FARRINGTON HWY;C-2;WAIPAHU;HI;96797;;94-050 FARRINGTON HWY;C-2;WAIPAHU;HI;96797;KAREN MALUO;808-678-3776;16011;NEW HOPE CHRISTIAN SCHOOL;123;2 years;6 years;12/03/2016;12/02/2018
GCC;KAMAAINA CARE INC;;45-520 KEAAHALA ROAD;;KANEOHE;HI;96744;;156 HAMAKUA DR;C;KAILUA;HI;96734;NEVITRA WHORLINE;808-247-0718;15798;KAMAAINA KIDS KANEOHE PRESCHOOL;59;2 years;6 years;08/01/2017;07/31/2019
GCC;STEPPING STONES ACADEMY;;98-761 OIHANA PL;STE 1;AIEA;HI;96701;;98-761 OIHANA PL;STE 1;AIEA;HI;96701;DIANA SAKURAI;808-485-1010;15779;STEPPING STONES ACADEMY PRESCHOOL;70;2 years;6 years;08/29/2017;08/28/2019
GCC;KAMAAINA CARE INC;;553 WAINEE STREET;;LAHAINA;HI;96761;;156C HAMAKUA DRIVE;;KAILUA;HI;96734;KIM DAVIS;808-667-0422;15697;KAMAAINA KIDS LAHAINA PRESCHOOL;48;2 years;9 years;08/01/2016;07/31/2018
GCC;NISEI VETERANS MEMORIAL CENTER;;3 GO FOR BROKE PLACE;;WAILUKU;HI;96793;;PO BOX 969;;WAILUKU;HI;96793;JENNA CARROLL;808-242-5437;15708;KANSHA PRESCHOOL;16;2 years 8 months;6 years;09/01/2017;04/30/2019
GCC;KAMEHAMEHA SCHOOLS;;275 AAPUEO PARKWAY;;MAKAWAO;HI;96768;;661 KAUMUALII STREET;;WAILUKU;HI;96793;LISA PAHUKOA;808-760-5000;16022;KAMEHAMEHA AAPUEO PRESCHOOL;30;3 years;6 years;10/01/2017;09/30/2019
GCC;KOLOA EARLY SCHOOL;;5521 KOLOA RD;;KOLOA;HI;96756;;PO BOX 1302;;KOLOA;HI;96756;MANDIE GIBSON;808-742-1769;14305;THE KOLOA EARLY SCHOOL;45;2 years 8 months;7 years;02/14/2018;11/06/2018
GCC;WAIKOLOA BAPTIST KEIKILAND;;683670 PANIOLO AVE;;WAIKOLOA;HI;96738;;PO BOX 384330;;WAIKOLOA;HI;96738;CHRISTINE MADER;808-883-8202;12820;WAIKOLOA BAPTIST KEIKILAND;49;2 years;8 years;05/15/2018;05/14/2020
GCC;HONOLULU COMMUNITY ACTION PROGRAM INC;;91-1280 RENTON RD;;EWA BEACH;HI;96706;;94-810 MOLOALO ST;SUITE 200;WAIPAHU;HI;96797;KAREN HANABUSA;808-681-3250;15666;HCAP HEAD START EWA ELEMENTARY ;20;3 years;6 years;10/01/2016;09/30/2018
GCC;KAMAAINA CARE INC;;5919 KALANIANAOLE HWY;;HONOLULU;HI;96821;;156 HAMAKUA DR;C;KAILUA;HI;96734;SITE;808-394-6055;16514;KAMAAINA KIDS HOLY TRINITY ;38;2 years;6 years;02/01/2017;01/31/2019
GCC;SEAGULL SCHOOLS INC;;91-203 KAIMELE PL;;EWA BEACH;HI;96706;;91-203 KAIMELE PL;;EWA BEACH;HI;96706;MELISSA KASIK-REQUILMAN;808-689-6021;15803;SEAGULL SCHOOL AT OCEAN POINTE;238;2 years;7 years;02/01/2017;01/31/2019
GCC;HONOLULU COMMUNITY ACTION PROGRAM INC;;91-1280 RENTON RD;;EWA BEACH;HI;96706;;94-810 MOLOALO ST;SUITE 200;WAIPAHU;HI;96797;MAYASA RICHARDS;808-699-2017;16032;HCAP HEAD START EWA I & II;40;3 years;6 years;04/02/2018;04/01/2020
GCC;KAMEHAMEHA SCHOOLS;;15-1906 20TH AVENUE;;KEAAU;HI;96749;;101 AUPUNI STREET;STE 227;HILO;HI;96720;KAREN TOMITA;808-935-2165;14695;KAMEHAMEHA PRESCHOOL-KEAAU;20;3 years;6 years;08/21/2016;08/20/2018
GCC;PEARL HARBOR CHRISTIAN ACADEMY;;94-1044 WAIPIO UKA ST;;WAIPAHU;HI;96797;;94-1044 WAIPIO UKA ST;;WAIPAHU;HI;96797;CAROLINA WILLIAMS;808-678-3997;15994;PEARL HARBOR CHRISTIAN ACADEMY ;31;2 years 8 months;6 years;09/04/2016;09/03/2018
GCC;EDITH KANAKAOLE FOUNDATION(FORMERLY LAUHUKI);;1500 KALANIANAOLE AVENUE;;HILO;HI;96720;;1500 KALANIANAOLE AVENUE;;HILO;HI;96720;UILANI BRANDT;808-961-5242;14593;KULA KAMALI'I O HI'IKEAKAIKAMALAMA;25;3 years;6 years;10/08/2016;10/07/2018
GCC;HONOLULU COMMUNITY ACTION PROGRAM INC;;2759 SOUTH KING STREET;;HONOLULU;HI;96826;;1132 BISHOP STREET;SUITE 100;HONOLULU;HI;96813;SPENCER TENGAN;808-843-4309;15679;KUHIO ELEMENTARY PREPLUS HEAD ;20;3 years;6 years;05/01/2018;04/30/2020
GCC;ST ANDREWS PRIORY SCHOOL;;3019 PALI HWY;;HONOLULU;HI;96817;;3019 PALI HWY;;HONOLULU;HI;96817;SUSAN OKOGA;808-595-4686;13514;QUEEN EMMA PRESCHOOL;158;2 years;6 years;12/01/2016;11/30/2018
GCC;EWA PLAINS ENRICHMENT PROGRAMS, LLC;;91-1258 RENTON ROAD;;EWA BEACH;HI;96706;;91-733 MAKULE ROAD;#D;EWA BEACH;HI;96706;JESSICA LUNING;808-220-3210;15167;EWA PLAINS ENRICHMENT PROGRAMS ;41;3 years;8 years;07/01/2018;06/30/2020
GCC;CALVARY CHAPEL;;98-1016 KOMO MAI DR;;AIEA;HI;96701;;98-1016 KOMO MAI DR;;AIEA;HI;96701;PERLAMAE PELAYO;808-275-5163;15485;CALVARY CHAPEL CHRISTIAN ;48;2 years 8 months;6 years;09/06/2017;09/05/2019
GCC;HONPA HONGWANJI HILO BETSUIN;;398 KILAUEA AVENUE;;HILO;HI;96720;;398 KILAUEA AVENUE;;HILO;HI;96720;MICHELLE KITAGAWA;808-935-1857;15581;HILO HONGWANJI PRESCHOOL;80;2 years;7 years;04/01/2017;03/31/2019
GCC;THE COLE ACADEMY;;1041 10TH AVE;;HONOLULU;HI;96816;;1041 10TH AVE;;HONOLULU;HI;96816;TAIRA QUEYQUEP;808-732-4200;15592;THE COLE ACADEMY KAIMUKI;127;2 years;6 years;02/01/2017;01/31/2019
GCC;HONPA HONGWANJI HAWAII BETSUIN;;1728 PALI HWY;;HONOLULU;HI;96817;;1728 PALI HWY;;HONOLULU;HI;96817;THEODORA YAGI;808-532-0522;15605;HONGWANJI MISSION SCHOOL ;80;2 years;6 years;07/24/2018;07/23/2020
GCC;HONOLULU COMMUNITY COLLEGE;;96-045 ALA IKE;DA 107;PEARL CITY;HI;96782;;96-045 ALA IKE;DA 107;PEARL CITY;HI;96782;EVA MORAVCIK;808-455-0488;13923;LEEWARD COMMUNITY COLLEGE ;19;2 years 9 months;6 years;03/16/2018;03/15/2020
GCC;HAILI CHRISTIAN SCHOOL;;190 ULULANI STREET;;HILO;HI;96720;;190 ULULANI STREET;;HILO;HI;96720;CHARLENE KAMAU;808-961-5026;11133;HAILI CHRISTIAN PRESCHOOL;72;2 years 8 mos;5 years;11/18/2016;11/17/2018
GCC;HAWAII COMMUNITY COLLEGE;;200 W. KAWILI STREET;BUILDING 3393;HILO;HI;96720;;200 W. KAWILI STREET;BUILDING 3393;HILO;HI;96720;CHANNEL BABAGAY;808-934-2630OR 934-2624;11173;HAWAII COMMUNITY COLLEGE ;15;2 years 6 months;6 years;04/09/2018;04/08/2019
GCC;WAILUKU HONGWANJI MISSION;;144 KANIELA ST;;WAILUKU;HI;96793;;1828 VINEYARD ST;;WAILUKU;HI;96793;KAREN YOSHIDA;808-244-9545;14502;WAILUKU HONGWANJI PRESCHOOL;65;2 years;8 years;02/01/2017;01/31/2019
GCC;AHA PUNANA LEO INC;;1313 KAMEHAMEHA IV RD;;HONOLULU;HI;96819;;96 PUUHONU PL;;HILO;HI;96720;JANICE PUALANI  KAHOOHANOHANO;808-935-4303X235 (808);13509;PUNANA LEO O HONOLULU;25;2 years;6 years;06/01/2018;05/31/2020
GCC;HANAHAUOLI SCHOOL;;1922 MAKIKI ST;;HONOLULU;HI;96822;;1922 MAKIKI ST;;HONOLULU;HI;96822;JOANN GUY;808-697-2630;13130;HANAHAUOLI PREKINDERGARTEN;29;4 years 8 months;6 years;01/01/2018;12/31/2019
GCC;HONOLULU COMMUNITY ACTION PROGRAM INC;G-11, G-12;89-195 FARRINGTON HWY;;WAIANAE;HI;96792;;94-810 MOLOALO ST;SUITE 200;WAIPAHU;HI;96797;KAREN HANABUSA;808-847-2400;14025;HCAP HEAD START NANAKULI I & II;40;3 years;6 years;12/01/2016;11/30/2018
GCC;HONOLULU COMMUNITY ACTION PROGRAM INC;;345 PUUHALE ROAD;101A & B;HONOLULU;HI;96819;;1132 BISHOP ST;SUITE 100;HONOLULU;HI;96813;BEVERLY DOMINGO;808-848-0390;15451;HCAP HEAD START PUUHALE ;20;3 years;6 years;12/01/2016;11/30/2018
GCC;ALOHA SCHOOL EARLY LEARNING CENTER;;55344 KUHIO HWY;;HANALEI;HI;96714;;PO BOX 1408;;HANALEI;HI;96714;ASHLEY GUERRERO;808-826-6421;14279;ALOHA SCHOOL EARLY LEARNING ;40;2 years 8 months;12 years;03/04/2018;03/03/2020
GCC;KALIHI UNION CHURCH;KALIHI UNION CHURCH;2214 NORTH KING ST;;HONOLULU;HI;96819;;2214 NORTH KING ST;;HONOLULU;HI;96819;JOY ADDISS;841-702-2723;13216;KALIHI UNION CHURCH PRESCHOOL;49;2 years;6 years;12/01/2017;11/30/2019
GCC;OFFICE OF VP OF STUDENT AFFAIRS UNIVERSITY OF HAWAII;;2320 DOLE ST;;HONOLULU;HI;96822;;2600 CAMPUS RD;QLCSS #407;HONOLULU;HI;96822;LANI AU;808-956-8773;13643;UNIVERSITY OF HAWAII AT MANOA ;100;2 years;6 years;05/01/2018;04/30/2020
GCC;RAINBOW SCHOOL;;45-211 WAIKALUA RD;;KANEOHE;HI;96744;;45-211 WAIKALUA RD;;KANEOHE;HI;96744;DANE FAJARDO;808-247-8840;14104;RAINBOW SCHOOL KANEOHE;120;2 years;7 years;02/01/2017;01/31/2019
GCC;THE PARISH OF ST CLEMENT;;1515 WILDER AVE;;HONOLULU;HI;96822;;1515 WILDER AVE;;HONOLULU;HI;96822;JODI YOSHIOKA;808-949-2082;13582;ST CLEMENTS SCHOOL;112;2 years;7 years;04/01/2018;03/31/2020
GCC;WAIANAE COAST EARLY CHILDHOOD SERVICES, INC;;84-1061 NOHOLIO RD;;WAIANAE;HI;96792;;84-1061 NOHOLIO RD;;WAIANAE;HI;96792;ALEXANDRA ZARELLA;808-695-9656;14208;WAIANAE EARLY EDUCATION CENTER;76;2 years;13 years;06/01/2017;05/31/2019
GCC;HONOLULU COMMUNITY ACTION PROGRAM INC;;84-200 ALA NAAUAO PLACE;RM P-21 & P-22;WAIANAE;HI;96792;;94-810 MOLOALO ST;SUITE 200;WAIPAHU;HI;96797;SHELDONAIRE HAO-TAMON;808-695-9134;14021;HCAP HEADSTART MAKAHA ;40;3 years;6 years;12/01/2017;11/30/2019
GCC;KAMEHAMEHA SCHOOLS;;89-195 FARRINGTON HWY;;WAIANAE;HI;96792;;89-101 FARRINGTON HWY;;WAIANAE;HI;96792;KAILA LUI-KWAN;808-532-8250;15634;KAMEHAMEHA PRESCHOOL NANAKULI;40;3 years;6 years;09/30/2016;09/29/2018
GCC;KAPAHULU BIBLE CHURCH;;3221 MAKINI ST;;HONOLULU;HI;96815;;3221 MAKINI ST;;HONOLULU;HI;96815;CASSIE TOLENTINO;808-732-1744;13242;KAPAHULU BIBLE CHURCH PRESCHOOL;37;2 years 8 months;6 years;07/01/2017;06/30/2019
GCC;SAINT FRANCIS SCHOOL CORPORATION;;2707 PAMOA RD;801 & 900;HONOLULU;HI;96822;;2707 PAMOA RD;;HONOLULU;HI;96822;FARRAH DERLA;808-988-6528;13382;SAINT MARIANNE COPE PRESCHOOL;49;2 years;6 years;01/01/2017;12/31/2018
GCC;CORNERSTONE FELLOWSHIP - MILILANI MAUKA;;95-1080 UKUWAI ST;;MILILANI TOWN;HI;96789;;95-1080 UKUWAI ST;;MILILANI TOWN;HI;96789;CHRISTINA ROBINSON;808-626-8798;13754;CORNERSTONE EARLY EDUCATION ;70;2 years 8 months;6 years;08/01/2017;07/31/2019
GCC;AHA PUNANA LEO INC;;87-790 KULAUKU ST;PODS A-1 & A-2;WAIANAE;HI;96792;;96 PUUHONU PL;;HILO;HI;96720;PUALANI KAHO'OHANOHANO;808-935-4304;15394;PUNANA LEO O WAIANAE;40;2 years;6 years;10/13/2017;10/12/2019
GCC;CROSSNET MINISTRIES INTERNATIONAL;;1407 KAPIOLANI STREET;;HILO;HI;96720;;782 HO'OLALA PLACE;;HILO;HI;96720;TARA CRAWFORD (HASEGAWA);808-934-0610;15467;JOYLAND PRESCHOOL;40;2 years;7 years;11/12/2016;11/11/2018
GCC;MID-PACIFIC INSTITUTE;;2445 KAALA ST;;HONOLULU;HI;96822;;2445 KAALA ST;;HONOLULU;HI;96822;EDNA HUSSEY;808-441-3800;15401;MIDPACIFIC INSTITUTE PRESCHOOL;34;3 years;6 years;04/01/2017;03/31/2019
GCC;A CARING PLACE, LLP;;260 N KAINALU DR;;KAILUA;HI;96734;;260 N KAINALU DR;;KAILUA;HI;96734;CAREN LEDER;808-261-1388;13614;A CARING PLACE;64;2 years;6 years;05/01/2017;04/30/2019
GCC;KAMAAINA CARE INC;;10 MANINO CIRCLE;BUILDING 26;KIHEI;HI;96753;;156C HAMAKUA DRIVE;;KAILUA;HI;96734;STACY CLARK;808-874-8844;15574;KAMAAINA KIDS PIILANI CHILDREN'S ;68;2 years;9 years;04/01/2017;03/31/2019
GCC;GRACE BIBLE CHURCH MAUI;;635 S HINA AVE, ROOM 101;;KAHULUI;HI;96732;;635 S HINA AVE;;KAHULUI;HI;96732;TASHA RAMOS AND KAMA TEMPO;808-873-0009;15414;GRACE BIBLE CHRISTIAN PRESCHOOL;30;3 years;7 years;09/01/2017;08/31/2019
GCC;TRINITY CHURCH CENTRAL OAHU INC;;95-388 WIKAO ST;;MILILANI TOWN;HI;96789;;95-388 WIKAO ST;;MILILANI TOWN;HI;96789;KATHLEEN MARZAN;808-347-4417;15431;CENTRAL CHRISTIAN SCHOOL;37;2 years 8 months;6 years;09/29/2017;09/28/2019
GCC;HONOLULU COMMUNITY COLLEGE;;4303 DIAMOND HEAD RD;;HONOLULU;HI;96816;;4303 DIAMOND HEAD RD;;HONOLULU;HI;96816;MARK MENDOZA;808-734-9394;15569;ALANI CHILDRENS CENTER;44;2 years;6 years;05/01/2017;04/30/2019
GCC;LIHUE HONGWANJI PRESCHOOL;;33560B KUHIO HWY;;LIHUE;HI;96766;;33560B KUHIO HWY;;LIHUE;HI;96766;SANDRA FUJIMOTO;808-245-7857;15576;LIHUE HONGWANJI PRESCHOOL;48;2 years 8 months;6 years;04/01/2017;03/31/2019
GCC;KILAUEA OHANA PLAYSCHOOL;AINA HAINA ELEMENTRY SCHO;801 WEST HIND DR;E31;HONOLULU;HI;96821;AINA HAINA ELEMENTRY SCHO;801 WEST HIND DR;E31;HONOLULU;HI;96821;KILAUEA OHANA PLAYSCHOOL;808-729-0871;13272;KILAUEA OHANA PLAYSCHOOL;18;2 years;7 years;04/01/2017;03/31/2019
GCC;KAMEHAMEHA SCHOOLS;;1350 WAIANUENUE AVENUE;;HILO;HI;96720;;101 AUPUNI STREET;STE 227;HILO;HI;96720;DARISSA KEKUAWELA;808-935-2165;15586;KAMEHAMEHA PRESCHOOL - PIIHONUA;40;3 years;6 years;09/25/2017;09/24/2019
GCC;SHODAHL HOLDINGS LLC;;91-679 FORT WEAVER RD;;EWA BEACH;HI;96706;;91-679 FORT WEAVER RD;;EWA BEACH;HI;96706;MATT BELL;808-682-0010;16055;BLESSINGS FROM HEAVEN PRESCHOOL;49;2 years;7 years;04/07/2017;04/06/2019
GCC;HONOLULU COMMUNITY ACTION PROGRAM INC;;94-830 HIKIMOE ST;;WAIPAHU;HI;96797;;94-810 MOLOALO ST;SUITE 200;WAIPAHU;HI;96797;TAMIE MITSUKA;808-671-3056;16430;HCAP HEAD START WAIPAHU ;30;3 years;6 years;04/06/2017;04/05/2019
GCC;KAHULUI HONGWANJI MISSION;;291 S PUUNENE AVENUE;;KAHULUI;HI;96732;;291 S PUUNENE AVENUE;;KAHULUI;HI;96732;DANIELLE GASPAR;808-877-7998;15572;KAHULUI HONGWANJI PRESCHOOL;42;3 years;6 years;11/01/2017;10/31/2019
GCC;HONOLULU COMMUNITY ACTION PROGRAM INC;;94-465 WAIPAHU ST;;WAIPAHU;HI;96797;;94-810 MOLOALO ST;SUITE 200;WAIPAHU;HI;96797;CARLINA EDER DA SILVA;808-671-2621;16542;HCAP HEAD START WAIPAHU PRE PLUS;20;3 years;6 years;08/03/2018;08/02/2020
GCC;KA HANA PONO DAYCARE;;66-434 KAMEHAMEHA HWY;COTTAGE 3 & 4;HALEIWA;HI;96712;;P.O. BOX 980;;WAIALUA;HI;96791;ANGELICA FRIEDMANN;808-282-2501;16680;KA HANA PONO DAYCARE;18;2 years;6 years;10/22/2016;10/21/2018
GCC;THE SALVATION ARMY;;845 22ND AVENUE;;HONOLULU;HI;96816;;845 22ND AVENUE;;HONOLULU;HI;96816;CANDACE PANG;808-739-4931;15863;THE SALVATION ARMY DIAMOND HEAD ;16;2 years;6 years;07/20/2017;07/19/2019
GCC;HONOLULU COMMUNITY ACTION PROGRAM INC;;87-576 KULAAUPUNI ST;;WAIANAE;HI;96792;;94-810 MOLOALO ST;SUITE 200;WAIPAHU;HI;96797;LYNNETTE KEA;808-620-9068;16558;HCAP HEAD START ULU KE KUKUI I & II;44;3 years;6 years;06/22/2017;06/21/2019
GCC;KAILUA BAPTIST CHURCH CHRISTIAN PRESCHOOL;;1080 KAILUA RD;;KAILUA;HI;96734;;1080 KAILUA RD;;KAILUA;HI;96734;JAYME WATANABE;808-262-6070;13203;KAILUA BAPTIST CHURCH CHRISTIAN ;49;3 years;6 years;09/16/2016;09/15/2018
GCC;PLAYMATE KINDERGARTEN DAY CARE CENTER & GRADE SCHOOL LTD;;1704 KEEAUMOKU ST;;HONOLULU;HI;96822;;1704 KEEAUMOKU ST;;HONOLULU;HI;96822;MARGARET LEE;808-536-6442;13503;PLAYMATE KINDERGARTEN  DAY CARE ;49;2 years;9 years;12/18/2016;12/17/2018
GCC;STEPPING STONES ACADEMY;;860 HALEKAUWILA ST;103;HONOLULU;HI;96813;;860 HALEKAUWILA ST;103;HONOLULU;HI;96813;HARKIRAN SINGH;808-593-2922;15990;STEPPING STONES ACADEMY KAKAAKO;75;2 years;6 years;04/01/2018;03/31/2020
GCC;SEAGULL SCHOOLS INC;;92-1415 ALIINUI DRIVE;;KAPOLEI;HI;96707;;92-1415 ALIINUI DRIVE;;KAPOLEI;HI;96707;JESSICA INES-KAPUA;808-671-6999;16687;SEAGULL SCHOOL AT KO OLINA;175;2 years;7 years;03/31/2018;03/30/2020
GCC;MOILIILI HONGWANJI MISSION;;902 UNIVERSITY AVENUE;;HONOLULU;HI;96826;;902 UNIVERSITY AVENUE;;HONOLULU;HI;96826;WENDY HARMAN;808-946-4416;13369;MOILIILI HONGWANJI PRESCHOOL;66;2 years;6 years;04/08/2017;04/07/2019
GCC;ALOHA KAI ACADEMY, INC.;;954 BALDWIN AVENUE;;PAIA;HI;96779;;PO BOX 791925;;PAIA;HI;96779;MELANIE ADAMS;808-283-3220;16662;ALOHA KAI ACADEMY, INC.;20;3 years;7 years;02/01/2018;01/31/2020
GCC;HONOLULU COMMUNITY ACTION PROGRAM INC;;99-795 IWAIWA ST;;AIEA;HI;96701;;94-810 MOLOALO ST;SUITE 200;WAIPAHU;HI;96797;DAWN STEPHENS;808-484-0743;14817;HCAP HEAD START HALAWA;21;3 years;6 years;12/01/2017;11/30/2019
GCC;HAPPY KEIKI PRESCHOOL;;1035 UNIVERSITY AVE;102;HONOLULU;HI;96826;;408 POIPU DR;;HONOLULU;HI;96825;HATSUMI VISAYA;808-381-8185;16523;HAPPY KEIKI PRESCHOOL AT UNIVERSITY ;33;2 years;6 years;10/01/2017;09/30/2019
GCC;POPPINS USA INC;SHERATON WAIKIKI HOTEL;2255 KALAKAUA AVE;435;HONOLULU;HI;96815;SHERATON WAIKIKI HOTEL;2255 KALAKAUA AVE;435;HONOLULU;HI;96815;HUNTER PARKER;808-931-8086;16313;POPPINS KEIKI HAWAII;12;2 years 6 months;13 years;10/01/2017;09/30/2019
GCC;TRACE ACADEMY INC;;94-1388 MOANIANI ST;#205;WAIPAHU;HI;96797;;94-1388 MOANIANI ST;#205;WAIPAHU;HI;96797;JODINE BAUTISTA-SOUZA;808-626-5867;16433;T.R.A.C.E. ACADEMY;54;2 years;13 years;10/05/2017;10/04/2019
GCC;KAMEHAMEHA SCHOOLS;;43-1377 HAWAII BELT ROAD;;PAAUILO;HI;96776;;64-780 MAMALAHOA HIGHWAY;;KAMUELA;HI;96743;TRISHA TOM;808-776-1693;16271;KAMEHAMEHA PRESCHOOL-HAMAKUA;38;2 years 6 months;6 years;11/07/2016;09/09/2018
GCC;LITTLE LEARNERS PRESCHOOL LLC;;160 MOOKUA ST;PRESCHOOL ROOM;KAILUA;HI;96734;;160 MOOKUA ST;;KAILUA;HI;96734;BRENDA LEE;808-927-5489;16219;LITTLE LEARNERS PRESCHOOL LLC;24;3 years;7 years;11/01/2016;10/31/2018
GCC;KEIKI O KA AINA PRESCHOOL INC;;2528 10TH AVE;;HONOLULU;HI;96816;;3097 KALIHI ST;;HONOLULU;HI;96819;ELIZABETH SANTA ANA;808-843-2502;16404;KEIKI O KA AINA PRESCHOOL-PALOLO ;24;3 years;7 years;09/01/2016;08/31/2018
GCC;LITTLE EXPLORERS MAUI PRESCHOOL, LLC;;1050 LOWER MAIN STREET;;WAILUKU;HI;96793;;1050 LOWER MAIN STREET;;WAILUKU;HI;96793;KIMBERLY KULOLOIA;808-244-2112;16405;LITTLE EXPLORERS MAUI PRESCHOOL, ;36;2 years;7 years;04/01/2017;03/31/2019
GCC;KAMAAINA CARE INC;;1965 BOUGAINVILLE AVE.;;KAPOLEI;HI;96707;;156C HAMAKUA DR;;KAILUA;HI;96734;MICHELLE FULLER;808-682-8150;16407;KAMAAINA KIDS KALAELOA PRESCHOOL;45;2 years;6 years;05/01/2018;04/30/2019
GCC;KAMEHAMEHA SCHOOLS;;5060 UAKEA RD;;HANA;HI;96713;;661 KAUMUALII ST;;WAILUKU;HI;96793;"VIRGINIA ""GINA"" ROSA";808-268-2757;14404;KAMEHAMEHA HANA PRESCHOOL;28;3 years;6 years;12/01/2016;11/30/2018
GCC;WAIALAE BAPTIST PRESCHOOL;;1047 21ST AVE;;HONOLULU;HI;96816;;1047 21ST AVE;;HONOLULU;HI;96816;SAM BROWNING;808-732-5558;16230;WAIALAE BAPTIST PRESCHOOL;49;2 years;6 years;11/11/2016;11/10/2018
GCC;KAMAAINA CARE INC;;930 LUNALILO ST;;HONOLULU;HI;96822;;156 HAMAKUA DR;C;KAILUA;HI;96734;ERNESTINE MIRANDA;808-599-2807;13225;KAMAAINA KIDS HONOLULU;107;2 years;12 years;03/01/2017;02/28/2019
GCC;HONOLULU COMMUNITY ACTION PROGRAM INC;;45-233 KULAULI ST;A3;KANEOHE;HI;96744;;94-810 MOLOALO ST;SUITE 200;WAIPAHU;HI;96797;KIMBERLY ITAGAKI;808-247-8706;16247;HCAP HEAD START PUOHALA ;20;3 years;6 years;12/01/2016;11/30/2018
GCC;MAKIKI CHRISTIAN CHURCH;;829 PENSACOLA ST;;HONOLULU;HI;96814;;829 PENSACOLA ST;;HONOLULU;HI;96814;EILEEN CLARKE;808-594-8916;14650;MAKIKI CHRISTIAN CHURCH PRESCHOOL;105;2 years;6 years;05/01/2018;04/30/2020
GCC;PARENTS AND CHILDREN TOGETHER;;1485 LINAPUNI ST;;HONOLULU;HI;96819;;1485 LINAPUNI ST;105;HONOLULU;HI;96819;JENNIFER FREMGEN;808-842-5996;13470;PACT KPT HEAD START I;82;2 years;6 years;03/01/2017;02/28/2019
GCC;ST PATRICK SCHOOL;KB & KA;3320 HARDING AVE;;HONOLULU;HI;96816;KB & KA;3320 HARDING AVE;;HONOLULU;HI;96816;PATTYE DECOSTA KIM;808-734-8979;16151;ST PATRICK SCHOOL EARLY CHILDHOOD ;79;3 years;6 years 6 months;10/01/2017;09/30/2019
GCC;HONOLULU COMMUNITY ACTION PROGRAM INC;;87-412 KAUKAMA RD;DAYCARE RMS 1 & 2;WAIANAE;HI;96792;;94-810 MOLOALO ST;SUITE 200;WAIPAHU;HI;96797;CHERYL VIDAL;808-668-0414;16428;HCAP HEAD START KEIKI COUNTRY I;20;3 years;6 years;08/01/2016;07/31/2018
GCC;LE JARDIN ACADEMY;;1004 KAILUA ROAD;;KAILUA;HI;96734;;917 KALANIANAOLE HWY;;KAILUA;HI;96734;FRANCOISE AKINA;808-263-9378;13304;LE JARDIN ACADEMY JUNIOR SCHOOL;81;3 years;6 years;04/01/2018;03/31/2020
GCC;KEIKI CARE CENTER OF HAWAII INC;;757 HOOMALU ST;;PEARL CITY;HI;96782;;757 HOOMALU ST;;PEARL CITY;HI;96782;CHERYL CUDIAMAT;808-455-5545;16252;KEIKI CARE CENTER OF HAWAII;86;2 years;6 years;02/15/2017;02/14/2019
GCC;SOUNDS OF SUCCESS PRESCHOOL AND LEARNING CENTER;BLDG. 5;98-029 HEKAHA ST;#43 - #46;AIEA;HI;96701;BLDG. 5;98-029 HEKAHA ST;#43 - #46;AIEA;HI;96701;LAURIE CASTRO;808-488-2211;16962;SOUNDS OF SUCCESS PRESCHOOL AND ;80;2 years;6 years;12/27/2016;12/26/2018
GCC;HONOLULU COMMUNITY ACTION PROGRAM INC;;602 MAGELLAN AVE;;HONOLULU;HI;96813;;1132 BISHOP ST;100;HONOLULU;HI;96813;SPENCER TENGAN;808-847-2400;16996;HCAP HEAD START DOLE ELEMENTARY;20;3 years;6 years;12/01/2016;11/30/2018
GCC;NA KAMALII HOALOHA;;670 MAUNALOA HIGHWAY;;KAUNAKAKAI;HI;96748;;PO BOX 1527;;KAUNAKAKAI;HI;96748;MARY KATHERINE BENNETT;808-553-8181;16998;NA KAMALII HOALOHA;20;2 years 8 months;6 years;11/01/2017;10/31/2019
GCC;AHA PUNANA LEO INC;;2331 SEA VIEW AVE;;HONOLULU;HI;96822;;96 PUUHONU PL;;HILO;HI;96720;PUALANI KAHOOHANOHANO;800-498-4979;17011;PUNANA LEO O MANOA;25;2 years;6 years;09/10/2016;09/09/2018
GCC;ST FRANCIS PRESCHOOL;;91-1758 OOHAO ST;CLASSROOMS 1, 2, 3, 4;EWA BEACH;HI;96706;;91-1758 OOHAO ST;CLASSROOMS 1, 2, 3, 4;EWA BEACH;HI;96706;ROCHELLE TAKATA;808-681-0100;17099;ST. FRANCIS PRESCHOOL;60;2 years 8 months;6 years;03/04/2017;03/03/2019
GCC;THE SALVATION ARMY;;91-3257 KUALAKAI PARKWAY;;EWA BEACH;HI;96706;;91-3257 KUALAKAI PARKWAY;;EWA BEACH;HI;96706;DEBBIE LUM;808-693-8336;16973;KROC KEIKI LEARNING CENTER;124;2 years;6 years;03/01/2018;02/28/2020
GCC;KANU O KA AINA LEARNING OHANA;;641043 HIIAKA STREET;;KAMUELA;HI;96743;;PO BOX 398;;KAMUELA;HI;96743;DEBORAH CHILD-LAWRENCE;808-890-2523OR 890-8144;17021;MALAMAPOKII EARLY CHILDHOOD ;38;3 years;7 years;06/01/2018;05/31/2020
GCC;OFFICE OF VP OF STUDENT AFFAIRS UNIVERSITY OF HAWAII;;2759 S KING ST;C1;HONOLULU;HI;96826;;2600 CAMPUS RD QLCSS 407;;HONOLULU;HI;96822;WAYNE WATKINS;808-956-7963;17068;UNIVERSITY OF HAWAII AT MANOA ;20;3 years;6 years;10/22/2017;10/21/2018
GCC;HONOLULU COMMUNITY ACTION PROGRAM INC;;2301 PAUOA RD;;HONOLULU;HI;96813;;1132 BISHOP STREET;SUITE 100;HONOLULU;HI;96813;SPENCER TENGAN;808-847-2400;17111;PAUOA HEAD START;20;3 years;6 years;11/01/2017;10/31/2019
GCC;HONOLULU COMMUNITY ACTION PROGRAM INC;;1445 CALIFORNIA AVE;;WAHIAWA;HI;96786;;94-810 MOLOALO ST;SUITE 200;WAIPAHU;HI;96797;PAZ, SUSAN;808-622-5370;17029;HCAP HEAD START WAHIAWA;20;3 years;6 years;10/16/2016;10/15/2018
GCC;PARENTS AND CHILDREN TOGETHER;PACT WAIMEA HEAD START;671225 MAMALAHOA HWY;ROOM V103;KAMUELA;HI;96743;PACT;27 WAIANUENUE AVE;;HILO;HI;96720;SHERRY CRANDALL;808-887-7636(CLASSROOM);17036;PACT WAIMEA ELEMENTARY HEAD START;20;2 years;6 years;05/31/2018;05/30/2020
GCC;ROOTS PRESCHOOL;;740 HAIKU ROAD;;HAIKU;HI;96708;;PO BOX 975;;HAIKU;HI;96708;MELITA CHARAN;808-250-7988;17078;ROOTS PRESCHOOL;19;3 years;6 years;02/01/2018;01/31/2020
GCC;FIRST STEP PRESCHOOL;;17-4025 KUA AINA ROAD;;KURTISTOWN;HI;96760;;82 HOOMALU STREET;;HILO;HI;96720;GYOTOKU, LOLITA;808-498-4316;17080;FIRST STEP PRESCHOOL;19;3 years;6 years;03/19/2018;03/18/2020
GCC;A ROOM TO GROW PRESCHOOL;;3195 ELUA ST;;LIHUE;HI;96766;;3195 ELUA ST;;LIHUE;HI;96766;VALERIE RITA;808-652-7573;17116;A ROOM TO GROW PRESCHOOL;24;2 years 8 months;8 years;07/19/2017;07/18/2018
GCC;KAMEHAMEHA SCHOOLS;;661 KAUMUALII STREET;;WAILUKU;HI;96793;;661 KAUMUALII STREET;;WAILUKU;HI;96793;LISA PAHUKOA;808-760-5000;16731;KAMEHAMEHA PRESCHOOL PAUKUKALO;120;3 years;7 years;06/01/2017;05/31/2019
GCC;HARRIS UNITED METHODIST CHURCH;;20 SOUTH VINEYARD BLVD;;HONOLULU;HI;96813;;20 SOUTH VINEYARD BLVD;;HONOLULU;HI;96813;KAPUA HUSSEY;808-532-4175;16806;HARRIS PRESCHOOL;33;2 years;6 years;06/06/2017;06/05/2019
GCC;PARENTS AND CHILDREN TOGETHER;KEALAKEHE ELEM SCHOOL;745118 KEALAKAA ST;ROOM P-14;KAILUA-KONA;HI;96740;PACT HEAD START;27 WAIANUENUE AVE;;HILO;HI;96720;SHERRY CRANDALL;808-324-0280;16815;PACT KEALAKEHE HEAD START;20;2 years;6 years;11/01/2016;10/31/2018
GCC;PARENTS AND CHILDREN TOGETHER;;786804 MAMALAHOA HIGHWAY;;HOLUALOA;HI;96725;PACT HEAD START;27 WAIANUENUE AVENUE;;HILO;HI;96720;SHERRY CRANDALL;808-324-0280;16817;PACT KEAUHOU HEAD START;39;2 years;6 years;11/01/2016;10/31/2018
GCC;HONOLULU COMMUNITY ACTION PROGRAM INC;;94-1170 WAIPAHU ST;ROOM I-2;WAIPAHU;HI;96797;;94-810 MOLOALO ST;SUITE 200;WAIPAHU;HI;96797;TRISHA GUSHIKUMA;808-686-7291;16819;HCAP HEAD START AUGUST AHRENS ;30;3 years;6 years;12/01/2017;11/30/2019
GCC;HONOLULU COMMUNITY ACTION PROGRAM INC;;770 KEOLU DR;D6 & D5;KAILUA;HI;96734;;1132 BISHOP STREET;SUITE 100;HONOLULU;HI;96813;KIM ITAGAKI;808-847-2400;16872;ENCHANTED LAKE HEAD START;20;3 years;6 years;05/01/2018;04/30/2020
GCC;HONOLULU COMMUNITY ACTION PROGRAM INC;;87-412 KAUKAMA RD;DAYCARE ROOM 4;WAIANAE;HI;96792;;94-810 MOLOALO ST;SUITE 200;WAIPAHU;HI;96797;CYNTHIA SUZUKI;808-668-0412;16747;HCAP HEAD START KEIKI COUNTRY II;17;3 years;6 years;08/01/2016;07/31/2018
GCC;HONOLULU COMMUNITY ACTION PROGRAM INC;;85-296 ALA HEMA ST;ROOM 3;WAIANAE;HI;96792;;94-810 MOLOALO ST;SUITE 100;WAIPAHU;HI;96797;CARLENE OLGUIN;808-696-9002;16749;HCAP HEAD START KAHIKOLU;15;3 years;6 years;12/09/2017;12/08/2019
GCC;JUMP START PRESCHOOL;;317 LEHUA STREET;;HILO;HI;96720;;317 LEHUA STREET;;HILO;HI;96720;JANICE SHIMIZU;808-854-0734;16751;JUMP START PRESCHOOL HILO;50;2 years;6 years;04/27/2018;04/26/2019
GCC;ONE LOVE MINISTRIES;;670 AUAHI ST;A4;HONOLULU;HI;96813;;670 AUAHI STREET;A4;HONOLULU;HI;96813;NAOMI KENNEY;808-440-8916;16878;KE ALOHA HOOKAHI PRESCHOOL;57;2 years;6 years;03/12/2017;03/11/2019
GCC;THE COLE ACADEMY;;1033 ALA KAHAWAI ST;;KAPOLEI;HI;96707;;1033 ALA KAHAWAI ST;;KAPOLEI;HI;96707;JANELLE AKUNA;808-674-2244;16936;THE COLE ACADEMY - KAPOLEI;96;2 years;6 years;09/30/2016;09/29/2018
GCC;HONOLULU COMMUNITY ACTION PROGRAM INC;;1141 KINAU ST;P-2;HONOLULU;HI;96814;;1132 BISHOP STREET;100;HONOLULU;HI;96813;KIM ITAGAKI;808-847-2400;16939;QUEEN KAAHUMANU ELEMENTARY ;20;3 years;6 years;04/01/2018;03/31/2020
GCC;OFFICE OF VP OF STUDENT AFFAIRS UNIVERSITY OF HAWAII;;2655 WOODLAWN DRIVE;PO 2;HONOLULU;HI;96822;;2600 CAMPUS RD;QLCSS 407;HONOLULU;HI;96822;WAYNE WATKINS;808-956-7963;16942;UNIVERSITY OF HAWAII AT MANOA ;22;3 years;6 years;07/29/2017;07/28/2018
GCC;RAINBOW SCHOOL;;59-578 KAMEHAMEHA HWY;;HALEIWA;HI;96712;;56-463 KAMEHAMEHA HWY;;KAHUKU;HI;96731;STEVEN ALBERT;808-638-0005;16770;RAINBOW SCHOOL SUNSET BEACH;17;2 years;6 years;07/27/2017;07/26/2019
GCC;KAMEHAMEHA SCHOOLS;;46-430 KAHUHIPA ST;;KANEOHE;HI;96744;;46-430 KAHUHIPA ST;;KANEOHE;HI;96744;ANDREA WAIA'U;808-534-8742;16845;KAMEHAMEHA PRESCHOOL HEEIA;114;3 years;6 years;10/01/2016;09/30/2018
GCC;KAUAI CHRISTIAN ACADEMY;;4000 KILAUEA RD;;KILAUEA;HI;96754;;PO BOX 1121;;KILAUEA;HI;96754;DANIEL PLUNKETT;808-828-0047;16785;KAUAI CHRISTIAN ACADEMY;43;2 years 8 months;6 years;09/27/2017;09/26/2018
GCC;KAMEHAMEHA SCHOOLS;;89-101 FARRINGTON HWY;;WAIANAE;HI;96792;;89-101 FARRINGTON HWY;;WAIANAE;HI;96792;KAILA LUI-KWAN;808-532-8250;16726;KAMEHAMEHA PRESCHOOL - NANAKULI ;80;3 years;6 years;07/01/2017;06/30/2019
GCC;PARENTS AND CHILDREN TOGETHER;;2133 WAIANUENUE AVENUE;;HILO;HI;96720;;27 WAIANUENUE AVENUE;;HILO;HI;96720;SANDY JONES;808-961-0570;16800;PACT HEAD START HILO CHILD ;80;3 years;6 years;10/20/2016;10/19/2018
GCC;PARENTS AND CHILDREN TOGETHER;KALANIANAOLE SCHOOL J-101;27-330 OLD MAMALAHOA HWY.;;PAPAIKOU;HI;96781;;27 WAIANUENUE AVENUE;;HILO;HI;96720;BEN NAKI;808-792-9762;16801;PACT HEAD START KALANIANAOLE ;30;3 years;6 years;01/20/2018;10/19/2018
GCC;KAMAILE ACADEMY;;85-180 ALA AKAU ST;;WAIANAE;HI;96792;;85-180 ALA AKAU ST;;WAIANAE;HI;96792;NATALIE ZISKO;808-697-7110;17409;KAMAILE ACADEMY PCS PRESCHOOL;80;3 years;6 years;08/03/2017;08/02/2018
GCC;AHA PUNANA LEO INC;;816 NIEHU STREET;A-LOUNGE;LAHAINA;HI;96761;;96 PUUHONU STREET;;HILO;HI;96720;KARYN KANEKOA;808-419-8316;17480;PUNANA LEO O LAHAINA;14;3 years;6 years;07/01/2017;06/30/2018
GCC;ST ELIZABETH PRESCHOOL;;99-312 MOANALUA RD;;AIEA;HI;96701;;99-312 MOANALUA RD;;AIEA;HI;96701;BERNARDA SINDOL;808-488-5322;17554;ST ELIZABETH PRESCHOOL;28;3 years;5 years;08/28/2017;08/27/2018
GCC;STRODE MONTESSORI;;810 RICHARDS ST., #124;;HONOLULU;HI;96813;;1041 NUUANU AVE., UNIT E;;HONOLULU;HI;96814;KELSEY AMRHEIN;808-425-4751;17413;STRODE MONTESSORI PRESCHOOL;45;3 years;6 years;01/01/2018;12/31/2018
GCC;KID'S GARDEN INTERNATIONAL;;1339 HUNAKAI ST;;HONOLULU;HI;96816;;1339 HUNAKAI ST;;HONOLULU;HI;96816;"ALMARIE ""MALIA"" LAGASO";808-737-9070;17417;KID'S GARDEN KAHALA;48;2 years;6 years;06/01/2018;05/31/2019
GCC;MAUI PREPARATORY ACADEMY;;4910 HONOAPIILANI HWY;;LAHAINA;HI;96761;;4910 HONOAPIILANI HWY;;LAHAINA;HI;96761;JENNIFER KAMBIC;808-665-9966;17505;MAUI PREPARATORY ACADEMY ;24;3 years;7 years;06/01/2018;04/30/2020
GCC;KIHEI BAPTIST CHAPEL;;1655 S. KIHEI ROAD;;KIHEI;HI;96753;;1655 S. KIHEI ROAD;;KIHEI;HI;96753;JULIE KORVER;808-875-2112;17535;KIHEI BAPTIST PRESCHOOL;24;3 years;6 years;01/01/2018;12/31/2018
GCC;AHA PUNANA LEO INC;;5060 UAKEA RD;;HANA;HI;96713;;96 PUUHONU ST;;HILO;HI;96720;KAIMANA CABEBE;808-248-8669;17514;PUNANA LEO O HANA;24;2 years;6 years;10/01/2017;09/30/2018
GCC;WAIPUNA CHAPEL;;17 OMAOPIO ROAD;;KULA;HI;96790;;17 OMAOPIO ROAD;;KULA;HI;96790;KAREN HARMER;808-878-6343;17426;WAIPUNA CHAPEL PRESCHOOL;25;3 years;6 years;08/01/2017;12/31/2018
GCC;WAILUKU UNION CHURCH;;327 SOUTH HIGH ST;;WAILUKU;HI;96793;;327 SOUTH HIGH ST;;WAILUKU;HI;96793;"TANYA ""KANANI"" KAN HAI";808-242-5950;14503;WAILUKU UNION PRESCHOOL;32;2 years;7 years;04/01/2017;03/31/2019
GCC;NATURAL BRIDGES;;2414 OKA ST;;KILAUEA;HI;96754;;PO BOX 727;;KILAUEA;HI;96754;KIRSTEN CRAIN;808-828-0353;15222;NATURAL BRIDGES;30;2 years 8 months;7 years;05/23/2017;05/22/2019
GCC;KONA HONGWANJI MISSION;;816630 MAMALAHOA HWY;;KEALAKEKUA;HI;96750;;PO BOX 769;;KEALAKEKUA;HI;96750;LEEANN ABE (TA, EFFECTIVE 6/16/16);808-323-3737;15584;KONA HONGWANJI PRESCHOOL;49;2 years;7 years;04/01/2017;03/31/2019
GCC;HONOLULU COMMUNITY ACTION PROGRAM INC;;92-1750 KUNIA DR;;KUNIA;HI;96759;;94-810 MOLOALO ST;SUITE 200;WAIPAHU;HI;96797;GRANT KOGAMI;808-621-5099;17588;HCAP HEAD START KUNIA III;20;3 years;6 years;08/30/2017;08/29/2018
GCC;LITTLE MONK SEAL MONTESSORI;;300 OHUKAI ROAD;B206;KIHEI;HI;96753;;PO BOX 532530;;KIHEI;HI;96753;MICHELLE LAZUKA;808-321-0028;17433;LITTLE MONK SEAL MONTESSORI;24;2 years 8 months;7 years;03/01/2018;02/28/2019
GCC;KULANIAKEA;;45-114 WAIKAPOKI RD;;KANEOHE;HI;96744;;117 N JUDD ST;;HONOLULU;HI;96817;WAILANI ROBINS;808-277-8650;17434;KULANIAKEA PRESCHOOL;24;2 years;6 years;01/01/2018;12/31/2018
GCC;DISNEY VACATION CLUB HAWAII MANAGEMENT COMPANY, LLC;;92-1185 ALIINUI DRIVE;;KAPOLEI;HI;96707;ATTN: OLIVIA HO;92-1185 ALIINUI DRIVE;;KAPOLEI;HI;96707;OLIVIA HO;808-674-6944;16902;DISNEY'S AUNTY'S BEACH HOUSE AT ;39;3 years;6 years;08/18/2017;08/17/2018
GCC;THE GROWING PATCH 24-HOUR CHILDREN'S ACADEMY;;99-080 KAUHALE ST;STE D14-15;AIEA;HI;96701;;91-1079 PAPAA ST;;KAPOLEI;HI;96707;ROSIE BATALLONES;808-367-1933;17578;THE GROWING PATCH 24-HOUR ;42;2 years 6 months;6 years;01/17/2018;01/16/2019
GCC;NA MAKA KINDERGARTEN PREP SCHOOL;;95-390 KUAHELANI AVE;STE 3F;MILILANI TOWN;HI;96789;;95-390 KUAHELANI AVE;STE 3F;MILILANI TOWN;HI;96789;MANDI SCOTT;808-953-4852;17534;NA MAKA KINDERGARTEN PREP SCHOOL ;18;2 years;6 years;02/16/2018;02/15/2019
GCC;IROQUOIS POINT PRESCHOOL;;5111 IROQUOIS AVE;;EWA BEACH;HI;96706;;5111 IROQUOIS AVE;;EWA BEACH;HI;96706;SHANIQUA KENNEDY;808-499-1279;17263;IROQUOIS POINT PRESCHOOL;34;3 years;6 years;08/11/2016;08/10/2018
GCC;VOLCANO SCHOOL OF ARTS AND SCIENCES;;99-128 OLD VOLCANO ROAD;;VOLCANO;HI;96785;;P. O. BOX 845;;VOLCANO;HI;96785;SERENA AIWOHI;808-985-9800;17558;VOLCANO SCHOOLS OF ARTS AND ;18;4 years;6 years;11/22/2017;07/22/2018
GCC;KA HALE O NA KEIKI PRESCHOOL;;45-3668 HONOKAA-WAIPIO RD;;HONOKAA;HI;96727;;45-3668 HONOKAA-WAIPIO RD;;HONOKAA;HI;96727;KATHY OSHIRO;808-775-9870;11400;KA HALE O NA KEIKI PRESCHOOL;37;2 years;7 years;10/29/2017;10/28/2019
GCC;KAUMANA DRIVE BAPTIST CHURCH;;388 KAUMANA DRIVE;;HILO;HI;96720;;388 KAUMANA DRIVE;;HILO;HI;96720;VERONICA HIGA;808-961-3309;11539;KAUMANA BAPTIST KEIKILAND;75;2 years;7 years;01/31/2018;01/30/2020
GCC;ST JOSEPH CHURCH;;1294 MAKAWAO AVE;;MAKAWAO;HI;96768;;1294 MAKAWAO AVE;;MAKAWAO;HI;96768;HELEN SOUZA;808-572-6235;14525;ST JOSEPH EARLY LEARNING CENTER;49;2 years;7 years;03/01/2017;02/28/2019
GCC;KAMEHAMEHA SCHOOLS;;4109 KEALIA RD;;ANAHOLA;HI;96703;;PO BOX 250;;KAUMAKANI;HI;96747;LOU ANN PETERS;808-335-0069;15566;KAMEHAMEHA SCHOOLS-NA KULA ;40;3 years;6 years;11/01/2016;10/31/2018
GCC;THE COLE ACADEMY;;780 KEOLU DR;;KAILUA;HI;96734;;46471 HOLOLIO ST;;KANEOHE;HI;96744;EMILY AWAYA LEONG;808-261-3012;16648;THE COLE ACADEMY KAILUA;60;2 years;7 years;10/09/2016;10/08/2018
GCC;KAMAAINA CARE INC;;98-939 MOANALUA ROAD;;AIEA;HI;96701;;156 C HAMAKUA DRIVE;;KAILUA;HI;96734;TANYA ZUNIGA;808-484-7830;17031;KAMAAINA KIDS ST. TIMOTHY'S ;88;2 years;7 years;08/03/2017;08/02/2019
GCC;KAHILI ADVENTIST SCHOOL;;41132 KUHIO HWY;;KAPAA;HI;96746;;PO BOX 1147;;KAPAA;HI;96746;MELBA GAPUZ;808-634-5423;17235;KAHILI ADVENTIST PRESCHOOL;12;2 years 8 months;7 years;06/13/2018;06/12/2020
GCC;HONOLULU COMMUNITY ACTION PROGRAM INC;;45-259 WAIKALUA ROAD;A5;KANEOHE;HI;96744;;94-810 MOLOALO ST;SUITE 200;WAIPAHU;HI;96797;JENNIFER TANELE;808-235-4172;17496;HCAP HEAD START BEN PARKER ;20;3 years;6 years;08/15/2017;08/14/2018
GCC;KUA O KA LA NEW CENTURY PUBLIC CHARTER SCHOOL;;14-3469 HOLIDAY ROAD;;PAHOA;HI;96778;;14-5322 KALAPANAKAPOHO RD;;PAHOA;HI;96778;DEANA WENTWORTH;808-756-8494;17560;KUA O KA LA NEW CENTURY PUBLIC ;20;3 years;5 years;08/25/2017;08/24/2018
GCC;KAMAAINA CARE INC;;55 MAKAWAO AVENUE;;MAKAWAO;HI;96768;;156 HAMAKUA DRIVE;C;KAILUA;HI;96734;KIM DAVIS;808-572-2919;17593;KAMAAINA KIDS MAKAWAO PRESCHOOL;33;2 years;6 years;07/01/2018;06/30/2019
GCC;HONOLULU COMMUNITY ACTION PROGRAM INC;;615 AUWAIOLIMU ST RM G-31;;HONOLULU;HI;96813;;615 AUWAIOLIMU ST RM G-31;;HONOLULU;HI;96813;KIMBERLY ITAGAKI;808-843-4318;17596;LINCOLN HEAD START;20;3 years;6 years;08/30/2017;08/29/2018
GCC;KAMAAINA CARE INC;;401 BALDWIN AVENUE;;PAIA;HI;96779;;156C HAMAKUA DRIVE;;KAILUA;HI;96734;KIM DAVIS;808-446-4642;17517;KAMAAINA KIDS PAIA PRESCHOOL;19;2 years;9 years;09/01/2017;08/31/2018
GCC;KAMAAINA CARE INC;;256 HINA AVENUE;;KAHULUI;HI;96732;;156C HAMAKUA DRIVE;;KAILUA;HI;96734;KIM DAVIS;808-446-4642;17580;KAMAAINA KIDS MAUI EVANGELICAL ;28;2 years;6 years;03/01/2018;02/28/2019
GCC;KAMEHAMEHA SCHOOLS;;2201 KAUMAKANI RD;;KAUMAKANI;HI;96747;;PO BOX 250;;KAUMAKANI;HI;96747;LOU ANN PETERS;808-335-0069;15567;KAMEHAMEHA SCHOOLS-NA KULA ;80;3 years;6 years;11/30/2016;11/29/2018
GCC;AHA PUNANA LEO INC;;45-233 KULAULI ST;C-5 & C-6;KANEOHE;HI;96744;;96 PUUHONU PL;;HILO;HI;96720;KA'UHANE LEE;808-236-0297;17102;PUNANA LEO O KO'OLAU POKO;49;2 years;6 years;10/01/2017;09/30/2019
GCC;MILILANI COMMUNITY CHURCH;;95-1100 KAAPEHA ST;;MILILANI TOWN;HI;96789;;95-1100 KAAPEHA ST;;MILILANI TOWN;HI;96789;SAYAKA NAKANO;808-200-7186;17455;MILILANI COMMUNITY CHURCH ;36;2 years;6 years;08/22/2017;08/21/2018
GCC;NA MANU LI'I CHILDREN'S CENTER;;500 MANONO ST;104;HILO;HI;96720;;333 ILIAHI ST;;HILO;HI;96720;FACILITY PHONE NUMBER;808-933-8585;17583;NA MANU LI'I CHILDREN'S CENTER;28;2 years;5 years;03/15/2018;02/13/2019
GCC;HONOLULU COMMUNITY ACTION PROGRAM INC;;41 1330 KALANIANAOLE HWY;;WAIMANALO;HI;96795;;1132 BISHOP STREET;STE 100;HONOLULU;HI;96813;KIMBERLY ITAGAKI;808-847-2400;14871;WAIMANALO ELEMENTARY PRE PLUS ;20;3 years;6 years;11/01/2016;10/31/2018
GCC;NA MAKA KINDERGARTEN PREP SCHOOL;;1254 S KING STREET;;HONOLULU;HI;96814;;1254 S KING STREET;;HONOLULU;HI;96814;MANDI SCOTT;808-953-4852;17589;NA MAKA KINDERGARTEN PREP SCHOOL ;16;2 years;6 years;12/04/2017;11/30/2018
GCC;PARENTS AND CHILDREN TOGETHER;;1434 LINAPUNI STREET;;HONOLULU;HI;96819;;1485 LINAPUNI STREET;SUITE 105;HONOLULU;HI;96819;LORI-LEI TAGAMI;808-792-9769;17462;PACT LINAPUNI HEAD START;20;3 years;6 years;08/01/2017;07/31/2018
GCC;KE KULA NIIHAU O KEKAHA;;8135 KEKAHA RD;;KEKAHA;HI;96752;;PO BOX 129;;KEKAHA;HI;96752;"JAMIE ""TIA"" KOERTE";808-337-0481;17395;KE KULA NIIHAU O KEKAHA- KULA PEPE;15;3 years;6 years;11/02/2017;09/01/2018
GCC;WAIALAE ELEMENTARY PUBLIC CHARTER SCHOOL;;;;;;0;;;;;;0;ANDREW AGUIRRE;808-733-4880;17398;WAIALAE ELEMENTARY PUBLIC CHARTER ;40;3 years;6 years;07/01/2018;06/30/2019
GCC;KAMEHAMEHA SCHOOLS;;1867 KAIKUNANE LP;;HONOLULU;HI;96817;;1850 MAKUAKANE ST;;HONOLULU;HI;96817;CASSANDRA BENNETT;808-842-8461;17464;KAMEHAMEHA PRESCHOOL KAPALAMA;96;3 years;6 years;09/01/2017;08/31/2018
GCC;HONOLULU COMMUNITY ACTION PROGRAM INC;;2106 10TH AVE;C4, C5 & C6;HONOLULU;HI;96816;;1132  BISHOP STREET;100;HONOLULU;HI;96813;PALOLO III;808-737-4167;13434;PALOLO I-III HEAD START;60;3 years;6 years;11/29/2016;11/28/2018
GCC;PARENTS AND CHILDREN TOGETHER;;15-890 KAHAKAI BOULEVARD;;PAHOA;HI;96778;;27 WAIANUENUE AVENUE;;HILO;HI;96720;KEALA ROWLAND;808-961-0570;16531;PACT HEAD START KEONEPOKO PRE-;20;3 years;6 years;10/01/2017;09/30/2019
GCC;KAMAAINA CARE INC;;45 JUDD STREET;;HONOLULU;HI;96817;;156 C HAMAKUA DR;;KAILUA;HI;96734;;;17472;KAMAAINA KIDS JUDD ST PRESCHOOL;18;2 years;7 years;11/21/2017;11/20/2018
GCC;MAKUA LANI CHRISTIAN ACADEMY;MAKUA LANI ACADEMY;LOWER CAMPUS;74-4907 PALANI ROAD;KAILUA-KONA;HI;96740;MAKUA LANI ACADEMY;PO BOX 1179;;KAILUA-KONA;HI;96745;NANCY BEGLEY;808-329-3093;17128;MAKUA LANI CHRISTIAN ACADEMY 4 ;16;3 years 8 months;6 years;05/08/2017;05/07/2019
GCC;HAWAII CONFERENCE OF SEVENTH DAY ADVENTISTS;;261 SOUTH PUUNENE AVENUE;;KAHULUI;HI;96732;;261 SOUTH PUUNENE AVENUE;;KAHULUI;HI;96732;JENNIFER TOMITA;808-793-2645;17131;MAUI ADVENTIST PRE ELEMENTARY ;27;2 years;7 years;04/01/2017;03/31/2019
GCC;WEE ACHIEVERS INC;;45-119 KANEOHE BAY DR;;KANEOHE;HI;96744;;1243 PUNANA LP;;KAILUA;HI;96734;TRISHA UEHARA;808-228-2873;17132;WEE ACHIEVERS INC;24;3 years;6 years;09/23/2017;09/22/2019
GCC;SAINT THERESA SCHOOL;;712 N SCHOOL ST;;HONOLULU;HI;96817;;712 N SCHOOL ST;;HONOLULU;HI;96817;ROXANNE CASIELO;808-536-4703;17177;SAINT THERESA SCHOOL;20;3 years;6 years;08/10/2017;08/09/2018
GCC;ALOHA KAI ACADEMY, INC.;;1445 BALDWIN AVENUE;;MAKAWAO;HI;96768;;PO BOX 791323;;PAIA;HI;96779;MELANIE ADAMS;808-283-3220;17182;ALOHA KAI ACADEMY, INC. - MAKAWAO ;18;2 years 8 months;7 years;01/01/2018;12/31/2018
GCC;KEIKI O KA AINA PRESCHOOL INC;CLASSROOM 5;87-790 KULAUKU ST;;WAIANAE;HI;96792;;3097 KALIHI ST;;HONOLULU;HI;96819;"FRANCINE SUA-FILO ""COOKIE""";808-670-2061;17247;KEIKI O KA AINA FAMILY LEARNING ;20;2 years 6 months;6 years;08/04/2017;08/03/2018
GCC;KAMEHAMEHA SCHOOLS;POD C-11 & POD C-12;87-790 KULAUKU ST;;WAIANAE;HI;96792;;87-790 KULAUKU ST;;WAIANAE;HI;96792;KAILA LUI-KWAN;808-532-8250;17248;KAMEHAMEHA PRESCHOOL - MA'ILI;40;3 years;6 years;08/04/2018;08/03/2020
GCC;WAIANAE COAST EARLY CHILDHOOD SERVICES, INC;POD B-6, POD B-7, POD B-8;87-790 KULAUKU ST;;WAIANAE;HI;96792;;84-1061 NOHOLIO RD;;WAIANAE;HI;96792;CASSIA SIMMS SMITH;808-695-9400;17249;WAIANAE EARLY EDUCATION CENTER AT ;76;2 years;6 years;08/01/2017;07/31/2018
GCC;HONOLULU COMMUNITY ACTION PROGRAM INC;POD C, CLASSROOMS 9 & 10;87-790 KULAUKU ST;;WAIANAE;HI;96792;;94-810 MOLOALO ST;SUITE 200;WAIPAHU;HI;96797;JASON TAKIMOTO;808-670-2032;17252;HCAP HEAD START KA PUA I & II;40;3 years;6 years;10/27/2017;10/26/2018
GCC;HALOALAUNUIAKEA EARLY LEARNING CENTER;;4402 WAI'ALO RD;;ELEELE;HI;96705;;PO BOX 1166;;KALAHEO;HI;96741;SASILY UILANI CORR-YORKMAN;808-335-5212;17137;HALOALAUNUIAKEA EARLY LEARNING ;45;2 years 8 months;6 years;08/31/2017;08/07/2018
GCC;KIDZ KARE ENTERPRISES;;1090 WAIMANO HOME ROAD;ROOM 11;PEARL CITY;HI;96782;;94-432 PAWA WAY;;MILILANI TOWN;HI;96789;MERLE MORIKAWA;808-256-2122;17258;KIDZ KARE PRESCHOOL AT PEARL CITY ;20;4 years;6 years;08/01/2017;07/31/2018
GCC;HIILEI PLAYGARDEN;;4551 KAPUNA RD;;KILAUEA;HI;96754;;PO BOX 471;;KILAUEA;HI;96754;BRIANNA ANSLEY;808-652-0100;17261;HIILEI PLAYGARDEN;28;2 years 6 months;7 years;08/25/2017;08/24/2018
GCC;PARENTS AND CHILDREN TOGETHER;;180 W. PUAINAKO STREET;;HILO;HI;96720;;27 WAIANUENUE AVENUE;;HILO;HI;96720;SANDY JONES;808-961-0570;17332;PACT HEAD START WAIAKEA ;18;3 years;6 years;08/07/2017;08/06/2018
GCC;HONOLULU COMMUNITY ACTION PROGRAM INC;;99-370 MOANALUA RD;ROOM 42;AIEA;HI;96701;;94-810 MOLOALO ST;SUITE 200;WAIPAHU;HI;96797;JENNIFER TANELE;808-843-4324;17266;HCAP HEAD START AIEA ELEMENTARY II;18;3 years;6 years;08/01/2017;07/31/2018
GCC;KAMAAINA CARE INC;;87-227 ST JOHNS ROAD;;WAIANAE;HI;96792;;156C HAMAKUA DR;;KAILUA;HI;96734;MICHELLE FULLER;808-696-9460;17336;KAMAAINA KIDS - MAILI PRESCHOOL;43;2 years;7 years;08/11/2017;08/10/2018
GCC;IMUA FAMILY SERVICES;;161 SOUTH WAKEA AVENUE;ROOM 108;KAHULUI;HI;96732;;161 SOUTH WAKEA AVENUE;;KAHULUI;HI;96732;GEMMA MEDINA;808-244-7467EXT 406;17339;IMUA INCLUSION PRESCHOOL;20;3 years;6 years;05/01/2018;04/30/2019
GCC;HONOLULU COMMUNITY ACTION PROGRAM INC;;99-370 MOANALUA RD;ROOM 41;AIEA;HI;96701;;94-810 MOLOALO ST;SUITE 200;WAIPAHU;HI;96797;JENNIFER TANELE;808-843-4303;17345;HCAP HEAD START AIEA ELEMENTARY  I;18;3 years;6 years;08/01/2017;07/31/2018
GCC;HONOLULU COMMUNITY ACTION PROGRAM INC;;5553 CORMORANT AVE;P-12;EWA BEACH;HI;96706;;94-810 MOLOALO ST;SUITE 200;WAIPAHU;HI;96797;SUZIE UYEDA;808-621-5099;17346;HCAP HEAD START IROQUOIS POINT;20;3 years;6 years;06/08/2018;06/07/2019
GCC;NA MAKA KINDERGARTEN PREP SCHOOL;;94-450 MOKUOLA ST;SUITE 102;WAIPAHU;HI;96797;;94-450 MOKUOLA ST;SUITE 102;WAIPAHU;HI;96797;MANDI SCOTT;808-798-6358;17350;NA MAKA KINDERGARTEN PREP;38;2 years;6 years;06/02/2018;06/01/2019
GCC;BRIGHT BEGINNING LEARNING CENTER;;54-113 KAWAIPUNA ST;;HAUULA;HI;96717;;P.O. BOX 638;;HAUULA;HI;96717;LARA WASSON;808-293-1801;17279;BRIGHT BEGINNING PRESCHOOL;70;3 years;6 years;09/02/2017;09/01/2018
GCC;KUALAPUU PUBLIC CONVERSION CHARTER SCHOOL;;260 FARRINGTON HIGHWAY;;KUALAPUU;HI;96757;;PO BOX 260;;KUALAPUU;HI;96757;LYDIA TRINIDAD;808-567-6900;17359;KUALAPUU PUBLIC CONVERSION ;19;4 years;6 years;02/01/2018;01/31/2019
GCC;FUN 2, 3 PRESCHOOL;;8992 KULA HIGHWAY;;KULA;HI;96790;;21 KOLOKEA WAY;;KULA;HI;96790;VICTORIA CUNNINGHAM;808-878-6068;17206;FUN 2, 3 PRESCHOOL;23;2 years;6 years;09/01/2017;08/31/2018
GCC;KE KULA O SAMUEL M. KAMAKAU, LPCS;;46-500 KUNEKI STREET;;KANEOHE;HI;96744;;46-500 KUNEKI STREET;;KANEOHE;HI;96744;MEAHILAHILA KEELING;808-235-9175;17364;NA PUALEI 'O SARAH KUPANIHI ;18;3 years;6 years;07/28/2018;07/27/2019
GCC;MONTESSORI EDUCATION CENTER OF HAWAII, INC.;;65-1197 OPELO ROAD;;KAMUELA;HI;96743;;PO BOX 967;;KAMUELA;HI;96743;BONNIE BECKETT;808-887-9214(EFF 10/15/13);17157;MONTESSORI EDUCATION CENTER OF ;49;2 years;8 years;10/04/2016;10/03/2018
GCC;HONOLULU COMMUNITY ACTION PROGRAM INC;;626 MCNEILL ST;ROOM F2;HONOLULU;HI;96817;;1132 BISHOP ST;SUITE 100;HONOLULU;HI;96813;GRANT KOGAMI;808-847-2400;17209;HCAP HEAD START KALIHI KAI ;20;3 years;6 years;07/01/2017;06/30/2019
GCC;PARENTS AND CHILDREN TOGETHER;;15-360 N. PUNI MAKAI ST.;;PAHOA;HI;96778;;27 WAIANUENUE AVENUE;;HILO;HI;96720;MAILIN MOY;808-965-3120;17368;PACT HEAD START (HAWAIIAN BEACHES);70;3 years;6 years;08/03/2017;08/02/2018
GCC;KINGS CATHEDRAL AND CHAPELS OAHU;;5740 KALANIANAOLE HWY;;HONOLULU;HI;96821;;5740 KALANIANAOLE HWY;;HONOLULU;HI;96821;ANN FUJII;808-373-7416;17216;KING'S KIDS EARLY LEARNING CENTER;49;2 years;7 years;04/28/2018;04/27/2019
GCC;KA UMEKE KAEO;;326 DESHA AVENUE;;HILO;HI;96720;;1500 KALANIANAOLE AVENUE;;HILO;HI;96720;LOUISA LEE;808-933-3482;17372;KA 'UMEKE KA'EO HAWAIIAN IMMERSION ;36;3 years;6 years;09/03/2017;09/02/2018
GCC;HONOLULU METROPOLITAN FOURSQUARE CHURCH;;429 WAIAKAMILO RD;;HONOLULU;HI;96817;;429 WAIAKAMILO RD;;HONOLULU;HI;96817;ELWIN AHU;808-312-1648;17373;METRO CHRISTIAN ACADEMY;36;2 years;7 years;12/01/2017;11/30/2018
GCC;CARDEN ACADEMY OF MAUI;;55 MAKAENA PLACE;;PUKALANI;HI;96788;;55 MAKAENA PLACE;;PUKALANI;HI;96788;ALYSHA ASUE;808-573-6651;17376;CARDEN ACADEMY OF MAUI;12;3 years;6 years;09/01/2017;09/30/2018
GCC;ABC FUN PRESCHOOL;;97A OLONA STREET;;HILO;HI;96720;;97A OLONA STREET;;HILO;HI;96720;PATRICIA MATSUO;808-934-2221;17222;ABC FUN PRESCHOOL;42;3 years;6 years;09/15/2017;09/14/2018
GCC;MONTESSORI OF OAHU;;2752 WOODLAWN DRIVE;5-114;HONOLULU;HI;96822;;2752 WOODLAWN DRIVE;5-114;HONOLULU;HI;96822;MARY LAWRENCE GALLAGHER;808-312-9605;17383;MOO SCHOOL;20;2 years;7 years;04/01/2018;03/31/2019
GCC;LAUPAHOEHOE COMMUNITY PUBLIC CHARTER SCHOOL;;35-2065 OLD MAMALAHOA HWY;;LAUPAHOEHOE;HI;96764;;P.O. BOX 189;;LAUPAHOEHOE;HI;96764;TRACY JARDINE;;17386;LAUPAHOEHOE COMMUNITY PUBLIC ;20;4 years;5 years;01/25/2018;01/24/2019
GCC;KAMEHAMEHA SCHOOLS;;15-3022 PUNA ROAD;;PAHOA;HI;96778;;101 AUPUNI STREET;SUITE 227;HILO;HI;96720;DIANE MAHER;808-935-2165;17390;KAMEHAMEHA PRESCHOOL-PAHOA;38;3 years;6 years;07/30/2017;01/29/2019
GCC;HAWAII KIDS CLUB LLC;;745565 LUHIA STREET;;KAILUA-KONA;HI;96740;;75-378 NANI KAILUA DRIVE;;KAILUA-KONA;HI;96740;PABLO PENALOZA;808-331-8000;17170;ALAKA'I ACADEMY;72;2 years;6 years;02/18/2017;02/17/2019
GCC;THE COLE ACADEMY;;94-359 MAKOHILANI ST;;MILILANI TOWN;HI;96789;;94-359 MAKOHILANI ST;;MILILANI TOWN;HI;96789;DONJA MORTON;808-625-2001;17310;THE COLE ACADEMY - MILILANI;74;2 years;6 years;02/02/2018;02/01/2019
GCC;PARENTS AND CHILDREN TOGETHER;;506 WAIANUENUE AVENUE;;HILO;HI;96720;;27 WAIANUENUE AVENUE;;HILO;HI;96720;EVA MIURA;808-961-0570;17240;PACT HEAD START HILO UNION ;20;3 years;6 years;08/05/2017;08/04/2018
GCC;HONOLULU COMMUNITY ACTION PROGRAM INC;;91-750 FT WEAVER RD;C3;EWA BEACH;HI;96706;;94-810 MOLOALO ST;SUITE 200;WAIPAHU;HI;96797;JASON TAKIMOTO;808-521-4531;17607;HCAP HEAD START POHAKEA II;20;3 years;6 years;08/25/2017;08/24/2018
GCC;PARENTS AND CHILDREN TOGETHER;;2325 N. NIMITZ HWY;;HONOLULU;HI;96819;;1485 LINAPUNI ST;105;HONOLULU;HI;96819;SILVIA SHARRAR;808-842-5996;17642;PACT KAHAUIKI VILLAGE GCC;20;3 years;6 years;06/01/2018;05/31/2019
GCC;CHILDREN WITH ALOHA ACADEMY;;550 HALEKAUWILA ST;#102-107;HONOLULU;HI;96813;;350 WARD AVE #106;;HONOLULU;HI;96813;VANESSA DIRUGGIERO OSORIO;808-388-8677;17609;CHILDREN WITH ALOHA ACADEMY;57;2 years;6 years;08/03/2017;08/02/2018
GCC;MAUNA LOA SCHOOL;;172 KAPIOLANI  STREET;;HILO;HI;96720;;172 KAPIOLANI  STREET;;HILO;HI;96720;"ABIGAIL ""JANE"" BUMANGLAG";808-935-1545;16196;MAUNA LOA PRESCHOOL;24;3 years;5 years;08/05/2017;08/04/2019
GCC;WESTIN PRINCEVILLEOCEAN RESORT VILLAS;;3838 WYLLIE ROAD;;PRINCEVILLE;HI;96722;;3838 WYLLIE ROAD;;PRINCEVILLE;HI;96722;KARLYN SUKEHIRA FLORES;808-827-8740;16469;THE WESTIN PRINCEVILLE OCEAN RESORT ;12;3 years;12 years;06/09/2018;06/08/2019
GCC;OFFICE OF VP OF STUDENT AFFAIRS UNIVERSITY OF HAWAII;;1240 7TH AVE;B102;HONOLULU;HI;96816;;2600 CAMPUS ROAD;QLCSS 407;HONOLULU;HI;96822;LANI AU;808-542-1182;17621;UNIVERSITY OF HAWAII AT MANOA ;24;2 years 9 months;6 years;01/08/2018;01/07/2019
GCC;ISLAND SCHOOL NA PUA KEIKI;;31901 KAUMUALII HWY;;LIHUE;HI;96766;;31875 KAUMUALII HWY;;LIHUE;HI;96766;KATIE MAGOUN;808-246-0233;14287;ISLAND SCHOOL NA PUA KEIKI;48;2 years 8 months;6 years;01/31/2018;01/30/2019
GCC;CALVARY BY THE SEA SCHOOL;;5286 KALANIANAOLE HWY;;HONOLULU;HI;96821;;5339 KALANIANAOLE HWY;;HONOLULU;HI;96821;KAY BURGOYNE;808-377-5104;13028;CALVARY BY THE SEA SCHOOL;75;2 years;7 years;12/01/2017;11/30/2019
GCC;THE COLE ACADEMY;;68148 HOOHANA STREET;;KAMUELA;HI;96743;;68148 HOOHANA STREET;;KAMUELA;HI;96743;;;17674;THE COLE ACADEMY-MAUNA LANI;0;;;;
GCC;CHILD & FAMILY SERVICES KAUAI;;4886 KAWAIHAU RD;;KAPAA;HI;96746;;2970 KELE ST;SUITE 203;LIHUE;HI;96766;REINA KURISU;808-652-9262;14285;KAPAA HEAD START;20;2 years 9 months;6 years;11/04/2016;11/03/2018
GCC;HONOLULU COMMUNITY ACTION PROGRAM INC;;94-230 PAIWA ST;;WAIPAHU;HI;96797;;94-810 MOLOALO ST;SUITE 200;WAIPAHU;HI;96797;CAROLYN DEL TORO;808-680-0835;14824;HCAP HEAD START WAIPAHU PARK;40;3 years;6 years;12/01/2017;11/30/2019
GCC;KAMEHAMEHA SCHOOLS;KULANA OIWI CENTER;612 MAUNALOA HIGHWAY;BLDG A;KAUNAKAKAI;HI;96748;ATTENTION: KAILA LUI-KWA;89-101 FARRINGTON HWY;;WAIANAE;HI;96792;KAILA LUI-KWAN;808-534-8250;14406;KAMEHAMEHA PRESCHOOL-KALAMAULA;20;3 years;6 years;05/01/2017;04/30/2019
GCC;CHILD & FAMILY SERVICES KAUAI;;9707 TSUCHIYA RD;P-1;WAIMEA;HI;96796;;2970 KELE ST;203;LIHUE;HI;96766;REINA KURISU;808-652-9262;17366;WAIMEA MENEHUNE PRESCHOOL;18;2 years 9 months;6 years;10/04/2017;10/03/2018
GCC;JUMP START PRESCHOOL;;2550 PALI HIGHWAY;;HONOLULU;HI;96817;P.O. BOX;276;;LAUPAHOEHOE;HI;96764;CHRISSY SALES;;17661;JUMPSTART PRESCHOOL;48;2 years;7 years;07/01/2018;06/30/2020
GCC;MONTESSORI COMMUNITY SCHOOL;;1239 NEHOA ST;;HONOLULU;HI;96822;;1239 NEHOA ST;;HONOLULU;HI;96822;PATSY TOM;808-522-0244;13374;MONTESSORI COMMUNITY SCHOOL;126;2 years;7 years;05/01/2018;04/30/2020
GCC;LITTLE SEED EARLY LEARNING CENTER;;1132 BISHOP ST #120;;HONOLULU;HI;96813;;1132 BISHOP ST #120;;HONOLULU;HI;96813;VI VERAWUDH;;17649;LITTLE SEED LEARNING CENTER;24;2 years;6 years;02/26/2018;02/25/2019
GCC;WAIANAE SEVENTH-DAY ADVENTIST CHURCH;;86-072 FARRINGTON HWY;;WAIANAE;HI;96792;;86-072 FARRINGTON HWY;;WAIANAE;HI;96792;CHERYL KANESHIRO;808-696-3988;13947;MALAMA NA KEIKI O WAIANAE ;30;2 years 6 months;6 years;02/01/2018;01/31/2020
GCC;LEAPS & BOUNDS PRESCHOOL, LLC;;4360 PAHEE ST;;LIHUE;HI;96766;;4360 PAHEE ST;;LIHUE;HI;96766;LAURA HAMPTON;808-431-4668;17656;LEAPS & BOUNDS PRESCHOOL, LLC;48;2 years 8 months;7 years;05/01/2018;04/30/2019
GCC;PARENTS AND CHILDREN TOGETHER;;18-1235 VOLCANO HIGHWAY;;MOUNTAINVIEW;HI;96771;;27 WAIANUENUE AVENUE;;HILO;HI;96720;KEALA ROWLAND;808-961-0570;16796;PACT HEAD START MT. VIEW PRE-PLUS;20;3 years;6 years;10/20/2016;10/19/2018
GCC;KAMAAINA CARE INC;;45-435 AUMOKU ST;;KANEOHE;HI;96744;;156C HAMAKUA DR;;KAILUA;HI;96734;LOIS FOGELSTROM;808-235-4833;17384;KAMAAINA KIDS CALVARY PRESCHOOL;110;2 years;6 years;11/01/2016;10/31/2018
GCC;PARENTS AND CHILDREN TOGETHER;;145 WAINAKU STREET;;HILO;HI;96720;;27 WAIANUENUE AVENUE;;HILO;HI;96720;WENDY CORREA;808-961-0570;16804;PACT HEAD START (PUUEO);35;3 years;6 years;10/20/2016;10/19/2018
GCC;KAMAAINA CARE INC;;1052 ILIMA DR;;HONOLULU;HI;96817;;156 HAMAKUA DR;C;KAILUA;HI;96734;DAVINELL ESTOCADO;808-595-6634;15570;KAMAAINA KIDS ALEWA HEIGHTS AT ST ;36;2 years;6 years;02/01/2018;01/31/2020
GCC;ST JOSEPH SCHOOL;;999 ULULANI STREET;;HILO;HI;96720;;999 ULULANI STREET;;HILO;HI;96720;MARIE ROBERTS;808-961-0424;12610;ST.  JOSEPH MONTESSORI-BASED ;49;2 years;6 years;09/01/2016;08/31/2018
GCC;SPRINGS OF LIVING WATER;;94-133 PAHU ST;;WAIPAHU;HI;96797;;94-133 PAHU ST;;WAIPAHU;HI;96797;KAREN CRUCE;808-676-4673;13779;FAITH, HOPE & LOVE CHILD CARE & ;32;2 years;6 years;03/25/2018;03/24/2020
GCC;WAIMALU GRACE BRETHREN CHURCH;;94-1323 WAIPIO UKA ST;;WAIPAHU;HI;96797;;94-1323 WAIPIO UKA ST;;WAIPAHU;HI;96797;MARCIA ARAKAWA;808-671-6700;14209;GRACE FELLOWSHIP CHILDRENS CENTER;100;2 years;6 years;03/01/2017;02/28/2019
GCH;KAIKALA, DEBORA ANN N;;;;MILILANI TOWN;HI;96789;;;;MILILANI TOWN;HI;96789;;808-627-0783;15416;LEALEA NA KAMALII, A LICENSED ;12;3 months;13 years;12/01/2017;11/30/2019
GCH;MARTIN, VIRGINIA L;;;;KAPAA;HI;96746;;;;KAPAA;HI;96746;;808-821-1676;15251;MERRY GO ROUND PRESCHOOL;12;2 years 8 months;12 years;09/12/2017;09/11/2018
GCH;FUJISAKA, JOANNE;;;;KAILUA-KONA;HI;96740;;;;KAILUA-KONA;HI;96740;;808-329-3307;14741;TINY HANDS NURSERY;12;2 years;6 years;12/01/2017;11/30/2019
GCH;YAMAGUCHI, ANNETTE E;;;;WAIPAHU;HI;96797;;;;WAIPAHU;HI;96797;;808-312-3108;16100;ANNETTE YAMAGUCHI AND SHERYL ANN ;12;2 months;13 years;08/01/2016;07/31/2018
GCH;PARSONS, KONANE U;;;;MAKAWAO;HI;96768;;;;MAKAWAO;HI;96768;;808-276-8013;17448;KIDS AT PLAY LEARNING CENTER;12;3 years;6 years;04/01/2017;03/31/2019
GCH;FINAZZOKRUEGER, MARIA A;;;;KAPAA;HI;96746;;;;KAPAA;HI;96746;;808-635-1626;17452;KE KULA PONO LLC;12;2 years 8 months;7 years;04/08/2018;04/07/2019
IT;KAMAAINA CARE INC;;784 KAMEHAMEHA HWY;;PEARL CITY;HI;96782;;156 HAMAKUA DR;C;KAILUA;HI;96734;CHANELLE MATTOS;808-455-3330;13863;KAMAAINA KIDS - PEARL CITY INFANT ;16;6 weeks;3 years;01/29/2017;01/28/2019
IT;KAMAAINA CARE INC;;930 LUNALILO ST;;HONOLULU;HI;96822;;156 HAMAKUA DR;C;KAILUA;HI;96734;ERNESTINE MIRANDA;808-599-2807;13226;KAMAAINA KIDS HONOLULU TODDLER ;12;1 year;2 years;03/01/2018;02/28/2020
IT;MEO INC MAUI HEADSTART;;97 MAHALANI STREET;;WAILUKU;HI;96793;;99 MAHALANI STREET;;WAILUKU;HI;96793;"DEBORAH ""DEBBI"" AMARAL";808-249-2988;14990;KAHI KAMALII INFANT TODDLER CENTER;20;1 year;4 years;07/01/2017;06/30/2019
IT;MONTESSORI SCHOOL OF MAUI INC;;2933 BALDWIN AVE;;MAKAWAO;HI;96768;;2933 BALDWIN AVE;;MAKAWAO;HI;96768;ERIC DUSTMAN;808-572-0734;14548;MONTESSORI SCHOOL OF MAUI INFANT ;12;1 year 6 months;3 years 6 months;11/01/2017;10/31/2019
IT;A CARING PLACE, LLP;;260 N KAINALU DR;;KAILUA;HI;96734;;260 N KAINALU DR;;KAILUA;HI;96734;CAREN A LEDER;808-261-1388;13615;A CARING PLACE INFANT AND TODDLER ;24;6 weeks;3 years;01/01/2017;12/31/2018
IT;PARENTS AND CHILDREN TOGETHER;;860 FOURTH ST;#110;PEARL CITY;HI;96782;;1485 LINAPUNI ST;#105;HONOLULU;HI;96819;ERMENIA TEASDALE;808-676-2790;15320;PACT EARLY HEAD START AT LEEWARD ;8;6 weeks;4 years;08/01/2017;07/31/2019
IT;WESLEY CHILDRENS PROGRAMS;;1350 HUNAKAI ST;;HONOLULU;HI;96816;;1350 HUNAKAI ST;;HONOLULU;HI;96816;BILLY HENSON;808-732-3273;13662;WESLEY CHILDRENS PROGRAMS INFANT ;21;6 months;3 years;04/01/2017;03/31/2019
IT;HIILANI INF/TOD CENTER;;595 A KAPIOLANI ST;;HILO;HI;96720;;595 A KAPIOLANI ST;;HILO;HI;96720;ANGIE TOLEDO;;14599;HI'ILANI INFANT AND TODDLER CENTER;18;6 weeks;4 years;09/25/2016;09/24/2018
IT;HAWAII MONTESSORI INC.;;74978 MANAWALEA STREET;;KAILUA-KONA;HI;96740;;74978 MANAWALEA STREET;;KAILUA-KONA;HI;96740;MAYA WHEATON;808-329-0700;14603;HAWAII MONTESSORI SCHOOLS, KONA ;24;6 weeks;3 years 1 month;09/29/2016;09/28/2018
IT;SEAGULL SCHOOLS INC;;1130 ALAPAI ST;;HONOLULU;HI;96813;;1300 KAILUA RD;;KAILUA;HI;96734;CHARLES LARSON;808-533-0004;13617;THE EARLY EDUCATION CENTER ;28;1 year 6 months;3 years;10/01/2016;09/30/2018
IT;ST PHILOMENA EARLY LEARNING CENTER;;3300 ALA LAULANI ST;;HONOLULU;HI;96818;;3300 ALA LAULANI ST;;HONOLULU;HI;96818;PETER TEDTAOTAO;808-833-8080;14163;ST PHILOMENA EARLY LEARNING CENTER ;35;1 year 3 months;3 years;01/01/2017;12/31/2018
IT;STEPPING STONES ACADEMY;;860 HALEKAUWILA ST;103;HONOLULU;HI;96813;;860 HALEKAUWILA ST;103;HONOLULU;HI;96813;HARKIRAN A SINGH;808-593-2922;15991;STEPPING STONES ACADEMY INFANT ;46;6 weeks;3 years;11/01/2016;10/31/2018
IT;PARENTS AND CHILDREN TOGETHER;;1485 LINAPUNI STREET;;HONOLULU;HI;96819;;1485 LINAPUNI ST;105;HONOLULU;HI;96819;JAMIE LYNN RUIZ;808-842-5996;15678;PACT EARLY HEAD START KPT ;16;6 weeks;4 years;09/01/2017;08/31/2019
IT;CASTLE MEDICAL CENTER;;659 ULUKAHIKI ST;;KAILUA;HI;96734;;640 ULUKAHIKI ST;;KAILUA;HI;96734;CELIA WAIHEE;808-263-5210;13036;CASTLE MEDICAL CENTER CHILD ;36;6 weeks;3 years;11/21/2017;11/20/2019
IT;KAMAAINA CARE INC;;91-1841 FT WEAVER RD;;EWA BEACH;HI;96706;;156 HAMAKUA DR;C;KAILUA;HI;96734;NICOLE SHIMASKAI;808-681-1503;13855;KAMAAINA KIDS @ CFS EWA INFANT ;41;6 weeks;4 years;08/16/2017;08/15/2018
IT;KAMAAINA CARE INC;;345 KAHELU AVE;;MILILANI TOWN;HI;96789;;156C HAMAKUA DR;;KAILUA;HI;96734;KALAI LENCHANKO;808-623-1322;13860;KAMAAINA KIDS MILILANI TECH PARK ;45;1 year;4 years;05/24/2018;05/23/2020
IT;THE EARLY SCHOOL;;2510 BINGHAM ST;;HONOLULU;HI;96826;;2510 BINGHAM ST;;HONOLULU;HI;96826;FRANCES DOTE;808-955-5881;13621;THE EARLY SCHOOL YOUNG CHILDRENS ;20;1 year 6 months;3 years 6 months;05/01/2018;04/30/2020
IT;PARENTS AND CHILDREN TOGETHER;;41467 HIHIMANU ST;;WAIMANALO;HI;96795;;1485 LINAPUNI ST;105;HONOLULU;HI;96819;SALINA HARDY;808-259-6086;15624;PACT EARLY HEAD START JOB CORPS ;8;6 weeks;4 years;12/01/2016;11/30/2018
IT;PARENTS AND CHILDREN TOGETHER;MOD 1;41038 WAILEA ST;;WAIMANALO;HI;96795;;1485 LINAPUNI ST;105;HONOLULU;HI;96819;SALINA HARDY;808-259-6087;15544;PACT WAIMANALO EARLY HEAD START;8;6 weeks;4 years;08/01/2016;07/31/2018
IT;HAWAII COMMUNITY COLLEGE;;200 W. KAWILI STREET;BUILDING 3393;HILO;HI;96720;;200 W. KAWILI STREET;BUILDING 3393;HILO;HI;96720;CHANELLE BABAGAY;808-934-2630;15440;HAWAII COMMUNITY COLLEGE ;8;1 year 6 months;2 years 6 months;04/09/2018;04/08/2019
IT;UNITY SCHOOL;;3608 DIAMOND HEAD CIR;;HONOLULU;HI;96815;;3608 DIAMOND HEAD CIR;;HONOLULU;HI;96815;RANDI ROBERTS;808-735-7666;15476;FIRST STEPS/UNITY SCHOOL;18;1 year;3 years;10/01/2016;09/30/2018
IT;KAMAAINA CARE INC;;1052 ILIMA DR;;HONOLULU;HI;96817;;1052 ILIMA DR;;HONOLULU;HI;96817;DAVINELL ESTOCADO;808-595-6634;15571;KAMAAINA KIDS ALEWA HEIGHTS INFANT ;26;6 weeks;3 years;07/01/2018;06/30/2020
IT;THE SALVATION ARMY;;845 22ND AVE;;HONOLULU;HI;96816;;845 22ND AVE;;HONOLULU;HI;96816;CANDACE ANN PANG;808-732-2802;13624;THE SALVATION ARMY FAMILY ;22;2 weeks;2 years;05/01/2018;04/30/2020
IT;HAPPY KEIKI PRESCHOOL;;1035 UNIVERSITY AVE;102;HONOLULU;HI;96826;;408 POIPU DRIVE;;HONOLULU;HI;96825;HATSUMI VISAYA;808-381-8185;16617;HAPPY KEIKI INFANT AND TODDLER ;18;6 weeks;2 years;06/01/2018;05/31/2020
IT;THE COLE ACADEMY;;780 KEOLU DR;;KAILUA;HI;96734;;46471 HOLOLIO ST;;KANEOHE;HI;96744;EMILY AWAYA LEONG;808-261-3012;16647;THE COLE ACADEMY KAILUA I/T ;27;6 weeks;2 years;11/01/2016;10/31/2018
IT;MAUI FAMILY SUPPORT SERVICES, INC.;;15 IPU AUMAKUA LANE;;LAHAINA;HI;96761;;1844 WILI PA LOOP;;WAILUKU;HI;96793;LARAE BALAG;808-242-0900;16699;MAUI FAMILY SUPPORT SERVICES EHS ;8;6 weeks;4 years;06/01/2018;05/31/2020
IT;ALOHA KAI ACADEMY, INC.;;954 BALDWIN AVENUE;;PAIA;HI;96779;;PO BOX 791925;;PAIA;HI;96779;MELANIE ADAMS;808-283-3220;16663;ALOHA KAI ACADEMY, INC.;10;1 year;3 years;03/01/2018;02/29/2020
IT;KAMAAINA CARE INC;;539 KAPAHULU AVE;;HONOLULU;HI;96815;;156 HAMAKUA DR;C;KAILUA;HI;96734;SHIRENA LEONG;808-734-6112;16321;KAMAAINA KIDS ST. MARKS CHILDRENS ;18;6 weeks;2 years;03/01/2017;02/28/2019
IT;THE COLE ACADEMY;;36 MERCHANT ST;;HONOLULU;HI;96813;;46-471 HOLOLIO ST;;KANEOHE;HI;96744;EMILY AWAYA LEONG;808-531-4500;15198;THE COLE ACADEMY INFANT AND ;68;6 weeks;3 years;10/25/2016;10/25/2018
IT;THE COLE ACADEMY;;1041 10TH AVE;;HONOLULU;HI;96816;;1041 10TH AVE;;HONOLULU;HI;96816;SERINAANNE PASION;808-732-4200;15585;THE COLE ACADEMY KAIMUKI INFANT ;50;6 weeks;2 years 1 month;04/18/2018;04/17/2020
IT;KAMAAINA CARE INC;;1965 BOUGAINVILLE AVENUE;;KAPOLEI;HI;96707;;156C HAMAKUA DR;;KAILUA;HI;96734;MICHELLE FULLER;808-371-4572;16408;KAMAAINA KIDS KALAELOA INFANT ;45;6 weeks;4 years;05/01/2017;04/30/2019
IT;KAMAAINA CARE INC;;553 WAINEE STREET;;LAHAINA;HI;96761;;156 C HAMAKUA DRIVE;;KAILUA;HI;96734;KIMBERLY DAVIS;808-667-0422;16115;KAMAAINA KIDS LAHAINA INFANT ;28;6 weeks;3 years 1 month;08/01/2016;07/31/2018
IT;FAMILY SUPPORT SERVICES OF WEST HAWAII;KEALAKEHE HIGH SCHOOL;745000 PUOHULIHULI ST;ROOM J-102;KAILUA-KONA;HI;96740;;75127 LUNAPULE ROAD;SUITE 11;KAILUA-KONA;HI;96740;STACY BROWN;808-313-3725;16255;FSSWH EARLY HEAD START TEEN PARENT ;8;6 weeks;3 years;07/13/2016;07/12/2018
IT;POPPINS USA INC;SHERATON WAIKIKI HOTEL;2255 KALAKAUA AVE;434;HONOLULU;HI;96815;SHERATON WAIKIKI HOTEL;2255 KALAKAUA AVE;434;HONOLULU;HI;96815;HUNTER PARKER;808-931-8086;16136;POPPINS KEIKI HAWAII INFANT AND ;5;3 months;2 years 6 months;11/01/2016;10/31/2018
IT;AHA PUNANA LEO INC;;16-120 'OPUKAHA'IA STREET;;KEAAU;HI;96749;;96 PU'UHONU STREET;;HILO;HI;96720;LENNETH PAVAO;808-982-8870;15724;PUNANA LEO O HILO - HI'I PEPE;19;9 months;4 years;11/01/2016;10/31/2018
IT;PARENTS AND CHILDREN TOGETHER;;53-594 KAMEHAMEHA HWY;;HAUULA;HI;96717;;1485 LINAPUNI ST;SUITE 105;HONOLULU;HI;96819;SILVIA SHARRAR;808-842-5996;14726;PACT  EARLY HEAD START AT PUNALUU ;8;6 weeks;4 years;05/07/2018;05/06/2020
IT;KAMAAINA CARE INC;;10 MANINO CIRCLE;BUILDING 26;KIHEI;HI;96753;;156C HAMAKUA DRIVE;;KAILUA;HI;96734;STACY CLARK;808-874-8844;15575;KAMAAINA KIDS PIILANI - INFANT ;14;6 weeks;3 years;04/01/2017;03/31/2019
IT;WAIKIKI COMMUNITY CENTER;;310 PAOAKALANI AVENUE;;HONOLULU;HI;96815;;310 PAOAKALANI AVENUE;;HONOLULU;HI;96815;PAMELA SEELIG;808-922-2098;17120;WAIKIKI COMMUNITY CENTER EARLY ;12;1 year 2 months;2 years;01/01/2017;12/31/2018
IT;KAMAAINA CARE INC;;98-939 MOANALUA ROAD;;AIEA;HI;96701;;156 C HAMAKUA DR;;KAILUA;HI;96734;TANYA ZUNIGA;808-484-7830;17030;KAMAAINA KIDS ST TIMOTHY'S ;20;6 weeks;3 years;08/03/2017;08/02/2019
IT;KAMAAINA CARE INC;;50 SOUTH PAPA AVENUE;;KAHULUI;HI;96732;;156 C HAMAKUA DRIVE;;KAILUA;HI;96734;KIM DAVIS;808-877-7256;17033;KAMAAINA KIDS KAHULUI TODDLER ;6;1 year;3 years 5 months;05/01/2017;04/30/2019
IT;FAMILY SUPPORT SERVICES OF WEST HAWAII;GREENWELL FAMILY DEVELOP;81-6493 MAMALAHOA HIGHWAY;;KEALAKEKUA;HI;96750;FAMILY SUPPORT SERVICE WH;75-127 LUNAPULE ROAD;SUITE 11;KAILUA-KONA;HI;96740;STACY BROWN;808-323-3303;16916;JACK & HELEN GREENWELL EARLY HEAD ;6;6 weeks;3 years;07/25/2017;07/24/2019
IT;THE COLE ACADEMY;;1033 ALA KAHAWAI ST;;KAPOLEI;HI;96707;;1033 ALA KAHAWAI ST;;KAPOLEI;HI;96707;JANELLE AKUNA;808-674-2244;16937;THE COLE ACADEMY - KAPOLEI INFANT ;80;6 weeks;3 years;09/30/2016;09/29/2018
IT;PAHALA PRESCHOOL;PAHALA UNITED METHODIST;961225 HUAPALA ST;;PAHALA;HI;96777;;PO BOX 366;;PAHALA;HI;96777;KATHY ANDRADE;808-928-8541;16765;PAHALA PRESCHOOL TODDLER ;3;6 weeks;3 years;05/01/2017;04/30/2019
IT;STRODE MONTESSORI;;1041 NUUANU AVENUE;E;HONOLULU;HI;96817;;1041 NUUANU AVENUE;E;HONOLULU;HI;96817;PAMELA MAGASINN STRODE;808-744-5914;16941;STRODE MONTESSORI MAUKA;33;6 weeks;3 years;01/24/2018;01/23/2020
IT;PARENTS AND CHILDREN TOGETHER;;85-296 ALA HEMA ST;ROOMS #1;WAIANAE;HI;96792;;1485 LINAPUNI ST;STE 105;HONOLULU;HI;96819;SILVIA SHARRAR;808-676-2790;16771;PACT EARLY HEAD START AT KAHIKOLU;8;6 weeks;3 years;09/07/2017;09/06/2019
IT;KAMAAINA CARE INC;;5919 KALANIANAOLE HWY;;HONOLULU;HI;96821;;156 C HAMAKUA DR;;KAILUA;HI;96734;SHIRENA LEONG;808-394-6055;16906;KAMAAINA KIDS HOLY TRINITY ;18;6 weeks;2 years;02/09/2017;02/08/2019
IT;RAINBOW SCHOOL;;300 ALA MOANA BLVD;1 108;HONOLULU;HI;96813;;PO BOX 50043;;HONOLULU;HI;96850;MEI QING OU;808-541-1701;15942;RAINBOW SCHOOL HONOLULU INFANT & ;16;3 months;2 years 4 months;10/01/2017;09/30/2019
IT;HAPPY KEIKI PRESCHOOL;;6650 HAWAII KAI DR;#103;HONOLULU;HI;96825;;408 POIPU DR;;HONOLULU;HI;96825;HATSUMI VISAYA;808-381-8185;17509;HAPPY KEIKI PRESCHOOL IT CENTER ;10;1 year;3 years;10/01/2017;09/30/2018
IT;KAMAAINA CARE INC;;45 JUDD ST;;HONOLULU;HI;96817;;156 C HAMAKUA DR;;KAILUA;HI;96734;DAVINELL ESTOCADO;808-585-9552;17543;KAMAAINA KIDS JUDD ST INFANT ;18;6 weeks;3 years;04/03/2018;04/02/2019
IT;KAMAAINA CARE INC;;401 BALDWIN AVENUE;;PAIA;HI;96779;KAMAAINA KIDS;156 C HAMAKUA DR;;KAILUA;HI;96734;KIMBERLY DAVIS;808-446-4642;17577;KAMAAINA KIDS PAIA INFANT TODDLER ;17;1 year;3 years 2 months;04/01/2018;03/31/2019
IT;MAUI FAMILY SUPPORT SERVICES, INC.;;4111 HANA HIGHWAY;;HANA;HI;96713;;1844 WILI PA LOOP;;WAILUKU;HI;96793;"ANA ""AVE"" DIAZ";808-242-0900EXT. 265;17324;MFSS, INC.  HANA INFANT/TODDLER ;12;6 weeks;4 years;12/01/2017;11/30/2018
IT;PARENTS AND CHILDREN TOGETHER;CLASSROOMS A & B;87-790 KULAUKU ST;;WAIANAE;HI;96792;;94-366 PUPUPANI ST;ROOM 302;WAIPAHU;HI;96797;SILVIA SHARRAR;808-842-5996;17253;PACT EARLY HEAD START KA PUA;16;6 weeks;4 years;08/04/2017;08/03/2018
IT;AHA PUNANA LEO INC;CLASSROOM D;87-790 KULAUKU ST;;WAIANAE;HI;96792;;96 PUUHONU PL;;HILO;HI;96720;"BRANDY ""KALEHUA"" CACERES";808-620-9052;17257;PUNANA LEO O WAIANAE HI'I PEPE;11;9 months;3 years;10/13/2017;10/12/2019
IT;KEIKI O KA AINA PRESCHOOL INC;CLASSROOM C;87-790 KULAUKU ST;;WAIANAE;HI;96792;;3097 KALIHI ST;;HONOLULU;HI;96819;FRANCINE SUA-FILO;808-670-2061;17262;KEIKI O KA AINA FAMILY LEARNING ;8;6 weeks;4 years;08/04/2017;08/03/2018
IT;KAMAAINA CARE INC;;87-227 ST JOHNS RD;;WAIANAE;HI;96792;;156C HAMAKUA DR;;KAILUA;HI;96734;MICHELLE FULLER;808-696-9460;17337;KAMAAINA KIDS - MAILI INFANT ;32;6 weeks;3 years;08/11/2017;08/10/2018
IT;KAMAAINA CARE INC;;45-520 KEAAHALA RD;;KANEOHE;HI;96744;;156 C HAMAKUA DR;;KAILUA;HI;96734;NEVETRA WHORLINE;808-247-0718;17190;KAMAAINA KIDS KANEOHE INFANT AND ;16;6 weeks;3 years;09/01/2017;08/31/2018
IT;STRODE MONTESSORI;;925 BETHEL ST;SUITE 100;HONOLULU;HI;96813;;925 BETHEL ST;SUITE 100;HONOLULU;HI;96813;PAMELA STRODE;808-200-4541;17203;STRODE MONTESSORI MAKAI;27;6 weeks;3 years;11/17/2017;11/26/2018
IT;KAMAAINA CARE INC;;1425 KEOLU DRIVE;;KAILUA;HI;96734;;156C HAMAKUA DRIVE;;KAILUA;HI;96734;NICOLE SHODAHL;808-263-5554;17309;KAMAAINA KIDS ENCHANTED LAKE ;10;1 year;3 years;02/23/2018;02/22/2019
IT;THE COLE ACADEMY;;94-359 MAKOHILANI ST;;MILILANI TOWN;HI;96789;;94-359 MAKOHILANI ST;;MILILANI TOWN;HI;96789;DONJA MORTON;808-625-2001;17311;THE COLE ACADEMY - MILILANI INFANT ;47;6 weeks;3 years;02/02/2018;02/01/2019
IT;PARENTS AND CHILDREN TOGETHER;;2325 N NIMITZ HWY;;HONOLULU;HI;96819;;1485 LINAPUNI ST;105;HONOLULU;HI;96819;SILVIA SHARRAR;808-842-5996;17643;PACT KAHAUIKI VILLAGE IT PROGRAM;16;6 weeks;4 years;06/01/2018;05/31/2019
IT;PARENTS AND CHILDREN TOGETHER;;67-160 FARRINGTON HWY;ROOM V-101;WAIALUA;HI;96791;;1485 LINAPUNI ST;STE 105;HONOLULU;HI;96819;LILIAN MAKAIAU;808-293-5530;16598;PACT - EARLY HEAD START AT WAIALUA ;8;6 weeks;4 years;04/14/2018;04/13/2020
IT;KAMAAINA CARE INC;;38 KANEOHE BAY DRIVE;;KAILUA;HI;96734;;156C HAMAKUA DRIVE;;KAILUA;HI;96734;NICOLE SHODAHL;808-254-5402;15930;KAMAAINA KIDS AIKAHI INFANT AND ;30;6 weeks;2 years;04/01/2018;03/31/2020
IT;THE COLE ACADEMY;;68148 HOOHANA STREET;;KAMUELA;HI;96743;;68148 HOOHANA STREET;;KAMUELA;HI;96743;EMILY AWAYA LEONG;808-232-3561;17673;THE COLE ACADEMY-MAUNA LANI;0;;;;
IT;MAUI FAMILY SUPPORT SERVICES, INC.;;1844 WILI PA LOOP;;WAILUKU;HI;96793;;1844 WILI PA LOOP;SUITE 200;WAILUKU;HI;96793;"ANA ""AVE"" DIAZ";808-242-0900EXT. 265;15084;MAUI FAMILY SUPPORT SERVICES ;28;6 weeks;5 years;11/01/2016;10/31/2018
IT;STEPPING STONES ACADEMY;;98-761 OIHANA PLACE;STE 1;AIEA;HI;96701;;98-761 OIHANA PLACE;STE 1;AIEA;HI;96701;DIANA SAKURAI;808-485-1010;15780;STEPPING STONES ACADEMY INFANT ;60;6 weeks;3 years;08/29/2017;08/28/2019
IT;HONOLULU COMMUNITY COLLEGE;;874 DILLINGHAM BLVD;;HONOLULU;HI;96817;;874 DILLINGHAM BLVD;;HONOLULU;HI;96817;LISA YOGI;808-845-9466;13161;HCC KEIKI HAUOLI CHILDRENS CENTER ;18;3 months;3 years;10/01/2017;09/30/2019
IT;THE COLE ACADEMY;;800 BETHEL ST;;HONOLULU;HI;96813;;800 BETHEL ST;;HONOLULU;HI;96813;CASSANDRA PAYNE;808-531-4500;17650;THE COLE ACADEMY QUEEN'S COURT;74;6 weeks;3 years;06/01/2018;05/31/2019
IT;CHILDREN WITH ALOHA ACADEMY;;550 HALEKAUWILA ST;#102-107;HONOLULU;HI;96813;;350 WARD AVE;;HONOLULU;HI;96813;;;17629;CHILDREN WITH ALOHA ACADEMY IT ;12;6 weeks;2 years;10/18/2017;10/17/2018
