"Facility ID";"Name";"Programm Type";"City";"Phone";"County";"Zip";"Addess";"Addess1";"Email";"License Status"
"CCCB-06954";"Bright Ideas";"Center Based Program License";"Amherst";;"Hillsborough";"'03031";"292 Route 101, Building D";;;"Permit Issued"
"CCCB-05636";"Country Village Montessori School";"Center Based Program License";"Amherst";6036723882;"Hillsborough";"'03031";"2 Overlook Drive";;"cedbasket@aol.com";"Active"
"CCCB-06085";"Kids Inn";"Center Based Program License";"Amherst";6036721199;"Hillsborough";"'03031";"67 Route 101A";;;"Active"
"CCCB-06529";"Nellie's Treehouse";"Center Based Program License";"Amherst";6037699545;"Hillsborough";"'03031";"29 State Route 101 A";;;"Active"
"CCCB-06462";"New Morning Before and After School Programs @ Wilkins";"Center Based Program License";"Amherst";6036693591;"Hillsborough";"'03031";"80 Boston Post Road";;;"Active"
"CCFB-06412";"Pamela Porter-Ladd";"Family Based Program License";"Amherst";6036732170;"Hillsborough";"'03031";"27 Deerwood Drive";;;"Active"
"CCCB-02762";"Sunrise Children's Center";"Center Based Program License";"Amherst";6038860110;"Hillsborough";"'03031";"94 Route 101A";;;"Active"
"CCCB-06332";"The Amherst Preschool";"Center Based Program License";"Amherst";6036728271;"Hillsborough";"'03031";"58 Merrimack Road";;;"Active"
"CCCB-00637";"The Preschool In The Village";"Center Based Program License";"Amherst";6036723168;"Hillsborough";"'03031";"11 Church Street";;"pivamherst@gmail.com";"Active"
"CCCB-00916";"Auburn Children's House, A Montessori School";"Center Based Program License";"Auburn";6036271691;"Rockingham";"'03032";"78 Rockingham Road";;;"Active"
"CCCB-06944";"It's a Child's Summer";"Center Based Program License";"Auburn";;"Rockingham";"'03032";"341 Wilsons Crossing Road";;;"Permit Issued"
"CCCB-06716";"It's a Child's World";"Center Based Program License";"Auburn";6036061990;"Rockingham";"'03032";"32 Hooksett Road";;;"Active"
"CCCB-06469";"New Morning Before and After School Programs @ Auburn Village";"Center Based Program License";"Auburn";6036693591;"Rockingham";"'03032";"11 Eaton Hill Road";;;"Active"
"CCCB-00643";"Tiny Tots Preschool";"Center Based Program License";"Auburn";6034830200;"Rockingham";"'03032";"4 Wilson's Crossing Road";;;"Active"
"CCCB-04595";"Brookline After School Program @ RMMS";"Center Based Program License";"Brookline";6038014802;"Hillsborough";"'03033";"22 Milford Road";;;"Active"
"CCCB-05439";"Brookline After School Program At The Academy";"Center Based Program License";"Brookline";6038014802;"Hillsborough";"'03033";"24 Townsend Hill Road";;;"Active"
"CCCB-06871";"Creative Imaginations Child Care Center";"Center Based Program License";"Brookline";;"Hillsborough";"'03033";"108 Route 13";;;"Active"
"CCFB-05356";"Little Ones Family Child Care";"Family Based Program License";"Brookline";6032491171;"Hillsborough";"'03033";"12 Laurel Crest Drive";;;"Active"
"CCCB-06804";"Scribbles Early Learning Center";"Center Based Program License";"Brookline";6037215531;"Hillsborough";"'03033";"Stoney Ledge Plaza, 181 Route 13";;;"Active"
"CCCB-05692";"M and C Children's Learning Place";"Center Based Program License";"Candia";6034835336;"Rockingham";"'03034";"205 Main Street";;;"Active"
"CCCB-06473";"New Morning After School Program @ Henry Moore";"Center Based Program License";"Candia";6036693591;"Rockingham";"'03034";"12 Deerfield Road";;;"Active"
"CCCB-06752";"Chesterbrook School of Natural Learning";"Center Based Program License";"Chester";6034899776;"Rockingham";"'03036";"232 Fremont Road";;;"Active"
"CCFB-04393";"Imagination Station";"Family Based Program License";"Chester";6038872345;"Rockingham";"'03036";"127 Haverhill Road";;;"Active"
"CCCB-06550";"Play Laugh N Grow - Chester";"Center Based Program License";"Chester";6038875862;"Rockingham";"'03036";"184 Raymond Road";;;"Active"
"CCCB-06800";"YMCA of Greater Londonderry @ Chester Academy";"Center Based Program License";"Chester";6034379622;"Rockingham";"'03036";"22 Murphy Drive";;;"Active"
"CCCB-06926";"Deerfield Preschool";"Center Based Program License";"Deerfield";6034636446;"Rockingham";"'03037";"24 Mountain View Road";;;"Active"
"CCCB-06925";"Clubhouse Child Care Center";"Center Based Program License";"Derry";;"Rockingham";"'03038";"11 &13 Peabody Road";;;"Active"
"CCCB-06522";"Derry Head Start";"Center Based Program License";"Derry";6032168864;"Rockingham";"'03038";"9 Crystal Avenue";;;"Active"
"CCCB-03001";"East Derry Memorial School Extended Day Program";"Center Based Program License";"Derry";6034210170;"Rockingham";"'03038";"18 Dubeau Drive";;;"Active"
"CCCB-02919";"Greater Derry Extended Day Program";"Center Based Program License";"Derry";6038181008;"Rockingham";"'03038";"28 South Main Street";;;"Active"
"CCCB-05916";"Greater Derry Extended Day Program - Barka";"Center Based Program License";"Derry";6038181008;"Rockingham";"'03038";"21 Eastgate Road";;;"Active"
"CCCB-06065";"Greater Derry Extended Day Program - Grinnell";"Center Based Program License";"Derry";6038181008;"Rockingham";"'03038";"6 Grinnell Road";;;"Active"
"CCCB-06828";"Little Beginnings Early Learning Center";"Center Based Program License";"Derry";6039633363;"Rockingham";"'03038";"35 Manchester Road, Unit 12";;;"Active"
"CCCB-02184";"Over The Rainbow Preschool";"Center Based Program License";"Derry";6034326655;"Rockingham";"'03038";"223 Rockingham Road";;;"Active"
"CCFB-06196";"Riana's Sunshine Academy";"Family Based Program License";"Derry";6032162892;"Rockingham";"'03038";"40 Lawrence Road";;;"Active"
"CCCB-00846";"Sonshine Preschool and Day Care";"Center Based Program License";"Derry";6034346987;"Rockingham";"'03038";"53 North Main Street";;;"Active"
"CCCB-02198";"South Range Extended Day Program";"Center Based Program License";"Derry";6034791021;"Rockingham";"'03038";"1 Drury Lane";;;"Active"
"CCCB-02808";"Stepping Stones School";"Center Based Program License";"Derry";6034346900;"Rockingham";"'03038";"1 Partridge Lane";;;"Active"
"CCCB-06331";"The Goddard School";"Center Based Program License";"Derry";6034322210;"Rockingham";"'03038";"12 Tsienneto Road";;;"Active"
"CCCB-05788";"Wonder Years Learning Center";"Center Based Program License";"Derry";6034320505;"Rockingham";"'03038";"39 Birch Street";;;"Active"
"CCCB-00617";"Nutfield Cooperative School";"Center Based Program License";"East Derry";6034342602;"Rockingham";"'03041";"47 East Derry Road";;;"Active"
"CCFB-00055";"Bertogli Family Day Care";"Family Based Program License";"Epping";6036798200;"Rockingham";"'03042";"221 Hedding Road";;;"Active"
"CCFB-06595";"Country Woods Family Child Care";"Family Based Program License";"Epping";6038174302;"Rockingham";"'03042";"18 Hickory Hill Road";;;"Active"
"CCFB-05723";"Deb's Daycare";"Family Based Program License";"Epping";6036791088;"Rockingham";"'03042";"10 Fisher Drive";;;"Active"
"CCCB-06724";"Great Expectations Preschool";"Center Based Program License";"Epping";6037345197;"Rockingham";"'03042";"98 Hamilton Drive";;;"Active"
"CCCB-00563";"Hogarth Country Day School";"Center Based Program License";"Epping";6036792097;"Rockingham";"'03042";"41 Water Street";;;"Active"
"CCCB-06554";"Seedlings Early Learning Center";"Center Based Program License";"Epping";6036793381;"Rockingham";"'03042";"160 Main Street";;;"Active"
"CCCB-05551";"Barnyard Buddies";"Center Based Program License";"Fremont";6038955455;"Rockingham";"'03044";"77 Chester Road";;;"Active"
"CCCB-06913";"Country Club for Kids";"Center Based Program License";"Fremont";6038952234;"Rockingham";"'03044";"25 Spaulding Road";;;"Active"
"CCCB-06592";"Country Club for Kids II";"Center Based Program License";"Fremont";6038952234;"Rockingham";"'03044";"48-50 Main Street";;;"Active"
"CCFB-05496";"Jen's Family Day Care";"Family Based Program License";"Fremont";6036798303;"Rockingham";"'03044";"351 North Road";;;"Active"
"CCCB-05429";"Southern District YMCA School's Out - Fremont";"Center Based Program License";"Fremont";6036423361;"Rockingham";"'03044";"432 Main Street";;;"Active"
"CCCB-04801";"Eager Beaver Child Care Center";"Center Based Program License";"Goffstown";6036696277;"Hillsborough";"'03045";"722 Mast Road";;;"Active"
"CCCB-01641";"Educare Daycare And Learning Center";"Center Based Program License";"Goffstown";6036273392;"Hillsborough";"'03045";"379 Goffstown Back Rd";;;"Active"
"CCCB-06739";"Goffstown Creative Kids Academy";"Center Based Program License";"Goffstown";6034975000;"Hillsborough";"'03045";"231 Mast Road";;;"Active"
"CCFB-05062";"Labrecque Family Child Care";"Family Based Program License";"Goffstown";6033618738;"Hillsborough";"'03045";"25 Crestwood Lane";;;"Active"
"CCCB-06184";"Learn As We Play Child Care Center";"Center Based Program License";"Goffstown";6036683674;"Hillsborough";"'03045";"276 Goffstown Back Road";;;"Active"
"CCCB-06164";"Little Leapers & Knowledge Keepers";"Center Based Program License";"Goffstown";6036472273;"Hillsborough";"'03045";"526 B Mast Road";;"jennllkk@juno.com";"Active"
"CCFB-04050";"Loving Lambs & Kinder Kids";"Family Based Program License";"Goffstown";6034911780;"Hillsborough";"'03045";"15 Katherine Street";;;"Active"
"CCCB-05582";"Main Street Kid's Connection";"Center Based Program License";"Goffstown";6034974014;"Hillsborough";"'03045";"10 Main Street";;;"Active"
"CCCB-00909";"Merri-Loo Community Preschool, INC";"Center Based Program License";"Goffstown";6034973350;"Hillsborough";"'03045";"86 Center Street";;;"Active"
"CCCB-06181";"Montessori Children's Garden";"Center Based Program License";"Goffstown";6033843404;"Hillsborough";"'03045";"36 North Mast Street";;;"Active"
"CCCB-05769";"Namaste' Children's House";"Center Based Program License";"Goffstown";6036273503;"Hillsborough";"'03045";"535 Mast Road";;;"Active"
"CCCB-04869";"YMCA Allard Center Child Development Center";"Center Based Program License";"Goffstown";6032328638;"Hillsborough";"'03045";"116 Goffstown Back Road";;;"Active"
"CCCB-06608";"YMCA Allard Center School's Out Program @ Bartlett";"Center Based Program License";"Goffstown";6032328677;"Hillsborough";"'03045";"689 Mast Road";;;"Active"
"CCCB-06607";"YMCA Allard Center School's Out Program @ Maple Ave";"Center Based Program License";"Goffstown";6032328677;"Hillsborough";"'03045";"16 Maple Avenue";;;"Active"
"CCCB-06458";"New Morning After School Program @ Dunbarton Elementary";"Center Based Program License";"Dunbarton";6036693591;"Merrimack";"'03046";"20 Robert Rogers Road";;;"Active"
"CCCB-06844";"Boys & Girls Club - Greenfield Ext.";"Center Based Program License";"Greenfield";6036721002;"Hillsborough";"'03047";"860 Forest Road";;;"Active"
"CCCB-00994";"Southern New Hampshire Services Greenville Headstart";"Center Based Program License";"Greenville";6038784028;"Hillsborough";"'03048";"16 Adams Street";;;"Active"
"CCCB-06162";"Hollis Academy For Children";"Center Based Program License";"Hollis";6034657005;"Hillsborough";"'03049";"4-A Market Place";;;"Active"
"CCCB-00565";"Hollis Preschool";"Center Based Program License";"Hollis";6034653089;"Hillsborough";"'03049";"5 Market Place";;;"Active"
"CCCB-06653";"Nashua Adult Learning Center - Hollis Primary School";"Center Based Program License";"Hollis";6038829080;"Hillsborough";"'03049";"36 Silver Lake Road";;;"Active"
"CCCB-06711";"Nashua Adult Learning Center - Hollis Upper Elementary";"Center Based Program License";"Hollis";6035338761;"Hillsborough";"'03049";"12 Drury Lane";;;"Active"
"CCFB-04990";"Becky's House Family Day Care";"Family Based Program License";"Hudson";6038803538;"Hillsborough";"'03051";"17 Adam Drive";;;"Active"
"CCCB-05903";"Beginning Discoveries Learning Center";"Center Based Program License";"Hudson";6035986310;"Hillsborough";"'03051";"292 Derry Road";;;"Active"
"CCCB-04984";"Country Bear Preschool and Child Care";"Center Based Program License";"Hudson";6038806802;"Hillsborough";"'03051";"1 Cutler Road";;;"Active"
"CCFB-05053";"Debbie's Play Group";"Family Based Program License";"Hudson";6038824343;"Hillsborough";"'03051";"174 Robinson Road";;;"Active"
"CCCB-05377";"Early Start Learning Academy and Child Care";"Center Based Program License";"Hudson";6038803722;"Hillsborough";"'03051";"141 Kimball Hill Road";;;"Active"
"CCFB-06864";"Jens Home Daycare";"Family Based Program License";"Hudson";6039139730;"Hillsborough";"'03051";"14 Regina Street";;;"Active"
"CCFB-05202";"Karen's Family Day Care";"Family Based Program License";"Hudson";6038806069;"Hillsborough";"'03051";"12 Kenyon Street";;;"Active"
"CCCB-06842";"KCE Champions at Dr. HO Smith School";"Center Based Program License";"Hudson";6035210605;"Hillsborough";"'03051";"33 School Street";;;"Active"
"CCCB-06845";"KCE Champions at Hills Garrison";"Center Based Program License";"Hudson";6035210605;"Hillsborough";"'03051";"190 Derry Street";;;"Active"
"CCCB-06843";"KCE Champions at Hudson Memorial";"Center Based Program License";"Hudson";;"Hillsborough";"'03051";"1 Memorial Drive";;;"Active"
"CCCB-06846";"KCE Champions at Nottingham West";"Center Based Program License";"Hudson";6035210605;"Hillsborough";"'03051";"10 Pelham Road";;;"Active"
"CCCB-02393";"Kiddie Konnection";"Center Based Program License";"Hudson";6038834310;"Hillsborough";"'03051";"301 Derry Road";;;"Active"
"CCFB-04858";"Penny's Child Care";"Family Based Program License";"Hudson";6038867970;"Hillsborough";"'03051";"47 Heritage Circle";;;"Active"
"CCCB-04642";"Stonewood Child Care";"Center Based Program License";"Hudson";6038830725;"Hillsborough";"'03051";"22 Stonewood Lane";;;"Active"
"CCCB-05933";"Stonewood School";"Center Based Program License";"Hudson";6035944195;"Hillsborough";"'03051";"99 Lowell Road";;;"Active"
"CCCB-06760";"The Children's Confidence Center";"Center Based Program License";"Hudson";6038648756;"Hillsborough";"'03051";"77 Derry Road";;;"Active"
"CCCB-05622";"Nashua Adult Learning Center - Griffin Memorial";"Center Based Program License";"Litchfield";"6038829080x308";"Hillsborough";"'03052";"229 Charles Bancroft Highway";;;"Active"
"CCCB-06568";"The Gingerbread House of Litchfield";"Center Based Program License";"Litchfield";6038861500;"Hillsborough";"'03052";"273 Derry Road";;;"Active"
"CCFB-06379";"Tiny Turtles Child Care";"Family Based Program License";"Litchfield";6038648061;"Hillsborough";"'03052";"38 Stark Lane";;;"Active"
"CCCB-06969";"Action VR & Remote Learning Center";"Center Based Program License";"Londonderry";;"Rockingham";"'03053";"1 Action Blvd, Unit #3";;"contact@actionvrgaming.com";"Permit Issued"
"CCFB-06180";"Bright House Early Learning Program and Childcare";"Family Based Program License";"Londonderry";6034344974;"Rockingham";"'03053";"79 Hovey Road";;;"Active"
"CCCB-03034";"Cozy Kids Child Care";"Center Based Program License";"Londonderry";6034375437;"Rockingham";"'03053";"3 Sanborn Road";;;"Active"
"CCCB-05456";"Creative Little Angels Child Care";"Center Based Program License";"Londonderry";6034322535;"Rockingham";"'03053";"40 Mammoth Road";;;"Active"
"CCFB-05213";"Deborah Cloutier's Family Day Care";"Family Based Program License";"Londonderry";6034320876;"Rockingham";"'03053";"9 King Arthur Drive";;;"Active"
"CCCB-04585";"Jacob's Ladder Learning Center at L.U.M.C.";"Center Based Program License";"Londonderry";6034347857;"Rockingham";"'03053";"258 Mammoth Road";;;"Active"
"CCCB-00789";"Kids By The Common";"Center Based Program License";"Londonderry";6034342113;"Rockingham";"'03053";"126 Pillsbury Road";;;"Active"
"CCCB-05542";"KinderCare Learning Center";"Center Based Program License";"Londonderry";6034322288;"Rockingham";"'03053";"7 Garden Lane";;;"Active"
"CCCB-06482";"Londonderry Learning Academy";"Center Based Program License";"Londonderry";6038880677;"Rockingham";"'03053";"28 Buttrick Road";;;"Active"
"CCFB-06364";"Miss Aria's Home Grown Kids";"Family Based Program License";"Londonderry";6037670204;"Rockingham";"'03053";"49 Perkins Road";;;"Active"
"CCCB-05372";"Ms. Darlene's Early Learning Center and Child Care";"Center Based Program License";"Londonderry";6038181405;"Rockingham";"'03053";"10 Kendall Pond Road";;;"Active"
"CCFB-06970";"Nielsen Daycare";"Family Based Program License";"Londonderry";6038188833;"Rockingham";"'03053";"111 Litchfield Road";;;"Permit Issued"
"CCCB-02820";"The Applewood Learning Center";"Center Based Program License";"Londonderry";6034343139;"Rockingham";"'03053";"2 Hampton Drive";;;"Active"
"CCCB-06813";"The Learning Tree Early Education Center";"Center Based Program License";"Londonderry";6038188864;"Rockingham";"'03053";"2 Young Road";;;"Active"
"CCCB-04424";"The World of Discovery";"Center Based Program License";"Londonderry";6035372338;"Rockingham";"'03053";"182 Rockingham Road";;;"Active"
"CCFB-05801";"Trisha's Daycare";"Family Based Program License";"Londonderry";6034343130;"Rockingham";"'03053";"31 Royal Lane";;;"Active"
"CCCB-05497";"YMCA of Greater Londonderry School's Out Program";"Center Based Program License";"Londonderry";6034379622;"Rockingham";"'03053";"206 Rockingham Road";;;"Active"
"CCCB-05764";"YMCA of Greater Londonderry School's Out Program @ Matthew Thornton";"Center Based Program License";"Londonderry";6032169203;"Rockingham";"'03053";"275 Mammoth Road";;;"Active"
"CCCB-05762";"YMCA of Greater Londonderry School's Out Program @ North School";"Center Based Program License";"Londonderry";6032169010;"Rockingham";"'03053";"19 Sanborn Road";;;"Active"
"CCCB-05763";"YMCA of Greater Londonderry School's Out Program @ South School";"Center Based Program License";"Londonderry";6032169009;"Rockingham";"'03053";"88 South Road";;;"Active"
"CCCB-06814";"Above and Beyond Child Care - Merrimack";"Center Based Program License";"Merrimack";6032613043;"Hillsborough";"'03054";"325 Daniel Webster Highway";;;"Active"
"CCCB-06089";"Apple Blossoms Child Care";"Center Based Program License";"Merrimack";6034246000;"Hillsborough";"'03054";"628 Daniel Webster Highway";;;"Active"
"CCFB-05080";"Carla's Family Day Care";"Family Based Program License";"Merrimack";6034240274;"Hillsborough";"'03054";"1 Hickory Lane";;;"Active"
"CCCB-06938";"Early Beginnings for Young Learners";"Center Based Program License";"Merrimack";6173352580;"Hillsborough";"'03054";"416 Daniel Webster Highway Suite 0";;;"Active"
"CCCB-05481";"KinderCare Learning Center";"Center Based Program License";"Merrimack";6034239779;"Hillsborough";"'03054";"4 Continental Boulevard";;;"Active"
"CCFB-05522";"Kwiatkowski's Little Flowers";"Family Based Program License";"Merrimack";6033202826;"Hillsborough";"'03054";"21 Tanglewood Way";;"K.K.2@comcast.net";"Active"
"CCCB-05116";"Lisa's Tippy Toes";"Center Based Program License";"Merrimack";6034230267;"Hillsborough";"'03054";"33 Baboosic Lake Road";;;"Active"
"CCCB-06807";"Little Sprouts - Merrimack";"Center Based Program License";"Merrimack";6035467554;"Hillsborough";"'03054";"706 Milford Road";;"sficher@littlesprouts.com";"Active"
"CCCB-00911";"Merrimack PTA Kindergarten and Preschool";"Center Based Program License";"Merrimack";6034243535;"Hillsborough";"'03054";"10 Depot Street";;;"Active"
"CCCB-04404";"Merrimack YMCA Child Care";"Center Based Program License";"Merrimack";6038817778;"Hillsborough";"'03054";"6 Henry Clay Drive";;;"Active"
"CCCB-05608";"Nashua Adult Learning Center Thornton's Ferry";"Center Based Program License";"Merrimack";"6038829080 X319";"Hillsborough";"'03054";"134 Camp Sargent Road";;;"Active"
"CCCB-05614";"School Age Adventure @ Mastricola";"Center Based Program License";"Merrimack";"6038829080x313";"Hillsborough";"'03054";"7 School Street";;;"Active"
"CCCB-06778";"School Age Adventures @ Mastricola Upper";"Center Based Program License";"Merrimack";6038829080;"Hillsborough";"'03054";"26 Baboosic Lake Road";;;"Active"
"CCCB-05616";"School Age Adventures @ Reeds Ferry";"Center Based Program License";"Merrimack";"6038829080x317";"Hillsborough";"'03054";"15 Lyons Road";;;"Active"
"CCCB-06687";"The Children's Greenhouse";"Center Based Program License";"Merrimack";6033776136;"Hillsborough";"'03054";"401 Daniel Webster Highway, Suite 4";;;"Active"
"CCCB-06933";"The Nest Infant and Toddler Development Center";"Center Based Program License";"Merrimack";;"Hillsborough";"'03054";"4 John Tyler Street";;;"Permit Issued"
"CCCB-01583";"Tollhouse Preschool";"Center Based Program License";"Merrimack";6034290337;"Hillsborough";"'03054";"322 Daniel Webster Highway";;;"Active"
"CCCB-04888";"Early Learning Center Of Milford";"Center Based Program License";"Milford";6036721949;"Hillsborough";"'03055";"352 Elm Street";;;"Active"
"CCCB-02972";"Growing Imaginations Early Learning Center";"Center Based Program License";"Milford";6036739662;"Hillsborough";"'03055";"188 Elm Street";;"tammie@growingimaginationsnh.com";"Active"
"CCCB-06350";"Jacques Extension School Age Program";"Center Based Program License";"Milford";6038016001;"Hillsborough";"'03055";"9 Elm Street";;;"Active"
"CCCB-04032";"Little Arrows Child Care Services";"Center Based Program License";"Milford";6036737975;"Hillsborough";"'03055";"365 South Street";;;"Active"
"CCCB-06463";"New Morning Before School Program @ Jacques Memorial";"Center Based Program License";"Milford";6036693591;"Hillsborough";"'03055";"9 Elm Street";;;"Active"
"CCCB-06158";"The Boys and Girls Club of Souhegan Valley - Early Education Program";"Center Based Program License";"Milford";6036721002;"Hillsborough";"'03055";"56 Mont Vernon Street";;;"Active"
"CCCB-01660";"Girls Incorporated of New Hampshire";"Center Based Program License";"Nashua";6038826256;"Hillsborough";"'03060";"27 Burke Street";;;"Active"
"CCCB-00569";"Humpty Dumpty Learning Center";"Center Based Program License";"Nashua";6038826075;"Hillsborough";"'03060";"22 Lovewell Street";;;"Active"
"CCCB-05396";"Kids Club";"Center Based Program License";"Nashua";6038893825;"Hillsborough";"'03060";"47 Grand Avenue";;;"Active"
"CCCB-05199";"KinderCare Learning Center";"Center Based Program License";"Nashua";6038971255;"Hillsborough";"'03060";"3 Holiday Circle";;;"Active"
"CCFB-06825";"Lissa's Mini Blossom's Childcare";"Family Based Program License";"Nashua";6036895686;"Hillsborough";"'03060";"59 Blossom Street";;;"Active"
"CCCB-00885";"Little Pilgrim School";"Center Based Program License";"Nashua";6038809249;"Hillsborough";"'03060";"4 Watson Street";;;"Active"
"CCCB-04614";"Marguerite's Place";"Center Based Program License";"Nashua";6035981582;"Hillsborough";"'03060";"87 Palm Street";;;"Active"
"CCCB-03017";"Nashua Adult Learning Center - Annex";"Center Based Program License";"Nashua";6038829080;"Hillsborough";"'03060";"40 Arlington Street";;;"Active"
"CCCB-05621";"Nashua Adult Learning Center - Dr. Crisp";"Center Based Program License";"Nashua";6038829080;"Hillsborough";"'03060";"50 Arlington Street";;;"Active"
"CCCB-00633";"Nashua Adult Learning Center - Early Childhood Adventures Program";"Center Based Program License";"Nashua";"6038829080x216";"Hillsborough";"'03060";"4 Lake Street";;;"Active"
"CCCB-00597";"Nashua Child Learning Center";"Center Based Program License";"Nashua";6038834356;"Hillsborough";"'03060";"5 Saint Laurent Street";;;"Active"
"CCRB-04431";"Nashua Children's Home - Concord Street";"Residential Based Program License";"Nashua";6038833851;"Hillsborough";"'03060";"86 Concord Street";;;"Active"
"CCFB-06799";"Olga's Family Daycare";"Family Based Program License";"Nashua";6039433946;"Hillsborough";"'03060";"32 Wilder Street";;;"Active"
"CCCB-05613";"School Age Adventures @ Fairgrounds";"Center Based Program License";"Nashua";6038829080;"Hillsborough";"'03060";"37 Blanchard Street";;;"Active"
"CCCB-05591";"School Age Adventures @ Sunset Heights";"Center Based Program License";"Nashua";"6038829080x318";"Hillsborough";"'03060";"15 Osgood Street";;;"Active"
"CCFB-06941";"Small Adventures";"Family Based Program License";"Nashua";6035304271;"Hillsborough";"'03060";"13 Alder Drive";;;"Active"
"CCCB-06388";"Southern New Hampshire Services Early Head Start - Nashua";"Center Based Program License";"Nashua";6035781732;"Hillsborough";"'03060";"88 Temple Street";;;"Active"
"CCCB-04432";"Southern NH Services - 11th Street Head Start";"Center Based Program License";"Nashua";8008826278;"Hillsborough";"'03060";"24 Eleventh Street";;;"Active"
"CCCB-02923";"Southern NH Services - Bronstein Head Start";"Center Based Program License";"Nashua";6038823384;"Hillsborough";"'03060";"41 Central Street";;;"Active"
"CCCB-04819";"Southern NH Services Child Development Center";"Center Based Program License";"Nashua";6038897812;"Hillsborough";"'03060";"134 Allds Street";;;"Active"
"CCCB-06630";"Wise Owl Academy";"Center Based Program License";"Nashua";6038833016;"Hillsborough";"'03060";"4 Merrit Parkway";;;"Permit Issued"
"CCFB-06436";"Yeni's Day Care";"Family Based Program License";"Nashua";6039305445;"Hillsborough";"'03060";"136 Kinsley Street";;;"Active"
"CCCB-02896";"Minds In Motion";"Center Based Program License";"Nashua";6038831036;"Hillsborough";"'03061";"317-319 West Hollis Street";;;"Active"
"CCCB-06510";"Granite Start Early Learning Center";"Center Based Program License";"Nashua";6038803353;"Hillsborough";"'03062";"100 Perimeter Road";;;"Active"
"CCCB-06783";"Little Sprouts";"Center Based Program License";"Nashua";6038094220;"Hillsborough";"'03062";"1 Tara Boulevard";;;"Active"
"CCFB-06310";"Luv Bugs Forever";"Family Based Program License";"Nashua";6038800415;"Hillsborough";"'03062";"11 Jennifer Drive";;;"Active"
"CCCB-05611";"Nashua Adult Learning Center - Main Dunstable";"Center Based Program License";"Nashua";6038829080;"Hillsborough";"'03062";"20 Whitford Road";;;"Active"
"CCCB-05589";"School Age Adventures @ Bicentennial";"Center Based Program License";"Nashua";"6038829080X303";"Hillsborough";"'03062";"296 East Dunstable Road";;;"Active"
"CCCB-05603";"School Age Adventures @ New Searles";"Center Based Program License";"Nashua";"6038829080X315";"Hillsborough";"'03062";"39 Shady Lane";;;"Active"
"CCCB-06786";"The Launching Pad by Basic Beginnings";"Center Based Program License";"Nashua";6038806395;"Hillsborough";"'03062";"53 Northeastern Boulevard";;;"Active"
"CCCB-06961";"The Launching Pad by Basic Beginnings Learning and Development Center";"Center Based Program License";"Nashua";;"Hillsborough";"'03062";"53 Northeastern Blvd.";;;"Permit Issued"
"CCCB-00843";"World Academy";"Center Based Program License";"Nashua";6038881982;"Hillsborough";"'03062";"138 Spit Brook Road";;;"Active"
"CCCB-04934";"Almost Angels Preschool";"Center Based Program License";"Nashua";6038830970;"Hillsborough";"'03063";"275 Broad Street";;;"Active"
"CCCB-00680";"Chapel School";"Center Based Program License";"Nashua";6038826142;"Hillsborough";"'03063";"3 Lutheran Drive";;;"Active"
"CCCB-06743";"Child Life Child Care Center";"Center Based Program License";"Nashua";6035218777;"Hillsborough";"'03063";"5 Norwood Street";;;"Active"
"CCFB-05432";"Little Treasures";"Family Based Program License";"Nashua";6035984497;"Hillsborough";"'03063";"71 Dublin Avenue";;;"Active"
"CCFB-05082";"Mena's Child Care";"Family Based Program License";"Nashua";6035989258;"Hillsborough";"'03063";"4 Derry Street";;;"Active"
"CCCB-05612";"Nashua Adult Learning Center - Birch Hill";"Center Based Program License";"Nashua";6038829080;"Hillsborough";"'03063";"17 Birch Hill Drive";;;"Active"
"CCCB-05588";"School Age Adventures @ Broad Street";"Center Based Program License";"Nashua";"6038809080x305";"Hillsborough";"'03063";"390 Broad Street";;;"Active"
"CCCB-05704";"The Goddard School";"Center Based Program License";"Nashua";6035942800;"Hillsborough";"'03063";"8 Townsend West";;;"Active"
"CCCB-06787";"Ware To Grow";"Center Based Program License";"Nashua";6039211146;"Hillsborough";"'03063";"8 Dixville Street";;;"Active"
"CCFB-06816";"Charlotte Street Early Education and Care";"Family Based Program License";"Nashua";6034658795;"Hillsborough";"'03064";"#1 Charlotte Street";;;"Active"
"CCCB-00966";"Children's Winter Garden with White Wing School";"Center Based Program License";"Nashua";6038821041;"Hillsborough";"'03064";"58 Lowell Street";;;"Active"
"CCCB-01056";"Creative Years Child Development And Learning Center";"Center Based Program License";"Nashua";6038807304;"Hillsborough";"'03064";"30 Broad Street";;;"Active"
"CCFB-04632";"Happy Hearts";"Family Based Program License";"Nashua";6038806575;"Hillsborough";"'03064";"12 Cushing Avenue";;;"Active"
"CCCB-05594";"Nashua Adult Learning Center - Mount Pleasant";"Center Based Program License";"Nashua";"6038829080X314";"Hillsborough";"'03064";"10 Manchester Street";;;"Active"
"CCRB-01069";"Nashua Children's Home";"Residential Based Program License";"Nashua";6038833851;"Hillsborough";"'03064";"125 Amherst Street";;;"Active"
"CCCB-05592";"School Age Adventures @ Charlotte Ave";"Center Based Program License";"Nashua";"6038829080x306";"Hillsborough";"'03064";"48 Charlotte Avenue";;;"Active"
"CCCB-04710";"YMCA of Greater Nashua Schools Out Program";"Center Based Program License";"Nashua";6038822011;"Hillsborough";"'03064";"24 Stadium Drive";;;"Active"
"CCCB-01183";"Chestnut Christian Preschool & Kindergarten";"Center Based Program License";"New Boston";6033255105;"Hillsborough";"'03070";"219 Chestnut Hill Road";;;"Active"
"CCFB-06039";"Hilltop Day Care";"Family Based Program License";"New Boston";6033250361;"Hillsborough";"'03070";"266 Saunders Hill Road";;"downingdeb@gmail.com";"Active"
"CCFB-06789";"Little Hands Daycare";"Family Based Program License";"New Boston";6034872667;"Hillsborough";"'03070";"149 Mont Vernon Road";;;"Active"
"CCCB-06692";"Strong Beginnings";"Center Based Program License";"New Boston";6034973202;"Hillsborough";"'03070";"643 N. Mast Road";;;"Active"
"CCFB-06135";"Ebenezer Farm Child Care";"Family Based Program License";"New Ipswich";6038783715;"Hillsborough";"'03071";"144 Thayer Road";;;"Active"
"CCCB-00611";"Our Redeemer Preschool";"Center Based Program License";"New Ipswich";6038781837;"Hillsborough";"'03071";"200 Ashby Road";;;"Active"
"CCCB-05581";"""Dynamic Foundations"" For Families";"Center Based Program License";"Pelham";6036351710;"Hillsborough";"'03076";"90 Bridge Street";;;"Active"
"CCCB-06784";"""The Perfect Place"" for Children";"Center Based Program License";"Pelham";6036359207;"Hillsborough";"'03076";"125 Main Street, Unit A";;;"Active"
"CCCB-05519";"Kimba's Kids";"Center Based Program License";"Pelham";6036358941;"Hillsborough";"'03076";"43 Bridge Street";;;"Active"
"CCCB-05842";"Kings Kids Child Care Center";"Center Based Program License";"Pelham";6038981675;"Hillsborough";"'03076";"955 Bridge Street";;;"Active"
"CCCB-02821";"Pelham School Age Child Care";"Center Based Program License";"Pelham";6036359733;"Hillsborough";"'03076";"61 Marsh Road";;;"Active"
"CCFB-06611";"Trails to Learning Home Day Care";"Family Based Program License";"Pelham";6035086528;"Hillsborough";"'03076";"44 Nashua Road";;;"Active"
"CCCB-06820";"Little Friends Early Learning Center";"Center Based Program License";"Raymond";6032442132;"Rockingham";"'03077";"77 Main Street";;;"Active"
"CCCB-06338";"Play Laugh N' Grow 102";"Center Based Program License";"Raymond";6032445957;"Rockingham";"'03077";"41 Freetown Road, Building B";;;"Active"
"CCCB-06701";"Southern New Hampshire Services Raymond Head Start";"Center Based Program License";"Raymond";6032442937;"Rockingham";"'03077";"108 Fremont Road";;;"Active"
"CCCB-06875";"""Endless Opportunities""";"Center Based Program License";"Salem";6038937710;"Rockingham";"'03079";"47 Pelham Road";;"skbajaj23@hotmail.com";"Active"
"CCCB-06915";"Bright Village Early Education";"Center Based Program License";"Salem";6034700765;"Rockingham";"'03079";"32 Stiles Road, Suite 101";;;"Active"
"CCCB-05554";"Create and Discover Learning Center";"Center Based Program License";"Salem";6038947251;"Rockingham";"'03079";"196 Main Street";;;"Active"
"CCCB-04392";"Create and Discover Learning Center";"Center Based Program License";"Salem";6038945250;"Rockingham";"'03079";"176 Main Street";;;"Active"
"CCCB-06645";"Discovery Club - Barron Elementary School";"Center Based Program License";"Salem";6038947251;"Rockingham";"'03079";"55 Butler Street";;;"Active"
"CCCB-05182";"Discovery Club - Fiske Elementary";"Center Based Program License";"Salem";6038947251;"Rockingham";"'03079";"14 Main Street";;;"Active"
"CCCB-05073";"Discovery Club - Lancaster Elementary School";"Center Based Program License";"Salem";6038947251;"Rockingham";"'03079";"54 Millville Street";;;"Active"
"CCCB-05947";"Here We Grow Learning Center";"Center Based Program License";"Salem";6038901234;"Rockingham";"'03079";"401 Main Street Units102 & 106";;;"Active"
"CCCB-05431";"Kid's Krossroads";"Center Based Program License";"Salem";6038900085;"Rockingham";"'03079";"15 Ermer Road, Suite 107";;;"Active"
"CCCB-00887";"Little Scholars Daycare";"Center Based Program License";"Salem";6038930898;"Rockingham";"'03079";"1 Sand Hill Road";;;"Active"
"CCFB-05799";"Melissa Todt's Family Day Care";"Family Based Program License";"Salem";6038936685;"Rockingham";"'03079";"3 Shetland Circle";;;"Active"
"CCCB-01300";"Merrimack Valley Montessori School";"Center Based Program License";"Salem";6038937310;"Rockingham";"'03079";"111 Lowell Road";;;"Active"
"CCCB-04983";"Patsy's House Day Care & Learning Center";"Center Based Program License";"Salem";6038985655;"Rockingham";"'03079";"76 Lawrence Road";;;"Active"
"CCCB-02303";"Salem Boys and Girls Club Preschool";"Center Based Program License";"Salem";6038987709;"Rockingham";"'03079";"3 Geremonty Drive";;;"Active"
"CCCB-06642";"Salem Kid Start Kindergarten";"Center Based Program License";"Salem";6038980015;"Rockingham";"'03079";"101 School Street";;;"Active"
"CCCB-05072";"The Discovery Club @ North Salem Elementary";"Center Based Program License";"Salem";6038937062;"Rockingham";"'03079";"140 Zion Hill Road";;;"Active"
"CCCB-06504";"The Learning Cooperative";"Center Based Program License";"Salem";6038985493;"Rockingham";"'03079";"24 School Street";;;"Active"
"CCCB-06481";"The Learning Path of Salem";"Center Based Program License";"Salem";6038905321;"Rockingham";"'03079";"19 Keewaydin Drive";;;"Active"
"CCCB-04946";"Wonder Years Learning Center";"Center Based Program License";"Salem";6038900155;"Rockingham";"'03079";"393 Main Street";;;"Active"
"CCFB-06906";"Hummingbird Hill Play Garden";"Family Based Program License";"Lyndeborough";6036542088;"Hillsborough";"'03082";"378 Pettingill HIll Road";;;"Active"
"CCCB-06930";"Tumbleweeds Child Care";"Center Based Program License";"Wilton";6036545390;"Hillsborough";"'03086";"31 Prince Street";;"alyssalavoie@gmail.com";"Active"
"CCFB-06802";"Busy Bee in Home Day Care";"Family Based Program License";"Windham";9789140050;"Rockingham";"'03087";"18 Depot Road";;;"Active"
"CCCB-06966";"Day Dreamers";"Center Based Program License";"Windham";6038198087;"Rockingham";"'03087";"33 Indian Rock Road, Bldg 3, Suite 1";;;"Permit Issued"
"CCCB-06480";"Green Sprouts";"Center Based Program License";"Windham";6038980771;"Rockingham";"'03087";"5 Industrial Drive, Suite A";;"deb@greensproutsllc.com";"Active"
"CCCB-06861";"Kiddie Academy";"Center Based Program License";"Windham";6038825434;"Rockingham";"'03087";"156 Haverhill Road";;;"Active"
"CCCB-06929";"Little Beginnings of Windham";"Center Based Program License";"Windham";6033288483;"Rockingham";"'03087";"63 Range Road, Unit 203";;;"Active"
"CCCB-06727";"Wee Care Learning Center";"Center Based Program License";"Windham";6035573197;"Rockingham";"'03087";"21 Roulston Road";;;"Active"
"CCFB-06950";"Windham After School Academy";"Center Based Program License";"Windham";6039217333;"Rockingham";"'03087";"64 North Lowell Road";;;"Permit Issued"
"CCCB-00971";"Windham Cooperative Kindergarten And Nursery School";"Center Based Program License";"Windham";6038933069;"Rockingham";"'03087";"12 Industrial Drive";;;"Active"
"CCCB-06563";"Windham Crossing Learning Center";"Center Based Program License";"Windham";6039653137;"Rockingham";"'03087";"125 North Lowell Road";;;"Active"
"CCCB-06330";"Windham Learning Tree Academy";"Center Based Program License";"Windham";6039653484;"Rockingham";"'03087";"4 Cobbetts Pond Road, Suites 9-12";;;"Active"
"CCCB-06900";"YMCA of Greater Londonderry - Center School";"Center Based Program License";"Windham";6034379622;"Rockingham";"'03087";"2 Lowell Road";;;"Active"
"CCCB-06901";"YMCA of Greater Londonderry Golden Brook School";"Center Based Program License";"Windham";6034379622;"Rockingham";"'03087";"112B Lowell Road";;;"Active"
"CCCB-06924";"Youth Enrichment For Student Success-2";"Center Based Program License";"Windham";6039129377;"Rockingham";"'03087";"27 Roulston Road, Unit 1";;;"Permit Issued"
"CCCB-05828";"Kindertree Learning Center";"Center Based Program License";"Manchester";6036237599;"Hillsborough";"'03101";"162 Manchester Street";;;"Active"
"CCCB-06340";"Reach for the Stars Child Development Center";"Center Based Program License";"Manchester";6035689466;"Hillsborough";"'03101";"30 South Elm Street";;;"Active"
"CCCB-01018";"YMCA of Downtown Manchester Child Development Center";"Center Based Program License";"Manchester";6032328651;"Hillsborough";"'03101";"30 Mechanic St";;;"Active"
"CCCB-02369";"Alpha-Bits Learning Center I";"Center Based Program License";"Manchester";6036416642;"Hillsborough";"'03102";"333 Allard Drive";;;"Active"
"CCCB-06531";"Easter Seals NH Child Development & Family Resource Center";"Center Based Program License";"Manchester";6036665982;"Hillsborough";"'03102";"435 South Main Street";;;"Active"
"CCCB-05507";"Girls Incorporated Of New Hampshire, Manchester Division";"Center Based Program License";"Manchester";6036231117;"Hillsborough";"'03102";"340 Varney Street";;;"Active"
"CCCB-06675";"Manchester Head Start West";"Center Based Program License";"Manchester";"6036665982 x23";"Hillsborough";"'03102";"435 South Main Street";;;"Active"
"CCCB-06848";"MCC Child Development Center";"Center Based Program License";"Manchester";6032068098;"Hillsborough";"'03102";"1066 Front Street";;"hnilu@aol.com";"Active"
"CCCB-06471";"New Morning Before and After School Programs @ Northwest";"Center Based Program License";"Manchester";6036693591;"Hillsborough";"'03102";"300 Youville Street";"Northwest Elementary School";;"Active"
"CCCB-06470";"New Morning Before and After School Programs @ Parker Varney";"Center Based Program License";"Manchester";6037148693;"Hillsborough";"'03102";"223 James A. Pollock Drive";;;"Active"
"CCCB-06815";"Northwest Head Start";"Center Based Program License";"Manchester";;"Hillsborough";"'03102";"300 Youville Street";;;"Active"
"CCCB-00824";"St. Peter's Home";"Center Based Program License";"Manchester";6036259313;"Hillsborough";"'03102";"300 Kelley Street";;;"Active"
"CCCB-01004";"Ste. Marie Child Care Center";"Center Based Program License";"Manchester";6036682356;"Hillsborough";"'03102";"133 Wayne Street";;;"Active"
"CCCB-01915";"The Growing Years";"Center Based Program License";"Manchester";6036227072;"Hillsborough";"'03102";"130 Harvell Street";;;"Active"
"CCCB-06903";"A Brighter Future Learning Center";"Center Based Program License";"Manchester";;"Hillsborough";"'03103";"1 Sundial Ave # 117";;;"Active"
"CCCB-06914";"Children's Early Learning Center";"Center Based Program License";"Manchester";6032323870;"Hillsborough";"'03103";"673 Weston Road";;;"Active"
"CCCB-01486";"Easter Seals Child Development Center";"Center Based Program License";"Manchester";6036213524;"Hillsborough";"'03103";"555 Auburn Street";;;"Active"
"CCCB-01161";"Elliot Child Care Center";"Center Based Program License";"Manchester";6036633393;"Hillsborough";"'03103";"450 Massabesic Street";;;"Active"
"CCFB-05027";"Jane's Peanut Gallery";"Family Based Program License";"Manchester";6036416311;"Hillsborough";"'03103";"24 South Gray Court";;;"Active"
"CCCB-05867";"Little Frogs & Polliwogs Learning Center";"Center Based Program License";"Manchester";6036692695;"Hillsborough";"'03103";"3011 Brown Avenue";;;"Active"
"CCCB-05585";"Little Rising Stars Child Care Center";"Center Based Program License";"Manchester";6036445437;"Hillsborough";"'03103";"191 South Jewett Street";;;"Active"
"CCCB-05543";"Manchester Boys & Girls Club -Jewett Street School";"Center Based Program License";"Manchester";6036255031;"Hillsborough";"'03103";"130 South Jewett Street";;;"Active"
"CCCB-06927";"Manchester Child Development Center";"Center Based Program License";"Manchester";6036290037;"Hillsborough";"'03103";"2020 Goffs Falls Road";;;"Active"
"CCRB-02655";"Robert B. Jolicouer Education and Residential Facility - Boys";"Residential Based Program License";"Manchester";6036213599;"Hillsborough";"'03103";"1 and 9 Mammoth Road";;;"Active"
"CCCB-05314";"Southern New Hampshire Services Silver Street Child Development Center";"Center Based Program License";"Manchester";6036688010;"Hillsborough";"'03103";"160 Silver Street";;;"Active"
"CCCB-04344";"Southern NH Services - Rose Byrne Head Start";"Center Based Program License";"Manchester";6036688010;"Hillsborough";"'03103";"40 Pine Street";;;"Active"
"CCCB-00819";"St. Augustin Preschool";"Center Based Program License";"Manchester";6036238800;"Hillsborough";"'03103";"251 Merrimack Street";;;"Active"
"CCCB-06964";"The Learning Lab at Cowabunga's";"Center Based Program License";"Manchester";;"Hillsborough";"'03103";"725 Huse Road";;;"Permit Issued"
"CCCB-06514";"The World of Discovery";"Center Based Program License";"Manchester";6036277577;"Hillsborough";"'03103";"71 Mooresville Road";;;"Active"
"CCCB-04918";"YMCA of Downtown Manchester Start Program @ Beech Street School";"Center Based Program License";"Manchester";6036251777;"Hillsborough";"'03103";"333 Beech Street, Beech Street School";;;"Active"
"CCCB-05066";"YMCA of Downtown Manchester Start Program @ Wilson Street School";"Center Based Program License";"Manchester";6033055362;"Hillsborough";"'03103";"401 Wilson Street";;;"Active"
"CCCB-06854";"YMCA School's Out Program @ Jewett";"Center Based Program License";"Manchester";6032328670;"Hillsborough";"'03103";"130 Jewett Street";;;"Active"
"CCCB-05944";"Alpha-Bits Learning Center II";"Center Based Program License";"Manchester";6036246650;"Hillsborough";"'03104";"227 Londonderry Turnpike";;;"Active"
"CCCB-05421";"Boys & Girls - Highland Goffs Falls Extension";"Center Based Program License";"Manchester";6036255031;"Hillsborough";"'03104";"2021 Goffs Falls Road";;"jpappas@mbgcnh.org";"Active"
"CCCB-06366";"Colorful Apples Learning Center";"Center Based Program License";"Manchester";6036230678;"Hillsborough";"'03104";"91 Penacook Street";;;"Active"
"CCCB-06345";"Head Start at MCC";"Center Based Program License";"Manchester";6036232332;"Hillsborough";"'03104";"1066 Front Street";;;"Active"
"CCCB-06474";"New Morning After School Program @ McDonough";"Center Based Program License";"Manchester";6036693591;"Hillsborough";"'03104";"550 Lowell Street";;;"Active"
"CCCB-06465";"New Morning Before and After School Programs @ Smyth Road School";"Center Based Program License";"Manchester";6036693591;"Hillsborough";"'03104";"245 Bruce Road";;;"Active"
"CCRB-01128";"Webster House";"Residential Based Program License";"Manchester";6036228013;"Hillsborough";"'03104";"135 Webster Street";;;"Active"
"CCCB-05443";"YMCA of Downtown Manchester School's Out Program @ Webster School";"Center Based Program License";"Manchester";6032328670;"Hillsborough";"'03104";"2519 Elm Street";;;"Active"
"CCCB-05330";"YMCA of Downtown Manchester School's Out Program @ Weston";"Center Based Program License";"Manchester";6032328670;"Hillsborough";"'03104";"1066 Hanover Street";;;"Active"
"CCCB-06947";"A Brighter Future Learning Center";"Center Based Program License";"Hooksett";6036474747;"Merrimack";"'03106";"11 Kimball Drive, Suite 103";;"abrighterfuturelearningcenter@gmail.com";"Permit Issued"
"CCCB-05271";"Above And Beyond Child Care";"Center Based Program License";"Hooksett";6036274161;"Merrimack";"'03106";"1461 Hooksett Road";;;"Active"
"CCCB-04545";"Children's Country Learning Center";"Center Based Program License";"Hooksett";6036252912;"Merrimack";"'03106";"4 West Stearns Avenue";;;"Active"
"CCCB-06535";"Colorful Apples Learning Center - Hooksett";"Center Based Program License";"Hooksett";6032065420;"Merrimack";"'03106";"1249 Hookset Road";;;"Active"
"CCCB-02336";"Happy Bear Day Care Learning Center";"Center Based Program License";"Hooksett";6036478788;"Merrimack";"'03106";"16 Johns Drive";;;"Active"
"CCCB-04923";"Little Apples Day Care & Learning Center";"Center Based Program License";"Hooksett";6036252273;"Merrimack";"'03106";"1160 Hooksett Road";;;"Active"
"CCCB-02477";"Mary-Go-Round Childcare Center";"Center Based Program License";"Hooksett";6034853254;"Merrimack";"'03106";"13 Morgan Drive";;;"Active"
"CCFB-05922";"Miss Stephanie's Family Childcare";"Family Based Program License";"Hooksett";6036220028;"Merrimack";"'03106";"147 Whitehall Road";;;"Active"
"CCCB-06472";"New Morning Before and After School Programs @ Fred Underhill";"Center Based Program License";"Hooksett";6037148766;"Merrimack";"'03106";"2 Sherwood Drive";"Fred C. Underhill School";;"Active"
"CCCB-06959";"New Morning Schools-Before & After School Program @ Hooksett Memorial";"Center Based Program License";"Hooksett";6036693591;"Merrimack";"'03106";"5 Memorial Drive";;;"Permit Issued"
"CCCB-06852";"Places You'll Grow Child Development Center";"Center Based Program License";"Hooksett";6037855654;"Merrimack";"'03106";"167 Londonderry Turnpike";;;"Active"
"CCCB-06949";"The Ark Learning Center of Hooksett";"Center Based Program License";"Hooksett";6039358260;"Merrimack";"'03106";"198 Londonderry Turnpike";;;"Permit Issued"
"CCCB-04827";"Tic-Tac-Tots Preschool";"Center Based Program License";"Hooksett";6036418687;"Merrimack";"'03106";"145 Londonderry Turnpike";;;"Active"
"CCCB-06831";"Tumble Bees Preschool and Fitness";"Center Based Program License";"Hooksett";6039359816;"Merrimack";"'03106";"1316 Hooksett Road";;;"Active"
"CCCB-05436";"University Heights Learning Center";"Center Based Program License";"Hooksett";6034856166;"Merrimack";"'03106";"45 Mount Saint Mary's Way";;;"Active"
"CCCB-04560";"Child Guidance Early Learning Center";"Center Based Program License";"Manchester";6036251880;"Hillsborough";"'03109";"75 Talbot Street";;;"Active"
"CCRB-05400";"Easter Seals - Zachary Road";"Residential Based Program License";"Manchester";6032066675;"Hillsborough";"'03109";"200 Zachary Road";;;"Active"
"CCCB-06424";"Elemenope Principles Child Learning Center";"Center Based Program License";"Manchester";6032325225;"Hillsborough";"'03109";"1201 Candia Road";;;"Active"
"CCCB-00567";"Holy Cross Early Childhood Center";"Center Based Program License";"Manchester";6036680510;"Hillsborough";"'03109";"420 Island Pond Road";;;"Active"
"CCFB-06523";"Just Like Home Child Care";"Family Based Program License";"Manchester";6036693736;"Hillsborough";"'03109";"80 Woodbine Avenue";;;"Active"
"CCFB-05121";"Lisa's Family Day Care";"Family Based Program License";"Manchester";6035124484;"Hillsborough";"'03109";"181 Woodbine Avenue";;;"Active"
"CCCB-05384";"Noah's Ark Child Care Center";"Center Based Program License";"Manchester";6036697990;"Hillsborough";"'03109";"491 East Industrial Park Drive";;;"Active"
"CCCB-05792";"YMCA of Downtown Manchester School's Out Program @ Green Acres";"Center Based Program License";"Manchester";6036233558;"Hillsborough";"'03109";"100 Aurore Street";;;"Active"
"CCCB-06573";"Bedford Martial Arts Academy";"Center Based Program License";"Bedford";6036269696;"Hillsborough";"'03110";"292 Route 101";;;"Active"
"CCCB-01314";"Bedford Montessori School";"Center Based Program License";"Bedford";6036279545;"Hillsborough";"'03110";"24 Tirrell Hill Road";;;"Active"
"CCCB-00654";"Bedford Village Morning School";"Center Based Program License";"Bedford";6034725531;"Hillsborough";"'03110";"19 Ministerial Road";;;"Active"
"CCCB-05877";"Bright Horizons at Bedford";"Center Based Program License";"Bedford";6034725451;"Hillsborough";"'03110";"54 Constitution Drive";;;"Active"
"CCCB-05871";"Creative Kids Preschool @ BYPC";"Center Based Program License";"Bedford";6033917985;"Hillsborough";"'03110";"155 Route 101";;;"Active"
"CCCB-05241";"KinderCare Learning Center";"Center Based Program License";"Bedford";6036217485;"Hillsborough";"'03110";"3 Upjohn Street";;;"Active"
"CCCB-06557";"Learning Adventures Early Childhood Center";"Center Based Program License";"Bedford";6036692811;"Hillsborough";"'03110";"51 Old Bedford Road";;"stacey@learningadventures.nh.com";"Active"
"CCCB-06461";"New Morning After School Program @ McKelvie";"Center Based Program License";"Bedford";6036693591;"Hillsborough";"'03110";"108 Liberty Hill Road";;;"Active"
"CCCB-06468";"New Morning After School Program @ Memorial";"Center Based Program License";"Bedford";6036693591;"Hillsborough";"'03110";"55 Old Bedford Road";"Memorial Elementary School";;"Active"
"CCCB-06459";"New Morning After School Program @ Peter Woodbury";"Center Based Program License";"Bedford";6036693591;"Hillsborough";"'03110";"180 County Road";;;"Active"
"CCCB-06460";"New Morning After School Program @ Riddle Brook";"Center Based Program License";"Bedford";6036693591;"Hillsborough";"'03110";"230 New Boston Road";;;"Active"
"CCCB-06452";"New Morning School of Bedford";"Center Based Program License";"Bedford";6036693591;"Hillsborough";"'03110";"23 Back River Road";;;"Active"
"CCCB-06895";"Primrose School at Bedford Hills";"Center Based Program License";"Bedford";6034723800;"Hillsborough";"'03110";"3 Cooper Lane";;"cwilson@primrosebedfordhills.com";"Active"
"CCCB-05341";"Rainbowland Child Development Center";"Center Based Program License";"Bedford";6036226766;"Hillsborough";"'03110";"3 Rundlett Hill Road";;"rainbowlandcdc@comcast.net";"Active"
"CCCB-00796";"The Lamb's Workshop";"Center Based Program License";"Bedford";6034722113;"Hillsborough";"'03110";"1 Covenant Way";;;"Active"
"CCCB-06779";"Trinity Early Learning Center";"Center Based Program License";"Bedford";6036226336;"Hillsborough";"'03110";"12 Station Road";;;"Active"
"CCCB-06908";"Boys & Girls Club of Andover";"Center Based Program License";"Andover";6034105987;"Merrimack";"'03216";"6 School Street";;;"Active"
"CCCB-06494";"Imagination Inn";"Center Based Program License";"Andover";6037355900;"Merrimack";"'03216";"45 North Street";;;"Active"
"CCFB-06102";"King's Kastle Daycare";"Family Based Program License";"Andover";6037354197;"Merrimack";"'03216";"135 Beech Hill Road";;;"Active"
"CCFB-05471";"Hobby Horse Daycare";"Family Based Program License";"Barnstead";6034356377;"Belknap";"'03218";"384 Province Road";;;"Active"
"CCFB-02889";"Windy Hill Day Care";"Family Based Program License";"Barnstead";6034357180;"Belknap";"'03218";"297 Coles Ledge Road";;;"Active"
"CCCB-06893";"Belmont Early Learning Center";"Center Based Program License";"Belmont";6035278048;"Belknap";"'03220";"24 Eastgate Park Drive";;;"Active"
"CCCB-06881";"Belmont Elementary Before and After School Program";"Center Based Program License";"Belmont";6035241235;"Belknap";"'03220";"26 Best Street";;;"Active"
"CCCB-06790";"First Steps Child Care";"Center Based Program License";"Belmont";6172725341;"Belknap";"'03220";"44 Diane Drive";;;"Active"
"CCFB-06738";"Li'l Einstein's Child Care";"Family Based Program License";"Belmont";6038323877;"Belknap";"'03220";"24 Farrarville Road";;;"Active"
"CCCB-06958";"Boys & Girls Clubs of Central New Hampshire - Sutton Unit";"Center Based Program License";"Bradford";6032689563;"Merrimack";"'03221";"28 Newbury Road";;;"Permit Issued"
"CCCB-06204";"Children's Center For Creative Learning";"Center Based Program License";"Bradford";6039382546;"Merrimack";"'03221";"57 West Main Street";;;"Active"
"CCCB-06866";"Creative Learning Program";"Center Based Program License";"Bradford";6039382546;"Merrimack";"'03221";"163 Old Warner Road";;;"Active"
"CCFB-06438";"Marie's Day Care";"Family Based Program License";"Bristol";6033879656;"Grafton";"'03222";"137 Berry Farm Road";;;"Active"
"CCCB-06486";"PB & J's Child Care and Learning Center";"Center Based Program License";"Bristol";6037440048;"Grafton";"'03222";"1420 Peaked Hill Road";;;"Active"
"CCCB-06646";"Piggyback Rides and Slippery Slides";"Center Based Program License";"Bristol";6037449448;"Grafton";"'03222";"12 Bristol Hill Road";;;"Active"
"CCFB-06754";"1-2-3 Follow Me";"Family Based Program License";"Campton";6032387441;"Grafton";"'03223";"47 Mountain View Road";;;"Active"
"CCRB-06689";"MPA at Campton: Depot Street and Owl Street";"Residential Based Program License";"Campton";6035361102;"Grafton";"'03223";"19 Owl Street and 32 Depot Street";;;"Active"
"CCCB-01546";"Te-Lo-Ca Group Day Care Center";"Center Based Program License";"Campton";6035363755;"Grafton";"'03223";"16 Teloca Drive";;;"Active"
"CCFB-06764";"Watch Me Grow";"Family Based Program License";"Campton";6032362704;"Grafton";"'03223";"164 Blair Road";;;"Active"
"CCCB-06303";"Watermelon Seeds Preschool and Learning Center";"Center Based Program License";"Campton";6037264114;"Grafton";"'03223";"24 Southmayd Street";;;"Active"
"CCCB-06920";"The Canterbury Whole Child Center";"Center Based Program License";"Canterbury";6037834370;"Merrimack";"'03224";"6 Hackleboro Road";;;"Active"
"CCCB-06894";"The Dewey School";"Center Based Program License";"Canterbury";6037318091;"Merrimack";"'03224";"288 Shaker Road";;;"Active"
"CCCB-06712";"Buzy Beez Child Care Center";"Center Based Program License";"Center Barnstead";6032693550;"Belknap";"'03225";"27 Depot Road";;;"Active"
"CCCB-05861";"The Village Preschool";"Center Based Program License";"Center Harbor";6034556322;"Belknap";"'03226";"52 Main Street";;;"Active"
"CCCB-01656";"Sandwich Children's Center";"Center Based Program License";"Center Sandwich";6032847014;"Carroll";"'03227";"54 Maple Street";;;"Active"
"CCCB-06851";"Boys & Girls Clubs of Central New Hampshire - Hopkinton Unit";"Center Based Program License";"Contoocook";6034105179;"Merrimack";"'03229";"194 Maple Street";;;"Active"
"CCFB-05215";"Karen Pfeiffer Family Child Care";"Family Based Program License";"Contoocook";6037464068;"Merrimack";"'03229";"140 Spring Street";;;"Active"
"CCFB-06426";"Sheri Jones Child Care";"Family Based Program License";"Contoocook";6037466316;"Merrimack";"'03229";"48 Pine Street";;;"Active"
"CCCB-01176";"'Tween School 'N Home Child Care Program";"Center Based Program License";"Contoocook";6037463622;"Merrimack";"'03229";"271 Main Street";;;"Active"
"CCCB-00739";"East Andover Village Preschool";"Center Based Program License";"East Andover";6037355105;"Merrimack";"'03231";"7 Chase Hill Road";;;"Active"
"CCCB-06898";"Boys and Girls Club of Central NH-Epsom Unit";"Center Based Program License";"Epsom";6032241061;"Merrimack";"'03234";"282 Black Hall Road";;;"Active"
"CCCB-06211";"Circle Child Care";"Center Based Program License";"Epsom";6037363393;"Merrimack";"'03234";"41 Goboro Road";;;"Active"
"CCCB-06879";"Kelly Corner School";"Center Based Program License";"Epsom";6034358893;"Merrimack";"'03234";"940 Suncook Valley Highway";;;"Active"
"CCCB-06794";"The Learning Tree";"Center Based Program License";"Epsom";6037360037;"Merrimack";"'03234";"9 Gauthier Drive";;;"Active"
"CCCB-06683";"Boys & Girls Club of Greater Concord - Franklin Paul Smith School";"Center Based Program License";"Franklin";6032241061;"Merrimack";"'03235";"41 Daniel Webster Drive";;;"Active"
"CCCB-06655";"City of Franklin-Parks & Recreation";"Center Based Program License";"Franklin";6039342118;"Merrimack";"'03235";"12 Rowell Drive";;;"Active"
"CCFB-01232";"Donna L. Mahoney Day Care";"Family Based Program License";"Franklin";6039344041;"Merrimack";"'03235";"119 Sanborn Street";;;"Active"
"CCCB-01824";"Franklin Head Start";"Center Based Program License";"Franklin";6039342161;"Merrimack";"'03235";"12 Rowell Drive";;;"Active"
"CCCB-05193";"Red Oak Montessori School";"Center Based Program License";"Franklin";6039341002;"Merrimack";"'03235";"241 Sanborn Street";;;"Active"
"CCFB-05669";"Silly Goose Day Care";"Family Based Program License";"Franklin";6039347182;"Merrimack";"'03235";"81 Evergreen Avenue";;;"Active"
"CCCB-06050";"Tiny Twisters Child Care Center";"Center Based Program License";"Franklin";6036711109;"Merrimack";"'03235";"12 Rowell Street";;;"Active"
"CCFB-06074";"Brown's Way Family Child Care";"Family Based Program License";"Henniker";6034288125;"Merrimack";"'03242";"55 Brown's Way";;;"Active"
"CCFB-06576";"Creative Kids Child Care";"Family Based Program License";"Henniker";6034288211;"Merrimack";"'03242";"115 Old Mill Pond Road";;;"Active"
"CCCB-06343";"White Birch @ Henniker Community School";"Center Based Program License";"Henniker";6034287860;"Merrimack";"'03242";"51 Western Avenue";;;"Active"
"CCCB-00719";"White Birch Community Center";"Center Based Program License";"Henniker";6034287860;"Merrimack";"'03242";"51 Hall Avenue";;;"Active"
"CCCB-00560";"Hillsboro Child Development Center";"Center Based Program License";"Hillsborough";6034643136;"Hillsborough";"'03244";"21 School Street";;;"Active"
"CCCB-06708";"Stone Bridge Montessori School";"Center Based Program License";"Hillsborough";6034640211;"Hillsborough";"'03244";"29 West Main Street";;;"Active"
"CCRB-06952";"The Wediko School at the Home for Little Wanderers";"Residential Based Program License";"Hillsborough";6034785236;"Hillsborough";"'03244";"11 Bobcat Boulevard";;;"Active"
"CCCB-06393";"Blue Heron Preschool";"Center Based Program License";"Holderness";6039687194;"Grafton";"'03245";"23 Science Center Road";;;"Active"
"CCCB-06937";"Boys & Girls Club at Holderness Central School";"Center Based Program License";"Holderness";6039315491;"Grafton";"'03245";"19 School Road";;;"Active"
"CCCB-06018";"White Mountain Montessori School";"Center Based Program License";"Holderness";6035362555;"Grafton";"'03245";"133 Mt. Prospect Road";;;"Active"
"CCFB-05784";"Acorn Brown's Turtle Town Daycare";"Family Based Program License";"Laconia";6035244558;"Belknap";"'03246";"21 Dartmouth Street";;;"Active"
"CCCB-06858";"Boys & Girls Clubs of Central New Hampshire - Lakes Region Unit";"Center Based Program License";"Laconia";6035280197;"Belknap";"'03246";"876 North Main Street";;;"Active"
"CCFB-05315";"Cotton Hill Day Care";"Family Based Program License";"Laconia";6035284339;"Belknap";"'03246";"179 Cotton Hill Road";;;"Active"
"CCCB-01292";"Country View Day School";"Center Based Program License";"Laconia";6035288557;"Belknap";"'03246";"89 Valley Street";;;"Active"
"CCCB-06882";"Elm Street Before and After School Program";"Center Based Program License";"Laconia";6035241235;"Belknap";"'03246";"478 Elm Street";;;"Active"
"CCCB-06891";"Laconia Early Learning Center";"Center Based Program License";"Laconia";;"Belknap";"'03246";"22 Strafford Street, Unit #4";;;"Active"
"CCCB-00793";"Lakes Region Family Center/Head Start/Early Head Start";"Center Based Program License";"Laconia";6035285334;"Belknap";"'03246";"121 Belmont Road";;;"Active"
"CCCB-06151";"Open Door Preschool and Childcare Center";"Center Based Program License";"Laconia";6035242004;"Belknap";"'03246";"651 Union Avenue";;;"Active"
"CCCB-06883";"Pleasant Street Before and After School Program";"Center Based Program License";"Laconia";6035241235;"Belknap";"'03246";"334 Elm Street";;;"Active"
"CCCB-06892";"River's Edge Early Learning Center";"Center Based Program License";"Laconia";6033938132;"Belknap";"'03246";"126 Union Avenue";;;"Active"
"CCCB-06884";"Woodland Heights Before and After School Program";"Center Based Program License";"Laconia";6035241235;"Belknap";"'03246";"225 Winter Street";;;"Active"
"CCFB-00770";"Children's Garden Daycare";"Family Based Program License";"Gilford";6035281857;"Belknap";"'03249";"546 Morrill Street";;;"Active"
"CCFB-06178";"Mary's Child Care";"Family Based Program License";"Gilford";6035243979;"Belknap";"'03249";"21 Belknap Mountain Road";;;"Active"
"CCCB-06936";"Ready, Set, Grow! Children's Learning Center";"Center Based Program License";"Gilford";6039032461;"Belknap";"'03249";"401 Gilford Avenue, Suite 203";;;"Active"
"CCCB-06728";"Under His Wings Preschool";"Center Based Program License";"Gilford";6037176321;"Belknap";"'03249";"2 Airport Road";;;"Active"
"CCCB-00949";"Village Nursery School";"Center Based Program License";"Gilford";6035247444;"Belknap";"'03249";"19 Potter Hill Road";;;"Active"
"CCCB-04328";"Lincoln-Woodstock Community Child Care Center";"Center Based Program License";"Lincoln";6037452200;"Grafton";"'03251";"194 Pollard Road";;;"Active"
"CCFB-05252";"Noah's Ark Day Care";"Family Based Program License";"Lincoln";6037453279;"Grafton";"'03251";"31 Hanson Farm Road";;;"Active"
"CCFB-02408";"Northern Shores Day Care";"Family Based Program License";"Lochmere";6035283294;"Belknap";"'03252";"11 Dublin Drive";;;"Active"
"CCCB-04811";"Weeping Willow Day Care Center";"Center Based Program License";"Lochmere";6035246316;"Belknap";"'03252";"34 Silver Lake Road";;;"Active"
"CCCB-00571";"Inter-Lakes Day Care Center And Nursery School";"Center Based Program License";"Meredith";6032798903;"Belknap";"'03253";"The Bixby House, 36 Lang Street";;;"Active"
"CCCB-04890";"Kidworks Learning Center";"Center Based Program License";"Meredith";6032796633;"Belknap";"'03253";"37 Reservoir Road";;;"Active"
"CCCB-06090";"Imaginations...A Child's Place";"Center Based Program License";"Moultonborough";6034768400;"Carroll";"'03254";"903 Whittier Highway";;;"Active"
"CCCB-06580";"Moultonborough Learning Center";"Center Based Program License";"Moultonborough";6037076233;"Carroll";"'03254";"1018 & 1026 Whittier Highway";;;"Active"
"CCFB-06931";"Hope's Haven";"Family Based Program License";"Newbury";6034142911;"Merrimack";"'03255";"356 Chalk Pond Road";;;"Active"
"CCCB-01816";"ABC's Child Care Center";"Center Based Program License";"New London";6035265242;"Merrimack";"'03257";"273 County Road";;;"Active"
"CCCB-06574";"New London Early Learning Center";"Center Based Program License";"New London";6035262650;"Merrimack";"'03257";"24 Pleasant Street";;;"Active"
"CCCB-06633";"Windy Hill School";"Center Based Program License";"New London";6035263774;"Merrimack";"'03257";"541 Main Street";;;"Active"
"CCFB-06678";"Anne's Daycare";"Family Based Program License";"Chichester";6037985536;"Merrimack";"'03258";"33 Towle Road";;;"Active"
"CCCB-06896";"KCE Champions LLC @ Northwood";"Center Based Program License";"Northwood";6035210605;"Rockingham";"'03261";"511 1st. NH Turnpike";;;"Active"
"CCCB-06907";"Little Blessings Pre-School @ St. Joseph's Church";"Center Based Program License";"Northwood";6038173571;"Rockingham";"'03261";"844 1st. NH Turnpike";;;"Active"
"CCFB-06301";"Magical Moments Daycare";"Family Based Program License";"Northwood";6039428645;"Rockingham";"'03261";"97 Ridge Road";;"eliza_farrar@yahoo.com";"Active"
"CCCB-00660";"Blueberry Express Day Care Center";"Center Based Program License";"Pittsfield";6034356149;"Merrimack";"'03263";"8 Catamount Street";;;"Active"
"CCCB-04197";"Pittsfield Head Start";"Center Based Program License";"Pittsfield";6034356618;"Merrimack";"'03263";"23 Oneida Street";;;"Active"
"CCCB-06673";"Heather's Little Angels";"Center Based Program License";"Plymouth";6035362332;"Grafton";"'03264";"12 Yeaton Road, Suite C8";;;"Active"
"CCCB-06112";"Mid-State Children's Learning Center";"Center Based Program License";"Plymouth";6035363898;"Grafton";"'03264";"101 Fairgounds Road";;;"Active"
"CCFB-06676";"Miss Amber's Daycare LLC";"Family Based Program License";"Plymouth";6032543904;"Grafton";"'03264";"19 Page Street";;;"Active"
"CCRB-05691";"MPA at Plymouth: CAST";"Residential Based Program License";"Plymouth";6035361102;"Grafton";"'03264";"350 Main Street";;;"Active"
"CCCB-06368";"Pemi Youth Center";"Center Based Program License";"Plymouth";6035367264;"Grafton";"'03264";"111 Main Street";;;"Active"
"CCCB-00987";"Plymouth Area Headstart";"Center Based Program License";"Plymouth";6035361393;"Grafton";"'03264";"258 Highland Street";;;"Active"
"CCCB-04637";"Plymouth State University Center for Young Children and Families";"Center Based Program License";"Plymouth";6035352299;"Grafton";"'03264";"35 Langdon Street";;;"Active"
"CCFB-06865";"The Learning Tree Daycare";"Family Based Program License";"Plymouth";6034865910;"Grafton";"'03264";"25 Wentworth Street";;;"Active"
"CCRB-06690";"MPA at Rumney";"Residential Based Program License";"Rumney";6037869216;"Grafton";"'03266";"1765 Route 25";;;"Active"
"CCCB-05586";"Kids With Spirit";"Center Based Program License";"Salisbury";6036486100;"Merrimack";"'03268";"13 Franklin Road";;;"Active"
"CCCB-05685";"Sanbornton Recreation";"Center Based Program License";"Sanbornton";6032862659;"Belknap";"'03269";"Sanbornton Central School";"16 Hunkins Pond Road";;"Active"
"CCCB-06792";"Saplings, A Forest and Nature Preschool";"Center Based Program License";"Sanbornton";6036305450;"Belknap";"'03269";"266 Upper Bay Road";;;"Active"
"CCCB-06867";"Children's Center for Creative Learning - Sutton";"Center Based Program License";"South Sutton";6039382546;"Merrimack";"'03273";"30 Route 114";;;"Active"
"CCCB-06853";"Boys & Girls Clubs of Central New Hampshire - Suncook Unit";"Center Based Program License";"Suncook";6034105847;"Merrimack";"'03275";"8 Whitten Street";;;"Active"
"CCCB-05635";"First Choice For Children";"Center Based Program License";"Suncook";6034858613;"Merrimack";"'03275";"304 Pembroke Street";;;"Active"
"CCCB-01750";"Hurney's Nursery and Day Care";"Center Based Program License";"Suncook";6034859483;"Merrimack";"'03275";"4 Colonial Drive";;;"Active"
"CCCB-06921";"It Takes A Village Child Care";"Center Based Program License";"Suncook";6032196301;"Merrimack";"'03275";"617B Buck Street";;;"Permit Issued"
"CCCB-04307";"Peace Of Mind After School Care";"Center Based Program License";"Suncook";6038488499;"Merrimack";"'03275";"30 Main Street";;;"Active"
"CCRB-01073";"Pine Haven Boys Center";"Residential Based Program License";"Suncook";6034857141;"Merrimack";"'03275";"133 River Road";;;"Active"
"CCCB-02686";"Tender Years Child Care And Learning Center";"Center Based Program License";"Suncook";6034858932;"Merrimack";"'03275";"3 Chester Turnpike";;;"Active"
"CCCB-06942";"Three Krazy Kids";"Center Based Program License";"Suncook";6032287529;"Merrimack";"'03275";"60 Sheep Davis Road";;;"Active"
"CCCB-06909";"Boys & Girls Club - Winnisquam";"Center Based Program License";"Tilton";6032241061;"Belknap";"'03276";"76 Winter Street";;;"Active"
"CCCB-06776";"Pines Community Center";"Center Based Program License";"Tilton";6032868653;"Belknap";"'03276";"61 Summer Street";;;"Active"
"CCRB-01078";"Spaulding Academy & Family Services";"Residential Based Program License";"Tilton";6032868901;"Belknap";"'03276";"130 Shedd Road";;;"Active"
"CCCB-05251";"The Ark Christian Nursery and Learning Center";"Center Based Program License";"Tilton";6032869966;"Belknap";"'03276";"410 West Main Street";;;"Active"
"CCCB-06798";"Whole Child Center";"Center Based Program License";"Tilton";6032867077;"Belknap";"'03276";"523 West Main Street";;;"Active"
"CCCB-06547";"Boys & Girls Clubs of Greater Concord - Warner Unit";"Center Based Program License";"Warner";6032241061;"Merrimack";"'03278";"14 Church Street";;;"Active"
"CCCB-00956";"Warner Head Start";"Center Based Program License";"Warner";6034562208;"Merrimack";"'03278";"49 Main Street";;;"Active"
"CCRB-06822";"MPA at Warren";"Residential Based Program License";"Warren";6037266837;"Grafton";"'03279";"254 NH Route 25";;;"Active"
"CCCB-06834";"Boys & Girls Clubs of Central New Hampshire - Weare Unit";"Center Based Program License";"Weare";6032241061;"Hillsborough";"'03281";"16 East Road";;;"Active"
"CCCB-06464";"New Morning Before and After School Programs @ Center Woods";"Center Based Program License";"Weare";6036693591;"Hillsborough";"'03281";"14 Center Road";;;"Active"
"CCCB-00858";"Sugar And Spice Preschool";"Center Based Program License";"Weare";6035292036;"Hillsborough";"'03281";"8 High Street";;;"Active"
"CCCB-06674";"Weare Village Kidz Academy";"Center Based Program License";"Weare";6035290006;"Hillsborough";"'03281";"92 Woodbury Road";;;"Active"
"CCCB-06837";"Weare We Grow Child Care";"Center Based Program License";"Weare";6035290698;"Hillsborough";"'03281";"111 South Stark Highway, Suite 5";;;"Active"
"CCCB-06641";"Weare We Grow Childcare";"Center Based Program License";"Weare";6035290697;"Hillsborough";"'03281";"425 South Stark Highway";;;"Active"
"CCFB-06874";"Sweet Beginnings Daycare";"Family Based Program License";"Wilmot";6035684530;"Merrimack";"'03287";"5 Tannery Lane";;;"Active"
"CCCB-00968";"Wilmot Learning Place";"Center Based Program License";"Wilmot";6035264569;"Merrimack";"'03287";"64 Village Road";;;"Active"
"CCCB-06916";"All Aboard Early Learning Center";"Center Based Program License";"Nottingham";6037344023;"Rockingham";"'03290";"106 Church Street";;;"Active"
"CCCB-05934";"All Aboard Preschool & Child Care Center";"Center Based Program License";"Nottingham";6036799555;"Rockingham";"'03290";"249 Stage Road";;;"Active"
"CCFB-06910";"Growing With Grace";"Family Based Program License";"West Nottingham";6033034274;"Rockingham";"'03291";"374 Stage Road";;;"Active"
"CCCB-06835";"Boys & Girls Clubs of Central New Hampshire - Eastman Unit";"Center Based Program License";"Concord";6032241061;"Merrimack";"'03301";"15 Shawmut Street";;;"Active"
"CCCB-06411";"Boys & Girls Clubs of Greater Concord - Bradley Street Unit";"Center Based Program License";"Concord";6032241061;"Merrimack";"'03301";"55 Bradley Street";;;"Active"
"CCCB-06558";"Boys & Girls Clubs of Greater Concord - Christa McAuliffe Unit";"Center Based Program License";"Concord";6032241061;"Merrimack";"'03301";"17 North Spring Street";;;"Active"
"CCCB-06911";"Concord Early Enrichment Center";"Center Based Program License";"Concord";6032243282;"Merrimack";"'03301";"16 Chenell Drive";;;"Active"
"CCCB-00705";"Concord Family YMCA Child Development Center";"Center Based Program License";"Concord";6032289622;"Merrimack";"'03301";"15 North State Street";;;"Active"
"CCCB-00910";"Concord Head Start, Early Head Start And Community Child Care";"Center Based Program License";"Concord";6032246492;"Merrimack";"'03301";"67 Old Loudon Road";;;"Active"
"CCCB-02831";"East Side Learning Center";"Center Based Program License";"Concord";6032242717;"Merrimack";"'03301";"164 East Side Drive";;;"Active"
"CCCB-00993";"First Start Children's Center";"Center Based Program License";"Concord";"6032281341ext 4203";"Merrimack";"'03301";"17 Knight Street";;;"Active"
"CCCB-06934";"Inspiring Minds Childcare And Learning Center";"Center Based Program License";"Concord";6034199118;"Merrimack";"'03301";"40 Thorndike Street";;;"Permit Issued"
"CCCB-06899";"Little Learners Family Center";"Center Based Program License";"Concord";6037155168;"Merrimack";"'03301";"3 Garrison Street";;;"Active"
"CCCB-00912";"Merrimack Valley Day Care Service";"Center Based Program License";"Concord";6032241632;"Merrimack";"'03301";"19 North Fruit Street";;;"Active"
"CCCB-05819";"Merrimack Valley Day Care Service @ Jennings Drive";"Center Based Program License";"Concord";6032241632;"Merrimack";"'03301";"19 Jennings Drive, Haller Center";;;"Active"
"CCCB-02599";"Merrimack Valley Day Care Service @ NH Hospital";"Center Based Program License";"Concord";6032715790;"Merrimack";"'03301";"97 Pleasant Street, Thayer Building";;;"Active"
"CCCB-05016";"Merrimack Valley Day Care Service At Eagle's Bluff";"Center Based Program License";"Concord";6032254305;"Merrimack";"'03301";"2 Quincy Street";;;"Active"
"CCCB-00742";"Ralph Waldo Emerson School For Preschoolers";"Center Based Program License";"Concord";6032248218;"Merrimack";"'03301";"274 Pleasant Street";;"jensign@emersonschool.comcastbiz.net";"Active"
"CCCB-00696";"The Children's Place and Parent Education Center";"Center Based Program License";"Concord";6032249920;"Merrimack";"'03301";"27 Burns Avenue";;;"Active"
"CCCB-01693";"The Learning Center at Concord Hospital";"Center Based Program License";"Concord";6032240590;"Merrimack";"'03301";"139 Langley Parkway";;;"Active"
"CCCB-06956";"The Mary Stuart Gile Early Learning Center at CFDC";"Center Based Program License";"Concord";6032241061;"Merrimack";"'03301";"31 College Drive";;;"Permit Issued"
"CCCB-06622";"The Tot Spot";"Center Based Program License";"Concord";6032240404;"Merrimack";"'03301";"60 West Street";;;"Active"
"CCCB-01016";"The Woodside School";"Center Based Program License";"Concord";6032248418;"Merrimack";"'03301";"114 & 126 South Fruit Street";;;"Active"
"CCCB-06591";"The Y @ 21C/Abbot Downing School";"Center Based Program License";"Concord";6032907000;"Merrimack";"'03301";"152 South Street";;;"Active"
"CCCB-06730";"The Y @ 21C/Beaver Meadow School";"Center Based Program License";"Concord";6037831129;"Merrimack";"'03301";"40 Sewalls Fall Road";;;"Active"
"CCCB-06890";"With One Heart Early Learning Center";"Center Based Program License";"Concord";6032240277;"Merrimack";"'03301";"213 North Main Street";;;"Active"
"CCCB-06748";"Woodside at St. Paul's School";"Center Based Program License";"Concord";6032295576;"Merrimack";"'03301";"Sawmill Road";;;"Active"
"CCFB-01842";"Care A Lot Family Child Care";"Family Based Program License";"Concord";6037465702;"Merrimack";"'03303";"292 Tyler Road";;;"Active"
"CCCB-05732";"Concord Family YMCA School Age Program at Boscawen";"Center Based Program License";"Concord";"6032289622X133";"Merrimack";"'03303";"1 Best Avenue";;;"Active"
"CCCB-05722";"Merrimack Valley Day Care Service @ MCNH";"Center Based Program License";"Concord";6037966467;"Merrimack";"'03303";"333 Daniel Webster Highway";;;"Active"
"CCCB-01290";"Penacook Community Center Child Care Program";"Center Based Program License";"Concord";6037539700;"Merrimack";"'03303";"76 Community Drive";;;"Active"
"CCCB-06656";"Penacook Community Center Child Care Program @ P.E.S";"Center Based Program License";"Concord";6037539700;"Merrimack";"'03303";"60 Village Street";;;"Active"
"CCCB-06174";"Bow Youth Center";"Center Based Program License";"Bow";6038567245;"Merrimack";"'03304";"21 Bow Center";;;"Active"
"CCCB-06725";"Bow Youth Center @ Bow Elementary School";"Center Based Program License";"Bow";6038567245;"Merrimack";"'03304";"20 Bow Center Road";;;"Active"
"CCCB-06022";"Casa dei Bambini Montessori Children's Center";"Center Based Program License";"Bow";6032279300;"Merrimack";"'03304";"507 A South Street";;;"Active"
"CCCB-05390";"Celebrating Children";"Center Based Program License";"Bow";6032282214;"Merrimack";"'03304";"10 Grandview Road";;;"Active"
"CCCB-01566";"Joyful Noise Preschool and Learning Center";"Center Based Program License";"Bow";6032246069;"Merrimack";"'03304";"6 & 8 Branch Londonderry Turnpike East";;;"Active"
"CCCB-06186";"Little Sprouts Children's Center";"Center Based Program License";"Bow";6032241818;"Merrimack";"'03304";"3 Robinson Road A-1";;;"Active"
"CCCB-04993";"Rockwood Acres Daycare";"Center Based Program License";"Bow";6032256990;"Merrimack";"'03304";"3 Clough Road";;;"Active"
"CCCB-06347";"Concord Family YMCA KydStop @ Loudon Elementary";"Center Based Program License";"Loudon";6032289622;"Merrimack";"'03307";"33 Staniels Road";;;"Active"
"CCCB-05767";"Footsteps Day Care And Learning Center";"Center Based Program License";"Keene";6033571475;"Cheshire";"'03431";"407 Winchester Street";;;"Active"
"CCCB-06850";"Growing Minds Preschool & Daycare";"Center Based Program License";"Keene";6033543977;"Cheshire";"'03431";"69 Washington Street";;;"Active"
"CCCB-00585";"Keene Day Care Center";"Center Based Program License";"Keene";6033522129;"Cheshire";"'03431";"86 Wood Street";;;"Active"
"CCCB-06856";"Keene Family YMCA - JD Site";"Center Based Program License";"Keene";6033526002;"Cheshire";"'03431";"227 Maple Avenue";;;"Active"
"CCCB-01019";"Keene Family YMCA Children's Learning Center";"Center Based Program License";"Keene";;"Cheshire";"'03431";"200 Summit Road";;;"Active"
"CCCB-06758";"Keene Family YMCA Maple Avenue Learning Center";"Center Based Program License";"Keene";6033132719;"Cheshire";"'03431";"105 Maple Avenue";;;"Active"
"CCCB-00003";"Keene Montessori School";"Center Based Program License";"Keene";6033524052;"Cheshire";"'03431";"125 Railroad Street";;;"Active"
"CCCB-02819";"Montessori Schoolhouse Of Cheshire County";"Center Based Program License";"Keene";6033523301;"Cheshire";"'03431";"28 Hurricane Road";;;"Active"
"CCCB-02213";"Rise...For Baby And Family";"Center Based Program License";"Keene";6033571395;"Cheshire";"'03431";"147 Washington Street";;;"Active"
"CCCB-06389";"Sophia's Hearth Family Center";"Center Based Program License";"Keene";6033573755;"Cheshire";"'03431";"700 Court Street";;;"Active"
"CCCB-00851";"Southwestern Community Services - Keene Head Start";"Center Based Program License";"Keene";6037194175;"Cheshire";"'03431";"64 Dunbar Street";;;"Active"
"CCCB-04270";"The Children's Learning Center @ CMC/DHK";"Center Based Program License";"Keene";6033545434;"Cheshire";"'03431";"548 Court Street";;;"Active"
"CCCB-00792";"Keene State College Child Development Center";"Center Based Program License";"Keene";6033582232;"Cheshire";"'03435";"229 Main Street";;;"Active"
"CCCB-06965";"Boys & Girls Club-Antrim Extension";"Center Based Program License";"Antrim";6038016001;"Hillsborough";"'03440";"10 School Street";;;"Permit Issued"
"CCCB-05902";"The Learning Vine";"Center Based Program License";"Antrim";6035882620;"Hillsborough";"'03440";"4 Aiken Street";;;"Active"
"CCCB-04575";"Southwestern Community Services-Ashuelot Headstart";"Center Based Program License";"Ashuelot";6032398228;"Cheshire";"'03441";"161 Main Street";;;"Active"
"CCCB-00732";"Dublin Community Preschool And Child Care Center";"Center Based Program License";"Dublin";6035638508;"Cheshire";"'03444";"1281c Main Street";;"Cathy@dublinpreschool.org";"Active"
"CCFB-06812";"Honey Bee Hollow";"Family Based Program License";"Swanzey";6038529244;"Cheshire";"'03446";"83 Ash HIll Road";;;"Active"
"CCCB-00574";"Jack And Jill Cooperative Nursery School";"Center Based Program License";"Swanzey";6033578550;"Cheshire";"'03446";"679 Old Homestead Highway";;;"Active"
"CCCB-05328";"Southwestern Community Services - Swanzey Head Start";"Center Based Program License";"Swanzey";6033527254;"Cheshire";"'03446";"37 West Street";;;"Active"
"CCCB-06680";"Little Learners Daycare";"Center Based Program License";"Fitzwilliam";9788558089;"Cheshire";"'03447";"27 Route 12 South";;;"Active"
"CCFB-04884";"Tammy's Play House";"Family Based Program License";"Hancock";6035254008;"Hillsborough";"'03449";"214 Forest Road";;;"Active"
"CCCB-01571";"Harrisville Children's Center";"Center Based Program License";"Harrisville";6038273905;"Cheshire";"'03450";"66 Main Street";;;"Active"
"CCFB-05719";"Elizabeth Murdough Family Daycare";"Family Based Program License";"Hinsdale";6032563025;"Cheshire";"'03451";"9 Streeter Lane";;;"Active"
"CCFB-02692";"Nanny's Daycare";"Family Based Program License";"Hinsdale";6033365415;"Cheshire";"'03451";"50 Indian Acres";;;"Active"
"CCFB-06317";"The Little Imaginative Learners Daycare";"Family Based Program License";"Hinsdale";8022587986;"Cheshire";"'03451";"434 Plain Road";;;"Active"
"CCCB-04390";"Kids Club";"Center Based Program License";"Jaffrey";6035326543;"Cheshire";"'03452";"49 Squantum Road";;;"Active"
"CCCB-05205";"Southwestern Community Services - Jaffrey Head Start";"Center Based Program License";"Jaffrey";6035324135;"Cheshire";"'03452";"35 Oak Street";;;"Active"
"CCFB-06888";"Whirlybirds Early Care and Education";"Family Based Program License";"Jaffrey";6037229271;"Cheshire";"'03452";"154 Nutting Road";;;"Active"
"CCFB-06767";"Ready, Set...Grow! Childcare & Learning";"Family Based Program License";"Marlow";6034463524;"Cheshire";"'03456";"173 NH Rte 123";;;"Active"
"CCCB-00555";"Happy Valley School";"Center Based Program License";"Peterborough";6039247362;"Hillsborough";"'03458";"132 Gulf Road";;;"Active"
"CCCB-00914";"Monadnock Community Early Learning Center";"Center Based Program License";"Peterborough";6035326021;"Hillsborough";"'03458";"Route 202 South 5 Community Lane";;;"Active"
"CCCB-06688";"Robin's Nest Nature Preschool";"Center Based Program License";"Peterborough";6035625892;"Hillsborough";"'03458";"277 A Union Street";;;"Active"
"CCCB-04702";"School Kids In Peterborough";"Center Based Program License";"Peterborough";6039247050;"Hillsborough";"'03458";"14 Vine Street";;;"Active"
"CCFB-06791";"Children's Garden Family Daycare";"Family Based Program License";"Rindge";6038997455;"Cheshire";"'03461";"81 Meadow View Road";;;"Active"
"CCCB-06928";"Village Children's Center of Chesterfield";"Center Based Program License";"Spofford";6033634226;"Cheshire";"'03462";"43 Church Street";;;"Active"
"CCCB-06897";"Boys & Girls Clubs of Central NH-Stoddard Unit";"Center Based Program License";"Stoddard";6032241061;"Cheshire";"'03464";"200 School Street";;;"Active"
"CCFB-06654";"Stacie's Child Care";"Family Based Program License";"Winchester";6032396529;"Cheshire";"'03470";"20 Fatima Way";;;"Active"
"CCCB-05513";"The Winchester Learning Center";"Center Based Program License";"Winchester";6032397347;"Cheshire";"'03470";"109 Keene Road";;"roycewlc@gmail.com";"Active"
"CCCB-01017";"Littleton Head Start";"Center Based Program License";"Littleton";6034446022;"Grafton";"'03561";"646 Union Street";;;"Active"
"CCCB-06021";"Shining Lights Learning Center & Child Care At FCC";"Center Based Program License";"Littleton";6034447379;"Grafton";"'03561";"189 Main Street";;;"Active"
"CCFB-04794";"The Child-Care Express";"Family Based Program License";"Littleton";6034446334;"Grafton";"'03561";"26 McBean Circle";;;"Active"
"CCCB-00656";"Berlin Head Start";"Center Based Program License";"Berlin";6037527138;"Coos";"'03570";"610 Sullivan Street";;;"Active"
"CCCB-04077";"Day By Day Child Care Center";"Center Based Program License";"Berlin";6037525166;"Coos";"'03570";"283 Pleasant Street";;;"Active"
"CCCB-02270";"Kids Only Day Care";"Center Based Program License";"Berlin";6037525564;"Coos";"'03570";"1023 Main Street";;;"Active"
"CCCB-06585";"Project Youth - Berlin Middle School";"Center Based Program License";"Berlin";6034665190;"Coos";"'03570";"550 Willard Street & 2 High Street";;;"Active"
"CCCB-05683";"Project Youth - Berlin Elementary School";"Center Based Program License";"Berlin";6037525311;"Coos";"'03570";"220 State Street";;;"Active"
"CCCB-05938";"Gale River Cooperative Preschool";"Center Based Program License";"Bethlehem";6038239995;"Grafton";"'03574";"231 Gale River Road";;;"Active"
"CCCB-06948";"All About Kids LLC";"Center Based Program License";"Colebrook";6032371160;"Coos";"'03576";"68 Parsons Street";;;"Permit Issued"
"CCCB-06876";"Colebrook Community Child Care";"Center Based Program License";"Colebrook";6032374350;"Coos";"'03576";"21 Couture Street";;;"Active"
"CCCB-05701";"Colebrook Head Start";"Center Based Program License";"Colebrook";6032378190;"Coos";"'03576";"53 Park Street";;;"Active"
"CCCB-00754";"Franconia Children's Center";"Center Based Program License";"Franconia";6038235643;"Grafton";"'03580";"73 Main Street";;;"Active"
"CCCB-00767";"Gorham Community Learning Center";"Center Based Program License";"Gorham";6034665766;"Coos";"'03581";"123 Main Street";;;"Active"
"CCCB-04997";"Mother Goose Child Care Center";"Center Based Program License";"Gorham";6037525403;"Coos";"'03581";"1 Wentworth Avenue";;;"Active"
"CCCB-06777";"Country Kids Learning Center";"Center Based Program License";"Northumberland";6036365130;"Coos";"'03582";"13 Main Street Unit 2";;;"Active"
"CCCB-00779";"Groveton Headstart";"Center Based Program License";"Northumberland";6036362625;"Coos";"'03582";"7 Preble Street";;;"Active"
"CCRB-05425";"Easter Seals - Lancaster";"Residential Based Program License";"Lancaster";6037880911;"Coos";"'03584";"525 Prospect Street";;;"Active"
"CCFB-06919";"Lancaster Cottage";"Family Based Program License";"Lancaster";8017358723;"Coos";"'03584";"59 Elm Street";;;"Active"
"CCCB-00985";"Lancaster Play And Learn Center";"Center Based Program License";"Lancaster";6037884005;"Coos";"'03584";"3 Cemetery Street";;;"Active"
"CCCB-06336";"Sunnybrook Montessori School";"Center Based Program License";"Lancaster";6037883884;"Coos";"'03584";"142 Main Street";;;"Active"
"CCCB-05247";"Whitefield Head Start";"Center Based Program License";"Whitefield";6037527138;"Coos";"'03598";"34 Jefferson Road";;;"Active"
"CCFB-06444";"Cheryl Bailey's Daycare";"Family Based Program License";"Charlestown";6035427395;"Sullivan";"'03603";"44 Cardinal Lane";;;"Active"
"CCCB-05480";"Dagmar's Place";"Center Based Program License";"Charlestown";6038263263;"Sullivan";"'03603";"801 Meany Road";;;"Active"
"CCFB-05114";"Deb's Day Care";"Family Based Program License";"Charlestown";6038265733;"Sullivan";"'03603";"44 Old Claremont Road";;;"Active"
"CCCB-06602";"One Step Ahead Daycare";"Center Based Program License";"Charlestown";6038264180;"Sullivan";"'03603";"402 Old Claremont Road";;;"Active"
"CCCB-06824";"Y-Aspire @ Charlestown Primary School";"Center Based Program License";"Charlestown";8024634769;"Sullivan";"'03603";"84 East Street";;;"Active"
"CCCB-05057";"Southwestern Community Services-Drewsville Headstart";"Center Based Program License";"Drewsville";6034452595;"Cheshire";"'03604";"27 Old Cheshire Turnpike";;;"Active"
"CCCB-06145";"Home Away From Home";"Center Based Program License";"Walpole";6037563550;"Cheshire";"'03608";"11 Maplewood Circle";;;"Active"
"CCCB-00954";"Walpole Village School";"Center Based Program License";"Walpole";6037564246;"Cheshire";"'03608";"75 Westminster Street";;;"Active"
"CCFB-06744";"Michele's Day Care";"Family Based Program License";"North Walpole";6034452161;"Cheshire";"'03609";"26 Church Street";;;"Active"
"CCFB-05679";"Kelly's Little Friends Daycare";"Family Based Program License";"Canaan";6035238875;"Grafton";"'03741";"45 Grafton Turnpike Road";;;"Active"
"CCFB-06946";"Ashley Goss Childcare";"Family Based Program License";"Claremont";6039951522;"Sullivan";"'03743";"31 Buena Vista Road";;;"Permit Issued"
"CCCB-06839";"Best Before and After School Program";"Center Based Program License";"Claremont";6035421733;"Sullivan";"'03743";"140 North Street";;;"Active"
"CCCB-06043";"Green Mountain Children's Center - Claremont";"Center Based Program License";"Claremont";6035430391;"Sullivan";"'03743";"90 Charlestown Road";;;"Active"
"CCCB-06518";"Green Mountain Children's Center - Disnard";"Center Based Program License";"Claremont";6035430391;"Sullivan";"'03743";"160 Hanover Street";;;"Active"
"CCCB-06507";"Green Mountain Children's Center - Maple Ave";"Center Based Program License";"Claremont";6035430391;"Sullivan";"'03743";"210 Maple Avenue";;;"Active"
"CCFB-06713";"Maccioli Day Care";"Family Based Program License";"Claremont";6035422741;"Sullivan";"'03743";"41 Lilac Lane";;"saramac74@yahoo.com";"Active"
"CCCB-06785";"One-4-All Child Care";"Center Based Program License";"Claremont";2877120;"Sullivan";"'03743";"169 Main Street";;;"Active"
"CCFB-05800";"Picard's Family Day Care";"Family Based Program License";"Claremont";6035422047;"Sullivan";"'03743";"165 A Sugar River Drive";;;"Active"
"CCCB-05235";"Pleasant Preschool";"Center Based Program License";"Claremont";6035433288;"Sullivan";"'03743";"72 Pleasant Street";;;"Active"
"CCCB-06757";"Ready Set Grow Childcare";"Center Based Program License";"Claremont";6032877900;"Sullivan";"'03743";"10 Royce Street";;;"Active"
"CCFB-04475";"Smiling Faces Day Care";"Family Based Program License";"Claremont";6035431455;"Sullivan";"'03743";"6 Pawtucket Avenue";;;"Active"
"CCCB-00700";"Southwestern Community Services - Claremont Headstart";"Center Based Program License";"Claremont";6035422721;"Sullivan";"'03743";"6 Kinney Place";;;"Active"
"CCFB-05924";"Sunflower Child Care";"Family Based Program License";"Claremont";6035424792;"Sullivan";"'03743";"53 Lane Ridge Road";;;"Active"
"CCFB-00073";"Tiny Tots Of Claremont";"Family Based Program License";"Claremont";6035429042;"Sullivan";"'03743";"29 Woonsocket Avenue";;;"Active"
"CCFB-05468";"Busy Bears Childcare";"Family Based Program License";"Enfield";6036327839;"Grafton";"'03748";"41 Shaker Hill Road";;;"Active"
"CCCB-05716";"Enfield Village After School Program";"Center Based Program License";"Enfield";6033049041;"Grafton";"'03748";"271 Route 4";;;"Active"
"CCFB-05063";"Little Folks Day Care";"Family Based Program License";"Enfield";6033066058;"Grafton";"'03748";"30 Shedd Street";;;"Active"
"CCCB-00743";"Mascoma Cooperative Preschool";"Center Based Program License";"Enfield";6036325655;"Grafton";"'03748";"96 Main Street";;;"Active"
"CCFB-06957";"Ostin's Kiddos";"Family Based Program License";"Enfield";6033699905;"Grafton";"'03748";"266 US Route 4";;;"Permit Issued"
"CCCB-06955";"Ready Set Grow";"Center Based Program License";"Enfield";6036321530;"Grafton";"'03748";"11 High Street";;;"Permit Issued"
"CCFB-04341";"Tata's Tots Home Day Care";"Family Based Program License";"Enfield";6036325857;"Grafton";"'03748";"687 Route 4A";;;"Active"
"CCCB-05259";"The Montessori Children's School In Hanover";"Center Based Program License";"Etna";6036432828;"Grafton";"'03750";"67 Trescott Road";;;"Active"
"CCCB-06939";"Creative Kids Adventures, Inc.";"Center Based Program License";"Grantham";8022364000;"Sullivan";"'03753";"151 Rt 10 North";;;"Active"
"CCFB-05221";"Tuck-A-Way Farm Day Care";"Family Based Program License";"Grantham";6038639805;"Sullivan";"'03753";"784 Route #10";;;"Active"
"CCCB-06782";"Cradle and Crayon South";"Center Based Program License";"Hanover";6033813459;"Grafton";"'03755";"45 Lyme Road";;;"Active"
"CCCB-01309";"Dartmouth College Child Care Center";"Center Based Program License";"Hanover";6036466610;"Grafton";"'03755";"21 Reservoir Road";;;"Active"
"CCCB-00536";"Hampshire Cooperative Nursery School";"Center Based Program License";"Hanover";6036434640;"Grafton";"'03755";"104 Lyme Road";;;"Active"
"CCCB-00543";"Hanover Nursery School";"Center Based Program License";"Hanover";6036433315;"Grafton";"'03755";"40 Valley Road Extension";;;"Active"
"CCCB-04111";"Kendal At Hanover 1 Early Learning Center";"Center Based Program License";"Hanover";6036437020;"Grafton";"'03755";"8 Cummings Road";;;"Active"
"CCCB-04135";"La Petite Creche II";"Center Based Program License";"Hanover";6036430451;"Grafton";"'03755";"5 Summer Street";;;"Active"
"CCCB-01939";"Toddler's Morning Out";"Center Based Program License";"Hanover";6036436747;"Grafton";"'03755";"104 Lyme Road";;;"Active"
"CCCB-06715";"Dartmouth Hitchcock Medical Center Child Care";"Center Based Program License";"Lebanon";6036509700;"Grafton";"'03756";"1 Medical Center Drive";;;"Active"
"CCCB-02875";"Learn And Grow Preschool And Enrichment Classes";"Center Based Program License";"Haverhill";6039895614;"Grafton";"'03765";"55 Dartmouth College Highway";;;"Active"
"CCCB-06620";"CCBA Preschool Program";"Center Based Program License";"Lebanon";6034486477;"Grafton";"'03766";"1 Campbell Street";;;"Active"
"CCCB-00687";"Children's Center Of The Upper Valley";"Center Based Program License";"Lebanon";6034481615;"Grafton";"'03766";"178 Mechanic Street";;;"Active"
"CCCB-06095";"Fit Kids Child Care at River Valley Club";"Center Based Program License";"Lebanon";6036438650;"Grafton";"'03766";"14 Lafayette Street";;;"Active"
"CCCB-04703";"Montessori Discovery School of the Twin States";"Center Based Program License";"Lebanon";6034439626;"Grafton";"'03766";"22 School Street";;;"Active"
"CCCB-05945";"Lyme After School Program";"Center Based Program License";"Lyme";6032088303;"Grafton";"'03768";"35 Union Street";;;"Active"
"CCCB-00895";"Lyme Nursery School";"Center Based Program License";"Lyme";6037954567;"Grafton";"'03768";"155 Dartmouth College Highway";;;"Active"
"CCCB-06567";"Busy Bees Child Care Center";"Center Based Program License";"Meriden";6034693800;"Sullivan";"'03770";"1284 Route 120";;;"Active"
"CCFB-06372";"Blueberry Mountain Child Care";"Family Based Program License";"Newport";6038637657;"Sullivan";"'03773";"12 Springfield Road";;;"Active"
"CCCB-04548";"Cinnamon Street Early Education and Child Care Center";"Center Based Program License";"Newport";6038634543;"Sullivan";"'03773";"3 Ice House Plaza";;;"Active"
"CCFB-06051";"Happy Hill Daycare";"Family Based Program License";"Newport";6038634650;"Sullivan";"'03773";"269 NH Rt 10";;;"Active"
"CCCB-06740";"Kids World Academy of New Hampshire";"Center Based Program License";"Newport";6033726413;"Sullivan";"'03773";"648 John Stark Highway";;;"Active"
"CCRB-01072";"Orion House";"Residential Based Program License";"Newport";6038634918;"Sullivan";"'03773";"139 Elm Street";;;"Active"
"CCCB-00610";"Southwestern Community Services - Newport Head Start";"Center Based Program License";"Newport";6033527512;"Sullivan";"'03773";"360 Sunapee Street";;;"Active"
"CCCB-06147";"The Kid's Place";"Center Based Program License";"Newport";6038631010;"Sullivan";"'03773";"167 Summer Street";;;"Active"
"CCFB-06519";"Karen's Kare";"Family Based Program License";"North Haverhill";6037876141;"Grafton";"'03774";"20 Willow Lane";;;"Active"
"CCFB-06150";"Sheltering Tree Child Day Care";"Family Based Program License";"North Haverhill";6032430089;"Grafton";"'03774";"2998 Dartmouth College Highway";;;"Active"
"CCRB-05146";"MPA at Pike: The Hall Farm and Blake House";"Residential Based Program License";"Pike";6039895918;"Grafton";"'03780";"1977 and 2056 Mount Moosilauke Highway";;;"Active"
"CCRB-06873";"MPA at Pike: The Mitchell House";"Residential Based Program License";"Pike";6033539102;"Grafton";"'03780";"2275 Mount Moosilauke Highway";;;"Active"
"CCFB-02723";"Kim's Child Care";"Family Based Program License";"Plainfield";6034693637;"Sullivan";"'03781";"308 Stage Road";;;"Active"
"CCRB-06161";"Mountain Valley Treatment Center -Plainfield";"Residential Based Program License";"Plainfield";6033539102;"Sullivan";"'03781";"703 River Road";;;"Active"
"CCFB-06355";"Miss Deb's Playgroup";"Family Based Program License";"Sunapee";6037639929;"Sullivan";"'03782";"268 North Road";;;"Active"
"CCFB-05338";"Slavin's Haven";"Family Based Program License";"Sunapee";6037634251;"Sullivan";"'03782";"57 North Shore Road";;;"Active"
"CCCB-05937";"Twin River Children's Center";"Center Based Program License";"West Lebanon";6032987405;"Grafton";"'03784";"76 Seminary Hill";;;"Active"
"CCCB-04860";"Woodsville Head Start";"Center Based Program License";"Woodsville";6037474186;"Grafton";"'03785";"6 Church Street";;;"Active"
"CCCB-05737";"Discovery Child Enrichment Center";"Center Based Program License";"Portsmouth";6033346336;"Rockingham";"'03801";"30 Rye Street";;;"Active"
"CCCB-01572";"Edgewood Early Learning Centre";"Center Based Program License";"Portsmouth";6037662371;"Rockingham";"'03801";"928 South Street";;;"Active"
"CCCB-06384";"Great Bay Kids' Company - Pease Tradeport";"Center Based Program License";"Portsmouth";6037665437;"Rockingham";"'03801";"81 New Hampshire Avenue";;;"Active"
"CCFB-01672";"Kathleen Tostenson's Family Child Care";"Family Based Program License";"Portsmouth";6034360905;"Rockingham";"'03801";"306 Thornton Street";;;"Active"
"CCCB-05880";"KinderCare Learning Center";"Center Based Program License";"Portsmouth";6034318010;"Rockingham";"'03801";"72 Mirona Road";;;"Active"
"CCCB-04262";"Little Blessings Child Care Center";"Center Based Program License";"Portsmouth";6034311809;"Rockingham";"'03801";"1035 Lafayette Road";;;"Active"
"CCFB-04420";"Place For Friends And Fun";"Family Based Program License";"Portsmouth";6034270275;"Rockingham";"'03801";"400 Coolidge Drive";;;"Active"
"CCCB-00702";"Seacoast Community School";"Center Based Program License";"Portsmouth";6034228223;"Rockingham";"'03801";"100 Campus Drive Suite 20";;;"Active"
"CCCB-06559";"Seacoast Community School - Community School @ Little Harbour";"Center Based Program License";"Portsmouth";6034228223;"Rockingham";"'03801";"34 Van Buren Avenue";;;"Active"
"CCCB-04149";"Seacoast Community School - Dondero Peak";"Center Based Program License";"Portsmouth";6034309771;"Rockingham";"'03801";"32 Van Buren Avenue";;;"Active"
"CCCB-02129";"Seacoast Community School - Little Harbour - PEAK";"Center Based Program License";"Portsmouth";6034228223;"Rockingham";"'03801";"50 Clough Drive";;;"Active"
"CCCB-05709";"Seacoast Community School - New Franklin Peak";"Center Based Program License";"Portsmouth";6034228223;"Rockingham";"'03801";"1 Franklin Street";;;"Active"
"CCCB-06869";"Seacoast Community School at the Meadows";"Center Based Program License";"Portsmouth";6034228223;"Rockingham";"'03801";"40 Wedgewood Road";;;"Active"
"CCCB-01708";"Southern New Hampshire Services - Portsmouth Head Start";"Center Based Program License";"Portsmouth";6034228231;"Rockingham";"'03801";"100 Campus Drive, Suite 22";;;"Active"
"CCRB-01061";"The Chase Home For Children";"Residential Based Program License";"Portsmouth";6034362216;"Rockingham";"'03801";"698 Middle Road";;;"Active"
"CCCB-06648";"The Children's Garden";"Center Based Program License";"Portsmouth";6034316565;"Rockingham";"'03801";"290 Peverly Hill Road";;;"Active"
"CCCB-05827";"The Early Learning Center at Temple Israel";"Center Based Program License";"Portsmouth";6034365301;"Rockingham";"'03801";"200 State Street";;;"Active"
"CCCB-06801";"The Treehouse School of Portsmouth";"Center Based Program License";"Portsmouth";6179971302;"Rockingham";"'03801";"100 State Street";;;"Active"
"CCCB-06932";"Boys & Girls Club of Alton";"Center Based Program License";"Alton";6032241061;"Belknap";"'03809";"41 School Street";;;"Permit Issued"
"CCCB-05702";"Community Church of Alton After School Program";"Center Based Program License";"Alton";6033875856;"Belknap";"'03809";"20 Church Street";;;"Active"
"CCCB-05741";"Community Church of Alton Joyful Footsteps Preschool";"Center Based Program License";"Alton";6038755562;"Belknap";"'03809";"101 Main Street";;;"Active"
"CCCB-05546";"Atkinson Academy School Age Program";"Center Based Program License";"Atkinson";6034898466;"Rockingham";"'03811";"Academy Avenue";;;"Active"
"CCCB-05283";"The Learning Path";"Center Based Program License";"Atkinson";6038934948;"Rockingham";"'03811";"72 Route 111";;;"Active"
"CCCB-06596";"Little Hands, Big Dreams Childcare Center";"Center Based Program License";"Center Conway";6036620131;"Carroll";"'03813";"90 Odell Hill Road";;;"Active"
"CCCB-04257";"Ossipee Concerned Citizens Child Care Center";"Center Based Program License";"Center Ossipee";6035396772;"Carroll";"'03814";"3 Dore Street";;;"Active"
"CCCB-06859";"Kids Corner 205";"Center Based Program License";"Center Tuftonboro";9786973962;"Carroll";"'03816";"205 Middle Road";;;"Active"
"CCCB-01836";"Children Unlimited";"Center Based Program License";"Conway";6034476356;"Carroll";"'03818";"182 West Main Street";;;"Active"
"CCCB-00707";"Conway Head Start";"Center Based Program License";"Conway";6034475161;"Carroll";"'03818";"73 Main Street";;;"Active"
"CCCB-06793";"Explorations for the Young Child";"Center Based Program License";"Conway";6034477047;"Carroll";"'03818";"66 Main Street";;;"Active"
"CCCB-06532";"Small Connections";"Center Based Program License";"Conway";6034473290;"Carroll";"'03818";"149 Pleasant Street";;;"Active"
"CCCB-06973";"Small Steps Child Care Center";"Center Based Program License";"Conway";6939861162;"Carroll";"'03818";"296 East Main Street";;;"Permit Issued"
"CCFB-05168";"Prime Time Daycare";"Family Based Program License";"Danville";6036423603;"Rockingham";"'03819";"40 Hillside Terrace";;;"Active"
"CCCB-05531";"Southern District YMCA School's Out - Danville";"Center Based Program License";"Danville";6036423361;"Rockingham";"'03819";"23 School Street";;;"Active"
"CCCB-02125";"Children In Motion";"Center Based Program License";"Dover";6037433312;"Strafford";"'03820";"274 County Farm Road";;;"Active"
"CCCB-06395";"Cross Road Children's Center";"Center Based Program License";"Dover";6037494278;"Strafford";"'03820";"18 French Cross Road";;;"Active"
"CCCB-06967";"Dover Children's Center";"Center Based Program License";"Dover";6037427637;"Strafford";"'03820";"43 Back River Road";;;"Permit Issued"
"CCRB-01063";"Dover Children's Home";"Residential Based Program License";"Dover";6037424289;"Strafford";"'03820";"207 Locust Street";;;"Active"
"CCCB-05749";"Garrison City Early Childhood Center";"Center Based Program License";"Dover";6033431214;"Strafford";"'03820";"105 and 103 Durham Road";;;"Active"
"CCCB-00550";"Happy Helpers Preschool Educational Center";"Center Based Program License";"Dover";6037423910;"Strafford";"'03820";"6 Heather Lane";;;"Active"
"CCCB-05889";"Honey Hill Child Care";"Center Based Program License";"Dover";6037493144;"Strafford";"'03820";"57 Central Avenue";;;"Active"
"CCCB-06668";"Honey Tree Learning Center";"Center Based Program License";"Dover";6033127975;"Strafford";"'03820";"36 Olive Meadow Lane";;;"Active"
"CCCB-06905";"Kid's Culture";"Center Based Program License";"Dover";;"Strafford";"'03820";"32 St Thomas St - McConnell Center";;;"Active"
"CCCB-02600";"Little Lamb Nursery";"Center Based Program License";"Dover";6037433102;"Strafford";"'03820";"31 Tennyson Avenue";;;"Active"
"CCCB-06821";"Little Tree Education";"Center Based Program License";"Dover";6033435313;"Strafford";"'03820";"383 Sixth Street";;;"Active"
"CCFB-06781";"Lu's Day Care";"Family Based Program License";"Dover";6037422396;"Strafford";"'03820";"7 Tennsyson Avenue";;;"Active"
"CCFB-05835";"Michele Michaud's Child Care";"Family Based Program License";"Dover";6033432467;"Strafford";"'03820";"6 Wallace Drive";;;"Active"
"CCCB-05229";"Miss Patty's Child Care Center";"Center Based Program License";"Dover";6037420329;"Strafford";"'03820";"49 Piscataqua Road";;;"Active"
"CCCB-06597";"My School";"Center Based Program License";"Dover";6037420321;"Strafford";"'03820";"118 Locust Street";;;"Active"
"CCFB-05974";"Our Little Ones";"Family Based Program License";"Dover";6037504162;"Strafford";"'03820";"7 Birch Drive";;;"Active"
"CCFB-06742";"Shenanigans Early Learning";"Family Based Program License";"Dover";6039699790;"Strafford";"'03820";"2 Apache Street";;;"Active"
"CCCB-06923";"SOAR Program at Woodman Park School";"Center Based Program License";"Dover";;"Strafford";"'03820";"11 Towle Ave";;;"Permit Issued"
"CCCB-06203";"Stay and Play Early Learning Center";"Center Based Program License";"Dover";6035160393;"Strafford";"'03820";"9 Nelson Street";;;"Active"
"CCCB-02659";"Strafford County Head Start - Dover Center";"Center Based Program License";"Dover";6037421732;"Strafford";"'03820";"577 Central Avenue Suite 10";;;"Active"
"CCCB-03039";"Wentworth-Douglass Hospital Early Learning Center";"Center Based Program License";"Dover";6037402630;"Strafford";"'03820";"789 1/2 Central Avenue";;;"Active"
"CCCB-01895";"YMCA of Strafford County School's Out Program at Garrison School";"Center Based Program License";"Dover";6033327334;"Strafford";"'03820";"50 Garrison Road";;;"Active"
"CCCB-01735";"YMCA of Strafford County School's Out Program at Horne Street School";"Center Based Program License";"Dover";6039944114;"Strafford";"'03820";"78 Horne Street";;;"Active"
"CCCB-06582";"Little Tree Education Center";"Center Based Program License";"Madbury";6037428733;"Strafford";"'03823";"314 Route 108";;;"Active"
"CCCB-00753";"Growing Places - Woodside";"Center Based Program License";"Durham";6038685674;"Strafford";"'03824";"60 Strafford Avenue";;;"Active"
"CCCB-04279";"Growing Places Our Time School Age Program - Moharimet";"Center Based Program License";"Durham";6039698677;"Strafford";"'03824";"55 Coe Drive";;;"Active"
"CCCB-04574";"Live And Learn At Mastway";"Center Based Program License";"Durham";6032315099;"Strafford";"'03824";"55 Coe Drive";;;"Active"
"CCCB-05262";"UNH Child Study & Development Center";"Center Based Program License";"Durham";6038622835;"Strafford";"'03824";"22 O'Kane Road";;;"Active"
"CCCB-05954";"BVS Family and Child Enrichment";"Center Based Program License";"Barrington";6039059183;"Strafford";"'03825";"45 Commerce Way";;"info@bvsfamilyandchildcare.com";"Active"
"CCFB-06077";"Kidazzle Child Care";"Family Based Program License";"Barrington";6036645449;"Strafford";"'03825";"243 Smoke Street";;;"Active"
"CCCB-06963";"Kids Culture";"Center Based Program License";"Barrington";6039733319;"Strafford";"'03825";"8 Eastern Avenue";;;"Permit Issued"
"CCCB-06107";"Storybook Hollow Early Learning Program";"Center Based Program License";"Barrington";6038335723;"Strafford";"'03825";"41 Commerce Way";;;"Active"
"CCCB-05699";"Way To Grow Preschool";"Center Based Program License";"Barrington";6036642032;"Strafford";"'03825";"1324 Franklin Pierce Highway";;;"Active"
"CCCB-05333";"Beginnings and Beyond";"Center Based Program License";"East Hampstead";6033290124;"Rockingham";"'03826";"320 Sandown Road";;"beginningsandbeyond@hotmail.com";"Active"
"CCCB-04228";"Ma Petite Maison";"Center Based Program License";"East Hampstead";6033780100;"Rockingham";"'03826";"239 East Main Street";;;"Active"
"CCCB-05363";"Mudpies and Make Believe Children's Learning Center";"Center Based Program License";"East Hampstead";6033789310;"Rockingham";"'03826";"266 East Main Street";;;"Active"
"CCCB-06598";"Kid Logic";"Center Based Program License";"East Kingston";6036428000;"Rockingham";"'03827";"14 Powwow River Road";;;"Active"
"CCCB-05920";"Southern District YMCA School's Out -East Kingston";"Center Based Program License";"East Kingston";6036423361;"Rockingham";"'03827";"5 Andrews Lane";;;"Active"
"CCCB-05936";"A Place To Grow";"Center Based Program License";"Exeter";6036791660;"Rockingham";"'03833";"436 Route 125";;;"Active"
"CCCB-05606";"Appleseeds Day School";"Center Based Program License";"Exeter";6037729995;"Rockingham";"'03833";"15 Hampton Road";;;"Active"
"CCFB-04861";"Donna Clarke's Family Day Care";"Family Based Program License";"Exeter";6036792771;"Rockingham";"'03833";"17 Sanborn Way";;;"Active"
"CCCB-00747";"Exeter Day School";"Center Based Program License";"Exeter";6037723342;"Rockingham";"'03833";"11 Marlboro Street";;;"Active"
"CCCB-00746";"Great Bay Kids' Company";"Center Based Program License";"Exeter";6037724132;"Rockingham";"'03833";"64 Epping Road";;;"Active"
"CCCB-04782";"Great Bay Kids' Company";"Center Based Program License";"Exeter";6037724132;"Rockingham";"'03833";"25 Lincoln Street";;;"Active"
"CCCB-05158";"Great Bay Kids' Company - Main Street School Age Program";"Center Based Program License";"Exeter";6037705057;"Rockingham";"'03833";"40 Main Street, Elementary School";;;"Active"
"CCCB-02298";"Harris Family Children's Center - Phillips Exeter Academy";"Center Based Program License";"Exeter";6037773160;"Rockingham";"'03833";"261 Water Street";;;"Active"
"CCCB-06840";"Little Munchkins Learning Center";"Center Based Program License";"Exeter";6035802010;"Rockingham";"'03833";"134 Portsmouth Avenue";;;"Active"
"CCCB-06508";"Southern District YMCA School's Out - ECCA";"Center Based Program License";"Exeter";6036423361;"Rockingham";"'03833";"30 Linden Street";;;"Active"
"CCCB-06603";"Southern District YMCA School's Out - Kensington";"Center Based Program License";"Exeter";6036423361;"Rockingham";"'03833";"122 Amesbury Road";;;"Active"
"CCCB-05654";"YMCA School's Out - Brentwood";"Center Based Program License";"Exeter";6036423361;"Rockingham";"'03833";"355 Middle Road";;;"Active"
"CCFB-06717";"4 Kids Child Care";"Family Based Program License";"Farmington";6038590609;"Strafford";"'03835";"1145 Meaderboro Road";;;"Active"
"CCCB-04798";"Farmington Children's Center";"Center Based Program License";"Farmington";6037552883;"Strafford";"'03835";"120 Main Street";;;"Active"
"CCCB-06885";"Henry Wilson Enrichment Program";"Center Based Program License";"Farmington";;"Strafford";"'03835";"51 School Street";;;"Active"
"CCFB-06904";"Miss Jess' Child Care";"Family Based Program License";"Farmington";2074596809;"Strafford";"'03835";"196 Bay Road";;;"Active"
"CCFB-06637";"Miss Kathie's Childcare";"Family Based Program License";"Farmington";6037553914;"Strafford";"'03835";"12 Pearson Street";;;"Active"
"CCCB-06886";"Valley View Enrichment Program";"Center Based Program License";"Farmington";;"Strafford";"'03835";"79 Thayer Drive";;;"Active"
"CCCB-06660";"BASE";"Center Based Program License";"Gilmanton Iron Works";6036300381;"Belknap";"'03837";"1386 NH Route 140";;;"Active"
"CCFB-06578";"Seeleygang Day Care";"Family Based Program License";"Rochester";6039784450;"Strafford";"'03839";"16 Echo Brook Road";;;"Active"
"CCCB-05850";"Seacoast Community School - Greenland PEAK";"Center Based Program License";"Greenland";6034228223;"Rockingham";"'03840";"70 Post Road";;;"Active"
"CCCB-06769";"YMCA of the Seacoast - Greenland";"Center Based Program License";"Greenland";6034312334;"Rockingham";"'03840";"176 Tuttle Lane";;;"Active"
"CCCB-06868";"Ages and Stages";"Center Based Program License";"Hampstead";6033296122;"Rockingham";"'03841";"499 Main Street";;"director@agesandstageslc.com";"Active"
"CCCB-06433";"Hazel Drive Early Childhood Center";"Center Based Program License";"Hampstead";6033299600;"Rockingham";"'03841";"35 Hazel Drive";;;"Active"
"CCCB-00854";"Stepping Stones School";"Center Based Program License";"Hampstead";6033298215;"Rockingham";"'03841";"61 Main Street";;;"Active"
"CCCB-02128";"YMCA School's Out - Hampstead";"Center Based Program License";"Hampstead";6036423361;"Rockingham";"'03841";"21 Emerson Avenue";;;"Active"
"CCCB-04229";"Fun After School Program";"Center Based Program License";"Hampton";6039294466;"Rockingham";"'03842";"40 Stickney Terrace";;;"Active"
"CCCB-04539";"Hampton Child & Family Program - Village Preschool";"Center Based Program License";"Hampton";6039297349;"Rockingham";"'03842";"200 High Street";;;"Active"
"CCRB-06889";"MPA at Hampton";"Residential Based Program License";"Hampton";6035361102;"Rockingham";"'03842";"30 Winnacunnet Road";;;"Active"
"CCCB-03048";"Southern District YMCA School's Out - Marston School";"Center Based Program License";"Hampton";6036423361;"Rockingham";"'03842";"4 Marston Way";;;"Active"
"CCCB-04569";"Southern New Hampshire Services - Hampton Head Start";"Center Based Program License";"Hampton";6036012196;"Rockingham";"'03842";"53 Winnacunnet Road";;;"Active"
"CCCB-03062";"Robin's Childs Place";"Center Based Program License";"Hampton Falls";6039291976;"Rockingham";"'03844";"105 Lafayette Road";;;"Active"
"CCCB-06968";"Carriage Towne Kids";"Center Based Program License";"Kingston";6032443900;"Rockingham";"'03848";"43 Church Street Unit B";;;"Permit Issued"
"CCCB-00791";"Kingston Children's Center";"Center Based Program License";"Kingston";6036423200;"Rockingham";"'03848";"12 Church Street";;;"Active"
"CCCB-04853";"Southern District YMCA School's Out - Kingston";"Center Based Program License";"Kingston";6036423361;"Rockingham";"'03848";"179 Main Street";;;"Active"
"CCFB-05776";"Family Child Care Of Madison";"Family Based Program License";"Madison";6033679094;"Carroll";"'03849";"571 East Madison Road";;;"Active"
"CCCB-00896";"Madison Preschool";"Center Based Program License";"Madison";6033674614;"Carroll";"'03849";"53 Conway Road";;;"Active"
"CCCB-00913";"Milton Learning Center";"Center Based Program License";"Milton";6036529337;"Strafford";"'03851";"62 Dawson Street";;;"Active"
"CCFB-06943";"Wild Wood Day Care";"Family Based Program License";"Milton Mills";;"Strafford";"'03852";"37 Main Street";;;"Permit Issued"
"CCCB-06664";"Being Cool - After School and Preschool";"Center Based Program License";"New Durham";6037012105;"Strafford";"'03855";"7 Depot Road";;;"Active"
"CCFB-05720";"Celeste Chasse' Child Care";"Family Based Program License";"New Durham";6038593666;"Strafford";"'03855";"33 Ham Street";;;"Active"
"CCCB-06171";"Great Bay Kids' Company - Newfields School Age Program";"Center Based Program License";"Newfields";6036866005;"Rockingham";"'03856";"9 Pisassic Road";;;"Active"
"CCCB-04882";"Nurture And Nature Children's Center";"Center Based Program License";"Newfields";6037723811;"Rockingham";"'03856";"171 Exeter Road";;;"Active"
"CCCB-00607";"Great Bay Kids' Company";"Center Based Program License";"Newmarket";6036592324;"Rockingham";"'03857";"3 Simons Lane";;;"Active"
"CCCB-05735";"Newton Learning Center";"Center Based Program License";"Newton";6033823333;"Rockingham";"'03858";"31 South Main Street";;;"Active"
"CCCB-06083";"YMCA School's Out - Newton";"Center Based Program License";"Newton";6036423361;"Rockingham";"'03858";"31 West Main Street";;;"Active"
"CCCB-05658";"Lilliputian Montessori School";"Center Based Program License";"North Conway";6033564464;"Carroll";"'03860";"65 Seavey Street";;;"Active"
"CCCB-06953";"The Children's Path, LLC";"Center Based Program License";"North Conway";6037302496;"Carroll";"'03860";"3470 White Mountain Highway";;;"Permit Issued"
"CCCB-05971";"Imprints Day School";"Center Based Program License";"North Hampton";6033798015;"Rockingham";"'03862";"2 Lafayette Road";;;"Active"
"CCCB-06635";"Cornerstone Christian Academy";"Center Based Program License";"Ossipee";6032398636;"Carroll";"'03864";"129 Route 28 Mountainside";;;"Active"
"CCCB-00566";"Holy Angels Preschool and Kindergarten";"Center Based Program License";"Plaistow";6033829783;"Rockingham";"'03865";"8 Atkinson Depot Road";;;"Active"
"CCCB-05569";"Little Explorers Learning Center";"Center Based Program License";"Plaistow";6033823699;"Rockingham";"'03865";"3 Blossom Road";;;"Active"
"CCCB-06628";"Plaistow Community YMCA Early Education Center";"Center Based Program License";"Plaistow";6033820641;"Rockingham";"'03865";"175 Plaistow Road";;;"Active"
"CCCB-05463";"Plaistow Learning Center";"Center Based Program License";"Plaistow";6033824500;"Rockingham";"'03865";"95 Plaistow Road";;;"Active"
"CCCB-06765";"YMCA @ Pollard School";"Center Based Program License";"Plaistow";9787662346;"Rockingham";"'03865";"120 Main Street";;;"Active"
"CCCB-05571";"Blue Skies & Rainbows";"Family Based Program License";"Rochester";6033329695;"Strafford";"'03867";"65 Summer Street";;;"Active"
"CCCB-02769";"Emmanuel Child Care Center";"Center Based Program License";"Rochester";6033325353;"Strafford";"'03867";"63 Eastern Avenue";;;"Active"
"CCCB-06827";"Jack and Jill School";"Center Based Program License";"Rochester";6033323177;"Strafford";"'03867";"56 Whitehall Road";;;"Active"
"CCFB-04466";"Joyful Garden";"Family Based Program License";"Rochester";6033352256;"Strafford";"'03867";"19 Thomas Street";;;"Active"
"CCFB-04153";"Marion's Day Care";"Family Based Program License";"Rochester";6033353266;"Strafford";"'03867";"3 Hobart Street";;;"Active"
"CCFB-05745";"Melissa's Munchkin Land";"Family Based Program License";"Rochester";6033358691;"Strafford";"'03867";"14 Washington Street";;;"Active"
"CCCB-01008";"Rochester Child Care Center";"Center Based Program License";"Rochester";6033329333;"Strafford";"'03867";"95 Charles Street";;;"Active"
"CCCB-04272";"Rochester Child Care Center Allen School ""UP"" Program";"Center Based Program License";"Rochester";6033329333;"Strafford";"'03867";"23 Granite Street";;;"Active"
"CCCB-04400";"Rochester Child Care Center Chamberlain School ""UP"" Program";"Center Based Program License";"Rochester";6032760094;"Strafford";"'03867";"65 Chamberlain Street";;;"Active"
"CCCB-04766";"Rochester Child Care Center Gonic School ""UP"" Program";"Center Based Program License";"Rochester";6038663431;"Strafford";"'03867";"10 Railroad Avenue";;;"Active"
"CCCB-04524";"Rochester Child Care Center McClelland School ""UP"" Program";"Center Based Program License";"Rochester";6032760097;"Strafford";"'03867";"59 Brock Street";;;"Active"
"CCCB-06679";"Rochester Child Care Center Middle School ""UP"" Program";"Center Based Program License";"Rochester";6033329333;"Strafford";"'03867";"47 Brock Street";;;"Active"
"CCCB-06709";"Rochester Child Care Center School Street School ""UP"" Program";"Center Based Program License";"Rochester";6033329333;"Strafford";"'03867";"13 School Street";;;"Active"
"CCCB-06549";"Rochester Child Care Center-Maple Street School ""UP"" Program";"Center Based Program License";"Rochester";6033329333;"Strafford";"'03867";"27 Maple Street";;;"Active"
"CCCB-03040";"St. Leo Catholic Children's Center";"Center Based Program License";"Rochester";6033329840;"Strafford";"'03867";"32 Pickering Road";;;"Active"
"CCCB-01690";"Strafford County Head Start - Rochester Center";"Center Based Program License";"Rochester";6032859461;"Strafford";"'03867";"150 Wakefield Street";;;"Active"
"CCCB-05649";"Strafford YMCA Early Learning Center and SOP";"Center Based Program License";"Rochester";6033327334;"Strafford";"'03867";"35 Industrial Way, Suite 106";;;"Active"
"CCCB-04525";"Rochester Child Care Center East Rochester School ""UP"" Program";"Center Based Program License";"Rochester";6033329333;"Strafford";"'03868";"773 Portland Street";;;"Active"
"CCCB-06564";"Rochester Child Care Center Nancy Loud School ""UP"" Program";"Center Based Program License";"Rochester";6033329333;"Strafford";"'03868";"5 Cocheco Avenue";;;"Active"
"CCCB-04628";"Fun Time University";"Center Based Program License";"Rollinsford";6037434562;"Strafford";"'03869";"Rollinsford Grade School 487 Locust St.";;;"Active"
"CCCB-03049";"Rye Country Day School";"Center Based Program License";"Rye";6039644066;"Rockingham";"'03870";"1245 Washington Road";;;"Active"
"CCCB-00952";"Hazel MacBrien Nursery School";"Center Based Program License";"Sanbornville";6035226860;"Carroll";"'03872";"2718 Wakefield Road";;;"Active"
"CCCB-06696";"Learning With Love";"Center Based Program License";"Sanbornville";6034987157;"Carroll";"'03872";"16 Windy Hollow Road";;;"Active"
"CCCB-05479";"Pine River Pond Country Daycare";"Center Based Program License";"Sanbornville";6035229206;"Carroll";"'03872";"556 Pine River Pond Road";;;"Active"
"CCCB-06830";"Wakefield Child Care Early Learning Center";"Center Based Program License";"Sanbornville";6035203366;"Carroll";"'03872";"26 High Street";;;"Active"
"CCCB-02316";"Playmates Learning Center";"Center Based Program License";"Sandown";6038873128;"Rockingham";"'03873";"56 North Road";;;"Active"
"CCCB-06917";"YMCA @ Sandown Before and After School Program";"Center Based Program License";"Sandown";6033820641;"Rockingham";"'03873";"295 Main Street";;;"Permit Issued"
"CCCB-06951";"YMCA Before and After School @ Sandown North";"Center Based Program License";"Sandown";6032571541;"Rockingham";"'03873";"23 Stagecoach Road";;;"Permit Issued"
"CCFB-06548";"Miss Beth's Family Day Care";"Family Based Program License";"Seabrook";6034747990;"Rockingham";"'03874";"49 Belgian Drive";;;"Active"
"CCCB-04447";"Southern District YMCA School's Out - Seabrook";"Center Based Program License";"Seabrook";6036423361;"Rockingham";"'03874";"256 Walton Road";;;"Active"
"CCCB-06770";"Southern New Hampshire Services Seabrook Head Start";"Center Based Program License";"Seabrook";6034743507;"Rockingham";"'03874";"146 Lafayette Road";;;"Active"
"CCCB-06682";"Kid's Culture";"Center Based Program License";"Somersworth";6033375217;"Strafford";"'03878";"233 Rte 108";;;"Active"
"CCCB-06737";"Little Steps Early Learning Center";"Center Based Program License";"Somersworth";6036921845;"Strafford";"'03878";"7 Works Way";;;"Active"
"CCCB-06872";"Somersworth Early Learning Center";"Center Based Program License";"Somersworth";6036922081;"Strafford";"'03878";"35 Bartlett Avenue";;"dcollins@somersworthelc.org";"Active"
"CCCB-04308";"Strafford County Head Start - Somersworth Center";"Center Based Program License";"Somersworth";6038175458;"Strafford";"'03878";"43 Stackpole Rd.";;;"Active"
"CCCB-06041";"Wentworth Douglass Hospital Early Learning @ The Works";"Center Based Program License";"Somersworth";6037402675;"Strafford";"'03878";"23 Works Way";;;"Active"
"CCFB-05064";"JJ's Playland";"Family Based Program License";"Effingham";6035397922;"Carroll";"'03882";"846 Green Mountain Road";;;"Active"
"CCCB-06651";"Strafford Kinder Campus @ Strafford School";"Center Based Program License";"Strafford";6036649025;"Strafford";"'03884";"22 Roller Coaster Road";;;"Active"
"CCCB-06200";"Whitehouse Early Learning Center";"Center Based Program License";"Strafford";6036645025;"Strafford";"'03884";"352 Province Road";;;"Active"
"CCCB-02171";"Acorn School";"Center Based Program License";"Stratham";6037788285;"Rockingham";"'03885";"136 Winnicutt Road";;;"Active"
"CCCB-05444";"Bright Horizons at Timberland";"Center Based Program License";"Stratham";6037731260;"Rockingham";"'03885";"200 Domain Drive";;;"Active"
"CCCB-06665";"Little Sprouts";"Center Based Program License";"Stratham";6033194280;"Rockingham";"'03885";"One Portsmouth Avenue";;;"Active"
"CCCB-01668";"Richie McFarland Children's Center";"Center Based Program License";"Stratham";6037788193;"Rockingham";"'03885";"11 Sandy Point Road";;;"Active"
"CCCB-04259";"Southern District YMCA School's Out - Stratham";"Center Based Program License";"Stratham";6036423361;"Rockingham";"'03885";"39 Gifford Farm Road";;;"Active"
"CCCB-06000";"Stratham Circle Learning Center";"Center Based Program License";"Stratham";6037750311;"Rockingham";"'03885";"6 Emery Lane";;;"Active"
"CCCB-00872";"Bearcamp Valley School & Childrens Center";"Center Based Program License";"Tamworth";6033238300;"Carroll";"'03886";"27 Durrell Road";;;"Active"
"CCCB-05226";"Community Kids: Preschool And Child Care";"Center Based Program License";"Tamworth";6033238841;"Carroll";"'03886";"784 Tamworth Road";;;"Active"
"CCCB-00619";"Tamworth Area Head Start";"Center Based Program License";"Tamworth";6033230201;"Carroll";"'03886";"448 White Mountain Highway";;;"Active"
"CCFB-05994";"Country Kids Daycare";"Family Based Program License";"Union";6037553225;"Carroll";"'03887";"24 Silver Street";;;"Active"
"CCCB-06599";"Magic Moments Preschool";"Center Based Program License";"Wolfeboro";6035694362;"Carroll";"'03894";"396 South Main Street";;;"Active"
"CCCB-00977";"Wolfeboro Area Children's Center";"Center Based Program License";"Wolfeboro";6035691027;"Carroll";"'03894";"180 South Main Street";;;"Active"
"CCCB-01014";"Wolfeboro Cooperative Nursery School";"Center Based Program License";"Wolfeboro";6035151075;"Carroll";"'03894";"258 South Main Street";;;"Active"
