"id";"name";"address";"city";"state";"zip";"county";"phone";"main url";"email";"details";"location website";"facebook page";"career/employment url";"application/registration url";"parent handbook url";"infant (under 12 months)";"toddler (1-2yrs)";"preschools (2-3yrs)";"pre-kindergarden(4yr)";"before/afterschools";"camps";"logo url";"monday hour";"tuesday hour";"wednesday hour";"thursday hour";"friday hours";"saturday hour";"sunday hour";"notes"
1173821;"LEARN & PLAY CHILD CARE, LLC";"304 E IRON ST";"BESSEMER";"MI";49911;"GOGEBIC";"(906)667-5025";;;"Accepts children ages 6 weeks to 12 years.  School bussing to and from the center.";;"https://www.facebook.com/Learn-Play-Child-Care-LLC-1393789710646019/";;;;"x";"x";"x";"x";;;"https://scontent.fskp2-1.fna.fbcdn.net/v/t1.0-9/14907603_1393825537309103_7819729601657152289_n.jpg?_nc_cat=0&oh=2d56893fd72bb5c34c9df41c5f5374e8&oe=5B7D293A";"5:30AM - 5:30PM";"5:30AM - 5:30PM";"5:30AM - 5:30PM";"5:30AM - 5:30PM";"5:30AM - 5:30PM";"Closed";"Closed";
1173824;"BHK HOUGHTON ELEMENTARY";"203 W JACKER AVE.";"HOUGHTON";"MI";49931;"HOUGHTON";"(906)482-0456";"http://bhkfirst.org";"bhk@bhkfirst.org";"Rooted in community, BHK is the visionary leader maximizing potential and inspiring growth.";"http://bhkfirst.org/about-locations.php";;"https://www.facebook.com/BHKChildDevelopment/?ref=page_internal";"http://bhkfirst.org/about-enrollment.php";"http://bhkfirst.org/parent-handbooks.php";"z";"z";"z";"z";;;"http://bhkfirst.org/images/logo-main.png";;;;;;;;
1173843;"Mini Maestros Creative  Learning Academy";"2912 East Gallatin Street";"Burlington";"KY";41005;"BOONE";"(859)689-7529";;;"""Where learning is an art."" Focusing on Music, art, and foreign language. Organic meals served, small school, more individualized attention for your child.";;"https://www.facebook.com/Mini-Maestros-Creative-Learning-Academy-294810617528108/";;;;;;;;;;"https://scontent.fskp2-1.fna.fbcdn.net/v/t31.0-8/13731910_294813374194499_8340633028979372577_o.jpg?_nc_cat=0&oh=1dec207f30177b43df8f6eccde676686&oe=5B9C1D52";;;;;;;;
1173844;"Children, Inc. Extended  Education at Kelly  Elementary";"6775 Mcvillle Rd.";"Burlington";"KY";41005;"BOONE";"(859)431-2075";"http://www.childreninc.org/";"rbricking@childreninc.org";"At Children, Inc. we have a true and sincere passion for the welfare and development of children and we aim to live out this passion through each and every one of our programs for infants to kindergarten age children.";"http://www.childreninc.org/our-programs/extended-education/";"https://www.facebook.com/childrenincky/";"http://www.childreninc.org/employment-opportunities/";"http://www.childreninc.org/enrollment-form/";;"x";"x";"x";"x";"x";;"http://www.childreninc.org/wp-content/themes/childreninc/images/children-inc-logo.svg";"9AM - 5PM";"9AM - 5PM";"9AM - 5PM";"9AM - 5PM";"9AM - 5PM";"Closed";"Closed";
1173845;"Children, Inc. Early  Learning Center at Yealey  Elementary";"10 Yealey Drive";"Florence";"KY";41042;"BOONE";"(859)431-2075";"http://www.childreninc.org/";"rbricking@childreninc.org";"At Children, Inc. we have a true and sincere passion for the welfare and development of children and we aim to live out this passion through each and every one of our programs for infants to kindergarten age children.";"http://www.childreninc.org/our-locations/in-school-preschools/early-learning-center-yealey-elementary/";"https://www.facebook.com/childrenincky/";"http://www.childreninc.org/employment-opportunities/";"http://www.childreninc.org/enrollment-form/";;"x";"x";"x";"x";"x";;"http://www.childreninc.org/wp-content/themes/childreninc/images/children-inc-logo.svg";"9AM - 5PM";"9AM - 5PM";"9AM - 5PM";"9AM - 5PM";"9AM - 5PM";"Closed";"Closed";
1173846;"Kelly Elementary  Afterschool Program";"6775 Mcville Rd.";"Burlington";"KY";41005;"BOONE";"(859)431-2075";"https://kelly.schoolloop.com/";"Rachel@CarlsbadEd.org";"For 21 years, the Carlsbad Educational Foundation has delivered high quality, licensed childcare for students at Carlsbad’s nine elementary schools. This program currently cares for more than 600 students and is known throughout Carlsbad for its experienced childcare staff, varied enrichment offerings and convenient, on-site locations.";"https://kelly.schoolloop.com/cms/page_view?d=x&piid=&vpid=1498554484997";;;"https://www.carlsbaded.org/elementary-kids-care-child-care/register/";;;;"x";"x";;;"https://kelly.schoolloop.com/uimg/image/1218238804951/1377670361858/1424591916049.jpg";"8:30AM - 5PM";"8:30AM - 5PM";"8:30AM - 5PM";"8:30AM - 5PM";"8:30AM - 5PM";"Closed";"Closed";
1173848;"Immanuel Kids Day Out  Preschool";"1440 Boone Aire Rd.";"Florence";"KY";41042;"BOONE";"(859)525-2307";"https://immanuelumc.org/";"ajamison@immanuelumc.org";"The purpose of the Immanuel Preschools (Sonshine Preschool and Kids Day Out Preschool) is to provide educational and creative opportunities for children in order to accomplish growth spiritually, intellectually, socially, and physically.  We accomplish this by providing competent, certified, and engaged adults who interact with children daily, supporting their cognitive, language, physical, social, and emotional growth through engaging materials, activities, and positive adult-child interactions through a daily routine.";"https://immanuelumc.org/ministries/preschools";;;"https://static1.squarespace.com/static/57b1a2453e00be9be5f336d0/t/5a4e74e8419202af0835fbb6/1515091177808/2018-2019Registration+Form.pdf";"https://static1.squarespace.com/static/57b1a2453e00be9be5f336d0/t/5a5fab740d92977380fbee5c/1516219253081/Information+Packet.pdf";;;"x";"x";;;"https://static1.squarespace.com/static/57b1a2453e00be9be5f336d0/t/58ab23875016e11d7e684f4d/1487610773441/?format=1000w";"9:30AM - 1:30PM";"9:30AM - 1:30PM";"9:30AM - 1:30PM";"9:30AM - 1:30PM";"9:30AM - 1:30PM";"Closed";"Closed";
1173841;"Watch Me Grow Learning  Center";"219 Reynolds Road";"Glasgow";"KY";42141;"BARREN";"(270)590-0571";;"watchmegrowlearningcenter219@gmail.com";"Watch Me Grow Learning Centers goal is to provide a safe environment for your child that offers physical, social, emotional, and cognitive development.";;"https://www.facebook.com/watchmegrowlearningcenter219/";;;;"x";"x";"x";;;;"https://scontent.fskp2-1.fna.fbcdn.net/v/t1.0-1/p200x200/13906833_1843719682522627_1567250178202035769_n.jpg?_nc_cat=0&oh=18510f2044e4d64e65d8ab7111835571&oe=5B7DCEA9";"6AM - 6PM";"6AM - 6PM";"6AM - 6PM";"6AM - 6PM";"6AM - 6PM";"Closed";"Closed";
1173842;"YMCA Mustang Corral";"215 Parkview Drive";"Glasgow";"KY";42141;"BARREN";"(270)651-9622";"http://www.barren.kyschools.us/";" janet.harp@barren.kyschools.us";"Welcome back to another great year with the Mustang Corral at Red Cross Elementary!  We look forward to providing you with a safe and fun environment for your child to stay in when school is over. ";"http://www.barren.kyschools.us/8/Content/762";;;;;;;"x";"x";;;;"2:30PM - 5:30PM";"2:30PM - 5:30PM";"2:30PM - 5:30PM";"2:30PM - 5:30PM";"2:30PM - 5:30PM";"Closed";"Closed";
1173847;"Little Hands Big Hearts  Childcare Center";"8025 Dream Street";"Florence";"KY";41042;"BOONE";"(859)282-6777";;;;;;;;;;;;;;;;;;;;;;;
1173850;"Little Wonders Child Care";"189 Ballpark Road";"Hardinsburg";"KY";40143;"BRECKINRIDGE";"(270)756-5800";;"little.wonders.hardinsburg@gmail.com";"Child Care - ages newborn - 4 years old";;"https://www.facebook.com/Little-Wonders-Child-Care-LLC-711118095657244/";;;;"x";"x";"x";"x";;;"https://scontent.fskp2-1.fna.fbcdn.net/v/t31.0-8/11259433_711133848989002_7275289281491804303_o.jpg?_nc_cat=0&oh=e4667a09f13b5de321a787d0e471c208&oe=5B83261D";"6:30AM - 5PM";"6:30AM - 5PM";"6:30AM - 5PM";"6:30AM - 5PM";"6:30AM - 5PM";"Closed";"Closed";
1173851;"Roby Head Start";"1148 Highway 44 East Ora Roby Elementary";"Shepherdsville";"KY";40165;"BULLITT";"(502)869-7200";"http://www.bullitt.k12.ky.us/21/Home";"tonya.hill@bullitt.kyschools.";"To educate all students so that they learn and develop at the highest level as measured on state and national assessments. We commit to implementing best practices to ensure success.";"http://www.bullitt.k12.ky.us/21/Home";"https://www.facebook.com/Roby-Elementary-School-128871353860708/";"https://bullittky.tedk12.com/hire/index.aspx";;"http://www.bullitt.k12.ky.us/21/content/student-handbook";;;"x";"x";;;;"9:10AM - 3:45PM";"9:10AM - 3:45PM";"9:10AM - 3:45PM";"9:10AM - 3:45PM";"9:10AM - 3:45PM";"Closed";"Closed";
1173852;"Crossroads Head Start";"156 Erin Circle Crossroads Elementary";"Mt. Washington";"KY";40047;"Bullitt";"(502)869-7400";"http://www.bullittschools.org/12/Home";;"CES Is dedicated to inspiring a community of passionate learners and leaders by setting goals and providing opportunities for success.";"http://www.bullittschools.org/12/Home";"https://www.facebook.com/pages/Crossroads-Elementary-School/218058254901009";;;"http://www.bullittschools.org/userfiles/52/my%20files/2016-2017%20code%20of%20student%20behavior%20and%20discipline%20handbook.pdf?id=561046";;;"x";"x";;;;"9AM - 3:40PM";"9AM - 3:40PM";"9AM - 3:40PM";"9AM - 3:40PM";"9AM - 3:40PM";"Closed";"Closed";
1173853;"Little Sweetheart's Child  Development Center";"9877 Hwy 44 East Mt.";"Washington";"KY";40047;"Bullitt";"(502)904-9139";;"littlesweetheartscdc@gmail.com";"Excellent child care at affordable rates. We are committed to building strong minds, hearts, bodies and community.";;"Little Sweetheart's Child  Development Center";;;;;;;;;;"https://scontent.fskp2-1.fna.fbcdn.net/v/t1.0-9/13692487_198600153875599_4845649873903898812_n.jpg?_nc_cat=0&oh=46848f135805bd985870f55d83d400f5&oe=5B531962";"6AM - 6PM";"6AM - 6PM";"6AM - 6PM";"6AM - 6PM";"6AM - 6PM";"Closed";"Closed";"Will be closed 8Jun18"
1173854;"North Butler Head Start";"5539 Brownsville Rd.";"Morgantown";"KY";42261;"BUTLER";"(270)782-3162";"http://www.butlerschools.net/4/Home";"nbes.pto@butler.kyschools.us";"Another way you can interact with the Mighty North Butler Cubs";"http://www.butlerschools.net/4/Home";"https://www.facebook.com/northbutlerelementaryschool/";"http://www.butlerschools.net/Employment";"http://www.butlerschools.net/docs/district/enrollment%20form%202017-18.pdf?id=10751";"http://www.butlerschools.net/docs/district/fy%2018%20substitute%20handbook.pdf?id=10749";;;"x";"x";;;"https://scontent.fskp2-1.fna.fbcdn.net/v/t1.0-1/p200x200/30707036_1940017786069393_3608644162187952128_n.jpg?_nc_cat=0&oh=d530b15748778e4f2ebb6a1ac410aff8&oe=5B9B31F1";;;;;;;;
1173855;"Kidz Korner Learning  Center";"4185 Wiswell Road";"Murray";"KY";42071;"CALLOWAY";"(270)753-3289";;"kidzkorner2016@gmail.com";"The mission of Kidz Korner is to connect children to the love of Christ through nurturing them in a faith based program. To provide a safe and fun learning environment for all children to learn at their own rate; social, emotional, cognitive, physical and spiritual. To teach children about letters, colors, shapes, and numbers through art, music and play. To teach bible stories, the ten commandments, as well as the fruit of the spirit and others.";;"https://www.facebook.com/KidzKornerSept.2016/";;;;"x";"x";"x";;;;"https://scontent.fskp2-1.fna.fbcdn.net/v/t1.0-9/31195640_2470866489597555_6851584941591887872_o.jpg?_nc_cat=0&oh=07261b280e39d8af05ebbbca7a6463b4&oe=5B89C508";"6AM - 5:30PM";"6AM - 5:30PM";"6AM - 5:30PM";"6AM - 5:30PM";"6AM - 5:30PM";"Closed";"Closed";
1173849;"Room To Grow Early  Learning Center";"34 W. 20Th Street";"Paris";"KY";40361;"BOURBON";"(859)987-9997";;;;;"https://www.facebook.com/pages/Room-to-Grow-Learning-Ctr/166963419982057";;;;;;;;;;"https://scontent.fskp2-1.fna.fbcdn.net/v/t1.0-1/p160x160/10410292_10204152423628876_5391635265441548617_n.jpg?_nc_cat=0&oh=3be6fd72f72dda12f0fc3f450154671b&oe=5B87B9D7";;;;;;;;
1173860;"Auntie's Academy, LLC";"19 Wainscott Avenue";"Winchester";"KY";40391;"CLARK";"(859)644-5147";"http://auntiesacademy.com/";" Admin@auntiesacademy.com";"Our program is designed to guide the development of each child socially, emotionally, physically, intellectually, as well as spiritually.";"http://auntiesacademy.com/";"https://www.facebook.com/AuntiesAcademy/";;"http://auntiesacademy.com/how-to-apply/";;"x";"x";"x";"x";;;"https://scontent.fskp2-1.fna.fbcdn.net/v/t1.0-1/c24.0.200.200/p200x200/13529005_1813216462248435_3233031928829791326_n.jpg?_nc_cat=0&oh=6548da3fe588d065e225695f9329d22b&oe=5B9CB383";"6:30AM - 6:30PM";"6:30AM - 6:30PM";"6:30AM - 6:30PM";"6:30AM - 6:30PM";"6:30AM - 6:30PM";"Closed";"Closed";
1173859;"Jones Park Early Head ";"6295 E. Ky 70 Rm. #155";"Liberty";"KY";42539;"CASEY";"(606)787-1249";"http://www.casey.kyschools.us/school_home.aspx?schoolid=13";;"Jones Park Elementary provides a safe, positive and supportive learning environment so that all students reach their greatest potential!";"http://www.casey.kyschools.us/Administration/26";"https://www.facebook.com/Jones-Park-Elementary-114776078598478/";"http://www.casey.kyschools.us/Employment";"http://www.casey.kyschools.us/docs/district/depts/26/early_enrollment.pdf?id=3073";;;;"x";"x";;;"https://scontent.fskp2-1.fna.fbcdn.net/v/t1.0-1/c114.33.412.412/s200x200/189217_114976008578485_800175_n.jpg?_nc_cat=0&oh=8dce01c9a4925127a102c2ec0d59b3d3&oe=5B50101D";;;;;;;;
1173858;"Dunnville Childcare and  Early Learning Center";"11000 S. Hwy 127";"Dunnville";"KY";42528;"CASEY";"(606)787-0138";"http://www.dunnvillechristian.org/";"heather@dunnvillechristian.org";"Dunnville Childcare and Early Learning Center’s goal is to love, encourage, enrich, and educate children and families in a safe, Christian environment.";"http://www.dunnvillechristian.org/dcelc/";"https://www.facebook.com/dunnvillechildcare/";"http://www.dunnvillechristian.org/hp_wordpress/wp-content/uploads/2018/03/Employee-Application-1.pdf";"http://www.dunnvillechristian.org/hp_wordpress/wp-content/uploads/2018/03/Child-Application.pdf";;"x";"x";"x";;;;"http://www.dunnvillechristian.org/hp_wordpress/wp-content/uploads/2017/12/dcelc.png";"6:30AM - 5:30PM";"6:30AM - 5:30PM";"6:30AM - 5:30PM";"6:30AM - 5:30PM";"6:30AM - 5:30PM";"Closed";"Closed";
1173856;"Carroll County Child  Development Center";"1706 Highland Avenue";"Carrollton";"KY";41008;"CARROLL";"(502)732-7016";"http://www.carroll.kyschools.us/";;"A Champion for Tots!  Early Head Start/Head Start, KY Preschool and Home Based Nurturers located in Carrollton, KY";"http://www.carroll.kyschools.us/Content2/2640";"https://www.facebook.com/Carroll-County-Child-Development-Center-384553771728966/";"http://www.carroll.kyschools.us/content_page.aspx?cid=2794";;;;"x";"x";"x";;;"http://www.carroll.kyschools.us/userfiles/262/CCEHS%20logo.jpg";;;;;;;;
1173857;"Wee Warriors Early  Learning Center of Carter  Christian Academy";"3547 Hwy 773";"Hitchins";"KY";41146;"CARTER";"(606)475-1919";"https://www.carterchristianacademy.org/";"carterchristianacademy@ymail.com";"A Beka Book—comprehensive, quality curriculum and materials written from a Christian perspective. Now more than ever, each child needs a strong foundation in both academics and character; this curriculum gives students the knowledge and skills they need.";"https://www.carterchristianacademy.org/preschool";"https://www.facebook.com/carterchristianacademy/";;;;;"x";"x";"x";;;"https://static.wixstatic.com/media/773186_f6b9a0d3c7e1449281e38e590ad5ed3a.jpg/v1/crop/x_0,y_0,w_783,h_1038/fill/w_120,h_160,al_c,q_80,usm_0.66_1.00_0.01/773186_f6b9a0d3c7e1449281e38e590ad5ed3a.webp";"7:15AM - 5:30PM";"7:15AM - 5:30PM";"7:15AM - 5:30PM";"7:15AM - 5:30PM";"7:15AM - 5:30PM";"Closed";"Closed";
1173861;"Mig's Place";"5693 Ky Hwy 90 W";"Albany";"KY";42602;"CLINTON";"(606)387-5228";;;"Mig's Place is a licensed child care provider in Albany, Kentucky.";;"https://www.facebook.com/MigsPlaceChildCareCenter/";;;;;;;;;;"https://scontent.fskp2-1.fna.fbcdn.net/v/t1.0-9/13686670_1032622293452784_1492046767050270075_n.jpg?_nc_cat=0&oh=f3d7067327c6333655bd387c841c7daa&oe=5B82A317";;;;;;;;
1173865;"Fayette County Public  Schools - Yates  Elementary";"695 East New Circle Road";"Lexington";"KY";40505;"FAYETTE";"(859)381-3613";"https://www.fcps.net/";"yatespta@aol.com";"The Mission of Yates Elementary is to provide a safe, diverse and caring community that emphasizes the social, emotional, physical and intellectual development of each child.";"https://www.fcps.net/yates";"https://www.facebook.com/Yates-Elementary-PTA-388054407963942/timeline/";"https://www.fcps.net/domain/167";"https://www.fcps.net/site/Default.aspx?PageID=5423";;;;"x";"x";;;"https://www.fcps.net/cms/lib/KY01807169/Centricity/Template/GlobalAssets/images///logos/YATES-LOGO.png";;;;;;;;
1173863;"Allisons Wonderland LLC";"3101 Richmond Road Suite 301";"Lexington";"KY";40509;"FAYETTE";"(859)523-3750";;"allisonswonderland2014@gmail.com";"Professional in childcare. We offer professional services with lots of love reflective of the love God shines on us every day.";;"https://www.facebook.com/allisonswonderland2014/";;;;"x";"x";"x";;;;;;;;;;;;
1173864;"Wellington Elementary  Compass Zone  Afterschool Program";"3280 Keithshire Way";"Lexington";"KY";40503;"FAYETTE";"(859)381-3000";"https://www.fcps.net/";;"Our mission is to create a collaborative community that ensures all students achieve at high levels and graduate prepared to excel in a global society.";"https://www.fcps.net/domain/9038";;;"https://www.fcps.net/cms/lib/KY01807169/Centricity/Domain/41/CZ.pdf";"https://www.fcps.net/cms/lib/KY01807169/Centricity/Domain/41/CZ%20Compass%20Zone%20complete%20handbook1.pdf";;;"x";"x";;;"https://www.fcps.net/cms/lib/KY01807169/Centricity/Template/GlobalAssets/images///logos/WELLINGTON-LOGO.jpg";;;;;;;;
1173862;"Puddle Jumpers Learning  Center, LLC";"1940 Cambridge Drive";"Lexington";"KY";40504;"FAYETTE";"(859)469-8655";;;"The mission of Puddle Jumpers is to provide parents with high quality childcare for a very affordable price.";;"https://www.facebook.com/Puddle-Jumpers-1668642520118142/?rf=906026469504735";;;;"x";"x";"x";;;;"https://scontent.fskp2-1.fna.fbcdn.net/v/t1.0-1/p200x200/14141616_1668643476784713_6190324647515475364_n.jpg?_nc_cat=0&oh=8e14c4d34a4d91fec4a15f33f6527e47&oe=5B8D3973";;;;;;;;
1173881;"Lowes Y's Guys";"6775 State Rte. 440";"Hickory";"KY";42051;"GRAVES";"(270)247-0049";"http://www.graves.kyschools.us/";;"The mission of Lowes Elementary is to prepare our students for the 21st century by creating an atmosphere where students are self-driven, well-rounded, and high-achieving lifelong learners and future leaders in our community.";"http://www.graves.kyschools.us/";;"https://graves.tedk12.com/hire/index.aspx";;;;;"x";"x";;;"http://www.graves.kyschools.us/sysimages/logolow.png";"7:05AM - 2:30PM";"7:05AM - 2:30PM";"7:05AM - 2:30PM";"7:05AM - 2:30PM";"7:05AM - 2:30PM";"Closed";"Closed";
1173882;"Sedalia Elementary  SOAR Preschool";"5252 State Route 97";"Mayfield";"KY";42066;"GRAVES";"(270)328-4850";"http://www.graves.kyschools.us/SedaliaElementary_home.aspx";"Melissa.Bazzell@graves.kyschools.us";"Graves County school system is pleased to announce the additional choice of full day preschool at Wingo and Sedalia, called S.O.A.R. The S.O.A.R. preschool program is currently funded through a grant from the Kentucky Department of Education. To ensure the longevity of this program we will be requiring program participants to receive monies from the Child Care Assistance Program (CCAP).";"http://www.graves.kyschools.us/protected/ArticleView.aspx?iid=6GPUYP2&dasi=3YI2";;"https://graves.tedk12.com/hire/index.aspx";;"http://www.graves.kyschools.us/CalendarsandHandbooks.aspx";;;"x";"x";;;"http://www.graves.kyschools.us/sysimages/logosed.png";;;;;;;;
1173883;"Wingo Elementary SOAR  Preschool";"449 Lebanon St.";"Wingo";"KY";42088;"GRAVES";"(270)328-4870";"http://www.graves.kyschools.us/WingoElementary_home.aspx";"Melissa.Bazzell@graves.kyschools.us";"Graves County school system is pleased to announce the additional choice of full day preschool at Wingo and Sedalia, called S.O.A.R. The S.O.A.R. preschool program is currently funded through a grant from the Kentucky Department of Education. To ensure the longevity of this program we will be requiring program participants to receive monies from the Child Care Assistance Program (CCAP).";"http://www.graves.kyschools.us/protected/ArticleView.aspx?iid=6GPUYP2&dasi=3YI2";;"https://graves.tedk12.com/hire/index.aspx";;;;;"x";"x";;;"http://www.graves.kyschools.us/sysimages/logowin.png";;;;;;;;
1173878;"True Vine Christian  Learning Center";"43 Reilly Rd.";"Frankfort";"KY";40601;"FRANKLIN";"(502)352-2333";;;;;"https://m.facebook.com/TrueVineCLC/";;;;;;;;;;;;;;;;;;
1173879;"Little Hands Big Hearts  Childcare Center";"385 Violet Road Suite C";"Crittenden";"KY";41030;"GRANT";"(859)813-8044";;;;;"https://www.facebook.com/LHBHCrittenden/";;;;;;;;;;;;;;;;;;
1173876;"Little Tots Learning Center";"3580 Caulder Rd.";"Lexington";"KY";40517;"FAYETTE";"(859)368-2887";"https://www.littletotslc.com/";"info@littletotslc.com";"Little Tots Learning Center opened in January 2017 and provides students with a rich and diverse learning environment. Our unparalleled teaching methods help to launch students into the successful future they have always dreamed of. Little Tots Learning Center is located in Lexington, Kentucky and prioritizes education and safety of children. We encourage both staff and students alike to grow, learn, and create with each passing day.";"https://www.littletotslc.com/";"https://www.facebook.com/littletotslc/";;;;"x";"x";"x";;;;"https://static.wixstatic.com/media/806b00_720d4795e5e04730906778b69b9e36f8~mv2.jpg/v1/fill/w_86,h_80,al_c,q_80,usm_0.66_1.00_0.01/806b00_720d4795e5e04730906778b69b9e36f8~mv2.webp";"6AM - 8PM";"6AM - 8PM";"6AM - 8PM";"6AM - 8PM";"6AM - 8PM";"6AM - 5PM";"6AM - 5PM";
1173877;"Kool Kids Learning  Academy";"361 East Water Street";"Flemingsburg";"KY";41041;"FLEMING";"(606)541-1874";;;;;"https://www.facebook.com/Kool-Kidz-Learning-Academy-1689806461267923/";;;;;;"x";"x";;;;;;;;;;;
1173874;"Creation Kingdom  McConnells Trace";"2935 Trailwood Lane";"Lexington";"KY";40511;"FAYETTE";"(859)255-0193";"http://www.creationkingdom.com/";"corporate@creationkingdom.com";"Kingdom U incorporates the best of the best to provide a Complete Early Learning Experience. Our Teaching Specialists bring Kingdom U to life teaching and inspiring through our Kingdom Curriculum, comprised of the best blend of developmentally appropriate researched and proven curricula available today. ";"http://www.creationkingdom.com/mcconnells_trace.html";"https://www.facebook.com/McConnellsTraceCK/";"http://www.creationkingdom.com/careers.html";"http://www.creationkingdom.com/enroll.html";;"x";"x";"x";"x";;"x";"http://www.creationkingdom.com/images/mainlogo.gif?crc=3777174198";"6AM - 6PM";"6AM - 6PM";"6AM - 6PM";"6AM - 6PM";"6AM - 6PM";"Closed";"Closed";
1173875;"Whitaker Family YMCA";"2681 Old Rosebud Road";"Lexington";"KY";40509;"FAYETTE";"(859)367-7302";"http://www.ymcacky.org/l";;"The Y is dedicated to building programs for youth development, for healthy living and for social responsibility that promote strong families, character values, youth leadership, community development and international understanding. ";"http://www.ymcacky.org/locations/ymca-location/new-whitaker-family-ymca/";"https://www.facebook.com/pages/Whitaker-Family-YMCA/629107727272452";"http://www.ymcacky.org/main/careers/";;;;;;;"x";;"http://www.ymcacky.org/graphics/main/logo_green.png";"5:30AM - 10PM";"5:30AM - 10PM";"5:30AM - 10PM";"5:30AM - 10PM";"5:30AM - 10PM";"6AM - 8PM";"10AM - 8PM";
1173873;"Little Day Academy";"848 North Limestone";"Lexington";"KY";40505;"FAYETTE";"(589)253-0004";;;;;;;;;;;;;;;;;;;;;;;
1173870;"Extended School Program  at Garrett Morgan  Elementary";"1150 Passage Mound Way";"Lexington";"KY";40509;"FAYETTE";"(859)489-9852";"https://www.fcps.net/GarrettMorgan";;"Our mission is to create a collaborative community that ensures all students achieve at high levels and graduate prepared to excel in a global society.";"https://www.fcps.net/GarrettMorgan";"https://www.facebook.com/garrettmorganelementary/";;;"https://www.fcps.net/domain/3731";;;"x";;;;"https://www.fcps.net/cms/lib/KY01807169/Centricity/Template/GlobalAssets/images//logos/GME-LOGO.jpg";;;;;;;;
1173871;"Lexington Christian  Academy";"3100 Tates Creek Rd.";"Lexington";"KY";40502;"FAYETTE";"(859)422-5703";"http://www.lexingtonchristian.org/";;"LCA has been nurturing and educating young people from a distinctly Christian worldview for over a quarter-century.";"http://www.lexingtonchristian.org/";"https://www.facebook.com/LexingtonChristianAcademy";"http://www.lexingtonchristian.org/about-us/employeeengage.cfm";"http://www.lexingtonchristian.org/admissions/reenrollment.cfm";"http://www.lexingtonchristian.org/admissions/tuition.cfm";;;"x";"x";"x";"x";"http://www.lexingtonchristian.org/custom/images/logo.png";"8AM - 4:30PM";"8AM - 4:30PM";"8AM - 4:30PM";"8AM - 4:30PM";"8AM - 4:30PM";"Closed";"Closed";
1173872;"YMCA Before/Afterschool  at Leestown Middle  School";"2010 Leestown Rd.";"Lexington";"KY";40511;"FAYETTE";"(859)219-9622";"http://www.ymcacky.org/main/afterschool/";;"Leestown Middle School is committed to engaging students in learning experiences that empower each with the tools for life-long success.";"http://schools.fcps.net/leestown";"https://www.facebook.com/pages/Leestown-Middle-School-Chargers/672083606175975";;;;;;"x";"x";;;"https://scontent.fskp2-1.fna.fbcdn.net/v/t31.0-8/1511800_679878858729783_296003739_o.jpg?_nc_cat=0&oh=307921e19c2c409688767cff3c956f0f&oe=5B92E109";"9:05AM - 4PM";"9:05AM - 4PM";"9:05AM - 4PM";"9:05AM - 4PM";"9:05AM - 4PM";"Closed";"Closed";
1173868;"Beyond the Bell";"2585 Liberty Rd.";"Lexington";"KY";40509;"FAYETTE";"(859)381-4979";"https://www.fcps.net/Liberty";;"Liberty Elementary School community is committed to ALL students becoming lifelong learners through academic success and responsible citizenship. Beyond the Bell is a quality after school program for Liberty students. Students enrolled in Beyond the Bell will be placed in groups according to grade level and each team has an adult counselor. It is our goal to provide engaging and enriching opportunities for our students after school in the areas of academics and recreation.";"https://www.fcps.net/domain/3991";;;;"https://www.fcps.net/cms/lib/KY01807169/Centricity/Domain/3991/OFFICIAL%20BTB%20Parent%20Handbook%2020172018.pdf";;;"x";"x";"x";;"https://www.fcps.net/cms/lib/KY01807169/Centricity/Template/GlobalAssets/images///logos/LIBERTY-LOGO.jpg";"2:35AM - 6PM";"2:35AM - 6PM";"2:35AM - 6PM";"2:35AM - 6PM";"2:35AM - 6PM";"Closed";"Closed";
1173869;"Extended School Program  at Coventry Oak  Elementary";"2441 Huntly Place";"Lexington";"KY";40508;"FAYETTE";"(859)489-9870";"https://www.fcps.net/CoventryOak";;"The Extended School Program is a fully-licensed after-school program that offers affordable, high-quality childcare for elementary school students. ";"https://www.lexingtonky.gov/esp-and-real-program";"https://www.facebook.com/lexkyparks/";;"https://www.lexingtonky.gov/sites/default/files/2018-05/2018%20Reg%20School%20Year%20app.pdf";;;;"x";"x";"x";;"https://www.fcps.net/cms/lib/KY01807169/Centricity/Template/GlobalAssets/images///logos/COE-LOGO.png";"2:35AM - 3:15PM";"2:35AM - 3:15PM";"2:35AM - 3:15PM";"2:35AM - 3:15PM";"2:35AM - 3:15PM";"Closed";"Closed";
1173866;"Clays Mill Elementary  After School Child Care  Program";"2319 Clays Mill Road";"Lexington";"KY";40503;"FAYETTE";"(859)381-3355";"https://www.fcps.net/ClaysMill";;"The mission of Clays Mill Elementary School is to create a collaborative community that ensures all students achieve at high levels and graduate prepared to excel in a global society.";"https://www.fcps.net/Page/8772";"https://www.facebook.com/pages/Clays-Mill-Elementary-School/1502281750036698";;"https://www.fcps.net/Page/8770";"https://www.fcps.net/Page/8771";;;"x";"x";"x";;"https://www.fcps.net/cms/lib/KY01807169/Centricity/Template/GlobalAssets/images///logos/CLAYSMILL-LOGO.jpg";"2:35AM - 6PM";"2:35AM - 6PM";"2:35AM - 6PM";"2:35AM - 6PM";"2:35AM - 6PM";"Closed";"Closed";
1173867;"Breckinridge Elementary  After School Program";"2101 St. Mathilda Drive";"Lexington";"KY";40502;"FAYETTE";"(859)381-3273";"https://www.fcps.net/Page/21";;"Breckinridge Elementary exists to create a collaborative community of learners that ensures all students achieve at high levels and are prepared for lifelong success in a global society.";"https://www.fcps.net/Page/21";;;;"https://www.fcps.net/domain/3695";;;"x";"x";"x";;"https://www.fcps.net/cms/lib/KY01807169/Centricity/Template/GlobalAssets/images///logos/BRECKINRIDGE-LOGO.jpg";;;;;;;;
1173880;"Mother Goose Learning  Center";"116 West Willow Drive";"Mayfield";"KY";42066;"GRAVES";"(270)247-4781";;"ayfieldmothergoose@gmail.com";;;"https://www.facebook.com/mothergoosemayfield/?rf=307714572594117";;;;;;;;;;"https://scontent.fskp2-1.fna.fbcdn.net/v/t1.0-1/c1.0.200.200/p200x200/20604493_1555589271168628_3528998931475068874_n.jpg?_nc_cat=0&oh=6b690ba6e2009278fd13af11a3dab20b&oe=5B881D42";"6:30AM - 5:30PM";"6:30AM - 5:30PM";"6:30AM - 5:30PM";"6:30AM - 5:30PM";"6:30AM - 5:30PM";"Closed";"Closed";
1173887;"Pride Avenue Head Start";"861 Pride Avenue";"Madisonville";"KY";42431;"HOPKINS";"(270)825-6030";"https://www.hopkins.kyschools.us/Page/92";;"Through teamwork we provide opportunities, encouragement, and support for success for all students that go beyond the skills to touch students for life.";"https://www.hopkins.kyschools.us/pride";;;;"https://www.hopkins.kyschools.us/cms/lib/KY02204223/Centricity/Domain/8/2018%20Preschool%20Screening%20Ad.pdf";;;"x";"x";"x";;"https://www.hopkins.kyschools.us/cms/lib/KY02204223/Centricity/Template/GlobalAssets/images///logos/Pride%20falcon%20web.jpg";;;;;;;;
1173888;"Jesse Stuart Head Start";"1710 Anton Road";"Madisonville";"KY";42431;"HOPKINS";"(270)825-6033";"https://www.hopkins.kyschools.us/Page/92";;"Encouraging, Motivating, and Challenging each student to meet the opportunities of the future.";"https://www.hopkins.kyschools.us/jses";;;;"https://www.hopkins.kyschools.us/cms/lib/KY02204223/Centricity/Domain/8/2018%20Preschool%20Screening%20Ad.pdf";;;"x";"x";"x";;"https://www.hopkins.kyschools.us/cms/lib/KY02204223/Centricity/Template/GlobalAssets/images///logos/JSES%20Eagle%20logo%20web.jpg";;;;;;;;
1173884;"North Park Wrap Around ";"1080 S. Logsdon Pkwy";"Radcliff";"KY";40160;"HARDIN";"(270)769-7926";"http://www.hardin.k12.ky.us/northpark";;"The staff at North Park is dedicated to providing an environment that will nurture the potential in every student as they begin their first experiences in school. Our understanding and appreciation of a child's growth and development enables our students to embrace learning with a positive attitude in a nurturing atmosphere. ";"http://www.hardin.k12.ky.us/northpark";;;"http://www.hardin.k12.ky.us/school_calendar.aspx?schools=18&types=&eventID=3801&viewDate=Apr%2002&schoolID=18";;;;"x";"x";"x";;"http://www.hardin.k12.ky.us/images/full//userfiles/864/my%20files/website%20main%20page%20pic2.png?id=1048&width=0";;;;;;;;
1173885;"Elizabethtown Head Start  - Woodland Center";"1257 Woodland Drive";"Elizabethtown";"KY";42701;"HARDIN";"(270)506-3010";;"gfischer@ckyhs.org";"The Head Start program operates a full-day, full year program in the service area.  The program is funded to serve 543 Head Start families through center-based programming, depending upon the circumstances of the family and other criteria. ";"http://ckyhs.org/serv01.htm";;;;;;;"x";"x";;;"http://ckyhs.org/serv01_files/image003.jpg";"8:30AM - 5PM";"8:30AM - 5PM";"8:30AM - 5PM";"8:30AM - 5PM";"8:30AM - 5PM";"Closed";"Closed";
1173886;"St. Stephens Head Start";"757 S. Woodland Drive";"Radcliff";"KY";40159;"HARDIN";"(270)390-4671";"http://www.ssclive.org/";;;"http://www.ssclive.org/hardin-county-2/";"https://www.facebook.com/pages/St-Stephen-Church-Hardin-Co/528223974020156";;;;;;"x";"x";;;;;;;;;;;
1173896;"Scribbles & Giggles  Children's Academy, LLC";"2900 Patti Lane";"Jeffersontown";"KY";40299;"JEFFERSON";"(502)890-5735";;"sgca2016@yahoo.com";"Childcare for ages 6 weeks- 12 years old";;"https://www.facebook.com/SandGCA/";;;;"x";"x";"x";"x";;;"https://scontent.fskp2-1.fna.fbcdn.net/v/t1.0-1/c0.0.200.200/p200x200/24131506_1170998209698664_5332364556536225492_n.jpg?_nc_cat=0&oh=23dad5af9f25143384490d33e562ac75&oe=5B805960";"6AM - 7PM";"6AM - 7PM";"6AM - 7PM";"6AM - 7PM";"6AM - 7PM";"Closed";"Closed";
1173892;"Stonestreet Elementary  Childcare Enrichment  Program";"10007 Stonestreet Road";"Louisville";"KY";40272;"JEFFERSON";"(502)637-1575";"https://www.jefferson.kyschools.us/";"jcps.help@jefferson.kyschools.us";"All Child Enrichment Program (CEP) sites are conveniently located in Jefferson County public schools.";"https://www.jefferson.kyschools.us/student-support/childcare/cep/sites";;;"http://www.ymcalouisvillechildcare.org/registration-forms/cep-registration-forms.html";;;;"x";"x";"x";;;;;;;;;;
1173893;"St. Francis of Assisi Pre- Kindergarten";"1934 Alfresco Place";"Louisville";"KY";40205;"JEFFERSON";"(502)456-5694";"https://www.sfalouisville.org/";;"The SFA Pre-K program is structured to prepare children for success in school. Activities are age-appropriate and our engaging environment encompasses all aspects of child development: social, cognitive, emotional, physical and cultural.";"https://www.sfalouisville.org/care-programs/";"https://www.facebook.com/SFALouisville/";;"https://www.sfalouisville.org/admissions/";;;;"x";"x";"x";"x";"https://www.jefferson.kyschools.us/sites/all/themes/custom/jcps/logo.png";"8AM - 3PM";"8AM - 3PM";"8AM - 3PM";"8AM - 3PM";"8AM - 3PM";"Closed";"Closed";
1173894;"Nana's Imagination  Station";"828 Brookline Avenue";"Louisville";"KY";40215;"JEFFERSON";"(502)749-0331";;"nanasimaginationstation@gmail.com";"Now offering quality child care.";;"https://www.facebook.com/nanasimaginationstationllc/";;;;"x";"x";"x";"x";;;"https://scontent.fskp2-1.fna.fbcdn.net/v/t1.0-1/c0.0.200.200/p200x200/13428008_767796103401835_1634725208355556532_n.jpg?_nc_cat=0&oh=701b28df2f3f68c04f6cb49cfa3ace47&oe=5B50D0A9";"Open 24/7";"Open 24/7";"Open 24/7";"Open 24/7";"Open 24/7";"Closed";"Open 24/7";
1173895;"Alex R. Kennedy  Childcare Enrichment  Program";"4515 Taylorsville Rd";"Louisville";"KY";40220;"JEFFERSON";"(502)637-1575";"https://www.jefferson.kyschools.us/";"jcps.help@jefferson.kyschools.us";"All Child Enrichment Program (CEP) sites are conveniently located in Jefferson County public schools.";"https://www.jefferson.kyschools.us/student-support/childcare/cep/sites";;;;;;;"x";"x";"x";;"https://www.jefferson.kyschools.us/sites/all/themes/custom/jcps/logo.png";;;;;;;;
1173890;"Theresa's Terrific Kids";"1757 W Lee Street";"Louisville";"KY";40210;"JEFFERSON";"(502)742-3146";;;"Theresa's Terrific Kids is a child care development owned by Delecia Unseld a business that cares for children as family and teaches them the value of life";;"https://www.facebook.com/theresakids16/";;;;;;;;;;"https://scontent.fskp2-1.fna.fbcdn.net/v/t1.0-9/14344689_1721378451516403_3676131766091840719_n.jpg?_nc_cat=0&oh=a2a452622e0e837e384a99431e52b746&oe=5B536238";"6:30AM - 6:30PM";"6:30AM - 6:30PM";"6:30AM - 6:30PM";"6:30AM - 6:30PM";"6:30AM - 6:30PM";"Closed";"Closed";
1173891;"Les Petites Academies";"4000 Bardstown Road";"Louisville";"KY";40218;"JEFFERSON";"(502)365-3415";;;;;"https://www.facebook.com/24hourlespetitesacademies/";;;;;;;;;;"https://scontent.fskp2-1.fna.fbcdn.net/v/t1.0-1/p200x200/25151983_240445326491727_5020267878167198216_n.jpg?_nc_cat=0&oh=b1e793cda208815581223c812976b5ad&oe=5B92654F";"Open 24/7";"Open 24/7";"Open 24/7";"Open 24/7";"Open 24/7";"Open 24/7";"Open 24/7";
1173902;"Baker's Learning Center";"2141 Dixie Hwy";"Louisville";"KY";40210;"JEFFERSON";"(502)384-2159";;"bakerslearningctr@gmail.com";"Brand new facility now open and accepting enrollments for infants and children between ages 6 weeks to 5 yrs school age. Stop by for a tour or contact for more information! ";;"https://www.facebook.com/bakerslearningcenter/";;;;"x";"x";"x";"x";;;"https://scontent.fskp2-1.fna.fbcdn.net/v/t1.0-9/16832298_1247382235339146_673114280158634897_n.jpg?_nc_cat=0&oh=98ea260a8c6af50f61c00cd1642d0fe3&oe=5B52962B";"6AM - 6PM";"6AM - 6PM";"6AM - 6PM";"6AM - 6PM";"6AM - 6PM";"Closed";"Closed";
1173903;"Academy of Great  Beginnings";"101 Depot Street";"Nicholasville";"KY";40356;"JESSAMINE";"(859)885-7335";;;"Our goal is to provide a safe, educational, fun, and happy environment. We want the children to feel at ""home"" when they are away from home.";;"https://www.facebook.com/AOGB2016/";;;;;;;;;;"https://scontent.fskp2-1.fna.fbcdn.net/v/t1.0-1/p200x200/29683294_1714866098552080_4657749490665435596_n.jpg?_nc_cat=0&oh=327ffa5f79f32180e477e5b1d37c8cc8&oe=5B7E30B5";"6AM - 6PM";"6AM - 6PM";"6AM - 6PM";"6AM - 6PM";"6AM - 6PM";"Closed";"Closed";
1173900;"Young Kids Academy";"9811 Merioneth Drive";"Louisville";"KY";40299;"JEFFERSON";"(502)365-1481";"http://www.youngkidsacademy.com/";"cs@youngkidsacademyky.com";"YKA exists to provide a safe and developmentally appropriate environment for infants, toddlers & preschool aged children. ";"http://www.youngkidsacademy.com/";"https://www.facebook.com/youngkidsacademyky/";;"http://www.youngkidsacademy.com/child-care-enrollment";;"x";"x";"x";"x";;;"http://www.youngkidsacademy.com/wp-content/themes/youngkids/images/intro_logo.png";"7AM - 6PM";"7AM - 6PM";"7AM - 6PM";"7AM - 6PM";"7AM - 6PM";"Closed";"Closed";
1173899;"Care 4 Me Ms. Ella's  Childcare Center";"2933 W. Muhammad Ali Blvd";"Louisville";"KY";40212;"JEFFERSON";"(502)778-0405";"http://www.care4memsella.net/";;"Care 4 Me Ms. Ella Childcare center invests time and effort to develop your child. We want them to perform at their best so we give them the very best education while attending Care 4 Me Ms. Ella Childcare Center.";"http://www.care4memsella.net/";;;;;"x";"x";"x";"x";;;;;;;;;;;
1173897;"Gwennie Pooh's 2";"1300 S. 26Th Street";"Louisville";"KY";40210;"JEFFERSON";"(502)919-7605";"x";;;;;;;;;;;;;;;;;;;;;;
1173898;"Kidz World Academy";"3006 Preston Hwy";"Louisville";"KY";40217;"JEFFERSON";"(502)749-4775";"x";;;;;;;;;;;;;;;;;;;;;;
1173908;"South CARES";"850 Cutoff Road South Livingston Elementary";"Smithland";"KY";42081;"LIVINGSTON";"(270)928-3500";"http://www.livingston.kyschools.us/";"Regina.durard@livingston.kyschools.us";"We, the people of South Livingston Elementary School, will work together to make our school a safe and exciting place to learn.  We will be responsible, respectful, and productive.  We believe this will teach us to be successful.";"http://www.livingston.kyschools.us/4/Home";"https://www.facebook.com/SouthLivingstonElementarySchool/";"http://www.livingston.kyschools.us/searchResults.aspx?q=school%20hours";"http://www.livingston.kyschools.us/Content2/410";"http://www.livingston.kyschools.us/docs/building/4/handbook/student%20handbook%202017%202018%20final.pdf?id=8568";;;"x";"x";"x";;"https://scontent.fskp2-1.fna.fbcdn.net/v/t1.0-1/24068036_1773542166280951_9069238694827009383_n.jpg?_nc_cat=0&oh=9b15fe72eafaa656787a52fde56b1aa8&oe=5B834034";"7:15AM - 4PM";"7:15AM - 4PM";"7:15AM - 4PM";"7:15AM - 4PM";"7:15AM - 4PM";"Closed";"Closed";
1173909;"North CARES";"1372 Us Hwy 60 East";"Burna";"KY";42028;"LIVINGSTON";"(270)988-4000";"http://www.livingston.kyschools.us/";"Regina.durard@livingston.kyschools.us";"We at North Livingston Elementary are striving together to acheve respect and success";"http://www.livingston.kyschools.us/3/Home";"https://www.facebook.com/North-Livingston-368141223636007/";;"http://www.livingston.kyschools.us/Content/410";;;;"x";"x";"x";;"https://scontent.fskp2-1.fna.fbcdn.net/v/t1.0-1/p200x200/26169745_381903238926472_6491581878424057713_n.jpg?_nc_cat=0&oh=0ae98a5e366f47ad9f858d4fd92474d0&oe=5B9D09A6";;;;;;;;
1173907;"Tiny Tots Child Care";"595 Ky Hwy 3439 Old Us 25 E";"Barbourville";"KY";40906;"KNOX";"(606)546-0043";;;"KCEOC is now operating Tiny Tot's Child Care, and now accepting applications for children ages infant to school age.";;"https://www.facebook.com/TinyTotsKCEOC/?rf=1553987601559051";;;;"x";"x";"x";"x";;;"https://scontent.fskp2-1.fna.fbcdn.net/v/t1.0-1/p200x200/15965244_656585261179452_6367236366723248853_n.jpg?_nc_cat=0&oh=db7b205ab17b14bbfb409d2971825b59&oe=5B4FCBBF";"5:30AM - 5:30PM";"5:30AM - 5:30PM";"5:30AM - 5:30PM";"5:30AM - 5:30PM";"5:30AM - 5:30PM";"Closed";"Closed";
1173906;"Next Generation Learning  Center";"713 Madison";"Covington";"KY";41011;"KENTON";"(859)261-0068";;;"Next Generation is a new Childcare Learning Center coming to the downtown Covington Area. ";;"https://www.facebook.com/Next-Generation-Learning-Center-187252888349746/";;;;"x";"x";"x";"x";;;;;;;;;;;
1173904;"Taylor Mill Learning  Center";"6455 Taylor Mill Rd.";"Independence";"KY";41051;"KENTON";"(859)356-0217";;;;;"https://www.facebook.com/Cherokee-Learning-Center-165737583452881/";;;;;;;;;;;"6:30AM - 6PM";"6:30AM - 6PM";"6:30AM - 6PM";"6:30AM - 6PM";"6:30AM - 6PM";"Closed";"Closed";
1173910;"Mt Zion Preschool Center ";"9701 Blandville Rd West";"Paducah";"KY";42086;"MCCRACKEN";"(270)217-2796";"http://www.mtzionpaducah.org/";;"http://www.mtzionpaducah.org/connect/";"http://www.mtzionpaducah.org/connect/";"https://www.facebook.com/hillcrestbaptistpreschool.sherriecaylor";;;;;;"x";"x";;;"http://www.mtzionpaducah.org/hp_wordpress/wp-content/uploads/2017/09/Mt_Zion_CL_Horz_Tag_03_logo.png";"7AM - 5PM";"7AM - 5PM";"7AM - 5PM";"7AM - 5PM";"7AM - 5PM";"Closed";"Closed";
1173911;"WTYMCA Preschool";"750 Tapp Road";"Harrodsburg";"KY";40330;"MERCER";"(859)734-9622";"http://www.mercer.kyschools.us/Default.aspx";;"Mercer County Elementary School provides preschool services for children age 3 with identified delays and age 4 with either identified delays or who meet income guidelines";"http://www.mercer.kyschools.us/Preschool.aspx";"https://www.facebook.com/MercerCoSchools";"http://www.mercer.kyschools.us/employment.aspx";"http://www.mercer.kyschools.us/EnrollmentRequirements.aspx";;;;"x";"x";;;"http://www.mercer.kyschools.us/sysimages/LogoHeader.png";"8AM - 3:12PM";"8AM - 3:12PM";"8AM - 3:12PM";"8AM - 3:12PM";"8AM - 3:12PM";"Closed";"Closed";
1173914;"God's Little Explorers  Learning Center";"206 Mill Street";"Butler";"KY";41006;"PENDLETON";"(859)472-5000";"http://www.glelc-pc.com/";"director@glelc-pc.com";"We educate and care. Combining the KY All STARS and KY Core Education Standards to guide our curriculum we teach your children so that kindergarten will be simply the next step. ";"http://www.glelc-pc.com/";"https://www.facebook.com/glelcpc/";;;;;;"x";"x";;;"https://scontent.fskp2-1.fna.fbcdn.net/v/t31.0-8/26951864_1952905788261755_927856842478657658_o.jpg?_nc_cat=0&oh=715ff53ad30537c780ed7c53a1fc18b7&oe=5B9667AF";"6AM - 6PM";"6AM - 6PM";"6AM - 6PM";"6AM - 6PM";"6AM - 6PM";"Closed";"Closed";
1173913;"Star Academy of  Crestwood";"8905 West Highway 22";"Crestwood";"KY";40014;"OLDHAM";"(502)243-8484";"https://www.cadence-academy.com/";;"We are dedicated to maintaining an atmosphere here that will encourage the development and growth of your child as a whole person: physically, socially, emotionally, intellectually, and spiritually. We do that in a non-denominational way, simply by attending to each child as an individual, and as part of a group who is also learning to grow and relate to others.";"https://www.cadence-academy.com/schools/crestwood-ky/";"https://www.facebook.com/CadenceEducation";"https://www.cadence-academy.com/careers/";;;"x";"x";"x";"x";;;"https://www.cadence-education.com/academy/wp-content/uploads/sites/9/2016/03/cadence-academy-facebook.png";"6:30AM - 6PM";"6:30AM - 6PM";"6:30AM - 6PM";"6:30AM - 6PM";"6:30AM - 6PM";"Closed";"Closed";
1173916;"Associates in Pediatric  Therapy";"90 Howard Drive";"Shelbyville";"KY";40065;"SHELBY";"(502)633-1007";"https://www.kidtherapy.org/";;"The APT staff offers a complete spectrum of services that can help you and/or your child, from social work, audiologist to therapist and teachers! We look forward to working with your family!";"https://www.kidtherapy.org/locations/shelby-county/";;"https://www.kidtherapy.org/careers/";;"https://webportal3.raintreeinc.com/apt/patientportal";"x";"x";"x";"x";;"x";"https://www.kidtherapy.org/wp-content/uploads/2014/08/IMG_48261-300x219.jpg";;;;;;;;
1173915;"Georgetown Early  Learning Academy";"401 East Washington";"Georgetown";"KY";40324;"SCOTT";"(502)603-8002";"http://elp.georgetown.edu/";"earlylearning@georgetown.edu";"We are a research group interested in social and cognitive development during early childhood";"http://elp.georgetown.edu/";"https://b-m.facebook.com/GtownELA/";;;"http://elp.georgetown.edu/information-for-parents/";"x";"x";"x";"x";;;"http://elp.georgetown.edu/wp-content/uploads/2015/06/banner.png";"6AM - 6PM";"6AM - 6PM";"6AM - 6PM";"6AM - 6PM";"6AM - 6PM";"Closed";"Closed";
1173920;"Tender Care Early  Learning Center";"1423 Scottsville Rd. Bowling";"Green";"KY";42104;"Warren";"(270)267-0036";;;"A kindergarten-readiness preschool program where children learn through play and developmentally-appropriate activities and early learning academics";"https://hulafrog.com/bowling-green-ky/tender-care-early-learning-center-1/";"https://www.facebook.com/tendercareearlylearningcenter/";;;;;;;;;;"https://scontent.fskp2-1.fna.fbcdn.net/v/t1.0-1/p200x200/15027477_213742875730572_1181531841210134891_n.jpg?_nc_cat=0&oh=3ea3c2cbc98c05a8dee5d9085eda006b&oe=5B9781FB";"6:30AM - 6PM";"6:30AM - 6PM";"6:30AM - 6PM";"6:30AM - 6PM";"6:30AM - 6PM";"Closed";"Closed";
1173918;"PDLC Program";"503 Old Morgantown Road Bowling";"Green";"KY";42101;"Warren";"(270)799-5028";"http://www.commed.us/";" info@commed.us";"Community Education will offer its school-age summer programs again in 2016, and registration for those programs has begun.";"http://www.commed.us/school-age-programs/";"https://www.facebook.com/permalink.php?story_fbid=980800205300829&id=136876033026588";"http://www.commed.us/employment/";"http://www.commed.us/wp-content/uploads/2017/11/Application-2017-18-academic-year-1.pdf";"http://www.commed.us/wp-content/uploads/2018/01/Parent-Handbook-2017-18.pdf";;;"x";"x";;;"http://www.commed.us/wp-content/uploads/2013/04/HeaderLogo2.png";"7AM - 6PM";"7AM - 6PM";"7AM - 6PM";"7AM - 6PM";"7AM - 6PM";"Closed";"Closed";
1173919;"Creative Children's  Learning Centers LLC";"2930 N. Mill Avenue Bowling";"Green";"KY";42104;"Warren";"(270)842-2002";;;"Affordable day care, offering quality child care and early learning for infants as young as 6 weeks to toddlers, pre-school and school-aged kids";;"https://www.facebook.com/creativechildrenslearningcenter/";;;;"x";"x";"x";"x";;;"https://scontent.fskp2-1.fna.fbcdn.net/v/t1.0-1/p200x200/13903436_1132287770150543_2130874775540075095_n.jpg?_nc_cat=0&oh=74b6ea77aef4ef4d2c117ee27b556424&oe=5B99CFF1";"5:45AM - 5:45PM";"5:45AM - 5:45PM";"5:45AM - 5:45PM";"5:45AM - 5:45PM";"5:45AM - 5:45PM";"Closed";"Closed";
1173917;"Trimble County OVEC  Head Start";"258 Wentworth Ave.";"Bedford";"KY";40006;"TRIMBLE";"(502)255-3620";"http://www.ovec.org/";;"A variety of program options including full day/full year center based programs, school day school year center-based programs and home-based Early Head Start programs are available to meet the specific needs of the population served as determined by the annual Community Needs Assessment.";"http://www.ovec.org/3/home";;"http://www.ovec.org/employment";"http://www.ovec.org/userfiles/16/my%20files/1.2a%20ersea%20ccp%20brochure.pdf?id=2325";;"x";"x";"x";"x";;;"http://www.ovec.org/Customers/KY/OhioValleyEduCooperative/sysimages/custom/Head-Start.png";"7:30AM - 4PM";"7:30AM - 4PM";"7:30AM - 4PM";"7:30AM - 4PM";"7:30AM - 4PM";"Closed";"Closed";
1173939;"PRECIOUS FRIENDS OF ST GIANNA CHILDCARE CENTER";"657 YORK RD";"WARMINSTER";"PA";18974;"BUCKS";2157738399;"http://www.preciousfriends.org/";"preciousfriends@noolp.org ";"We are a newly opened daycare center operated by Nativity of Our Lord Parish to serve the Bucks and Montgomery County area.  Precious Friends is fully licensed to operate as a childcare facility by the State of Pennsylvania.";"http://www.preciousfriends.org/";"https://www.facebook.com/Precious-Friends-of-St-Gianna-Childcare-Center-311999569184024/";;"http://www.preciousfriends.org/enrollment/";;"x";"x";"x";"x";;;"http://www.preciousfriends.org/wp-content/uploads/2017/08/PF_Primary_Color-1.png";"7AM - 6PM";"7AM - 6PM";"7AM - 6PM";"7AM - 6PM";"7AM - 6PM";"Closed";"Closed";
1173940;"TAWANKA ELEMENTARY SCHOOL";"2055 BROWNSVILLE RD";"FEASTERVILLE TREVOSE";"PA";19053;"BUCKS";2157572554;"https://www.neshaminy.org/";;"The Neshaminy community builds futures by empowering each child to become a productive citizen and a lifelong learner.";"https://www.neshaminy.org/tes";"https://www.facebook.com/neshaminysd";;;"https://www.neshaminy.org/domain/2268";;;"x";"x";;;"https://www.neshaminy.org//cms/lib/PA01000466/Centricity/Domain/1548/tawanka-bldg-1.jpg";"9:10AM - 3:35PM";"9:10AM - 3:35PM";"9:10AM - 3:35PM";"9:10AM - 3:35PM";"9:10AM - 3:35PM";"Closed";"Closed";
1173941;"YMCA SUMMER CAMP AT ST FRANCIS CABRINI";"10 GOBLE CT";"FAIRLESS HILLS";"PA";19030;"BUCKS";2159464040;"http://www.lbfymca.org/";"aanderson@lbfymca.org";"Located on the beautiful grounds on St. Fraincis Cabrini, our Fairless Hills Camp provides weekly half-day, full-day specialty, sports and adventure camp options for your child. Mix and match to provide your child with a different experience every week for their best summer ever.";"http://www.lbfymca.org/fhcamp/uncategorised/y-programs/camp/fairless-hills-camp";"https://www.facebook.com/login/?next=https%3A%2F%2Fwww.facebook.com%2Fgroups%2FLowerBucksYCamp%2F";"http://www.lbfymca.org/employment";;"http://www.lbfymca.org/rates-fees/memberships/rates-fees";;;;;"x";"x";;"5AM - 10PM";"5AM - 10PM";"5AM - 10PM";"5AM - 10PM";"5AM - 10PM";"7AM - 6PM";"7AM - 6PM";
1173942;"YMCA BEFORE AND ASP AT KEYSTONE ELEMENTARY";"1800 KEYSTONE ST";"CROYDON";"PA";19021;"BUCKS";2675992470;"http://keystone.bristoltwpsd.org/";;"Our School-Age care programs provide children an opportunity to make friends, build relationships and stay active in a safe, secure environment. ";"http://www.lbfymca.org/child-care/uncategorised/y-programs/child-care/school-age-care";;;;;;;;;"x";;;"7AM - 6PM";"7AM - 6PM";"7AM - 6PM";"7AM - 6PM";"7AM - 6PM";"Closed";"Closed";
1173943;"CREATIVE LITTLE HANDS PRESCHOOL";"50 TRENTON RD";"FAIRLESS HILLS";"PA";19030;"BUCKS";2675853686;"http://www.creativelittlehandspreschool.com/";"creativelittlehandspreschool@gmail.com";"Creative Little Hands Pre-School provides a safe, fun environment in which children can grow academically and socially.";"http://www.creativelittlehandspreschool.com/";"https://www.facebook.com/creativelittlehandspreschool/";;"http://www.creativelittlehandspreschool.com/registration-info-contact-us";;;"x";"x";"x";"x";;"https://scontent.fskp2-1.fna.fbcdn.net/v/t1.0-1/p200x200/13876310_1281027031937502_7368001250959548149_n.jpg?_nc_cat=0&oh=9935fbbf4ec02338fc37efa86e7eeb18&oe=5B52A807";"9AM - 2:30PM";"9AM - 2:30PM";"9AM - 2:30PM";"9AM - 2:30PM";"9AM - 2:30PM";"Closed";"Closed";
1173944;"CREATIVE NEW BEGINNINGS CHILDCARE AND ELC";"140 TRENTON RD";"FAIRLESS HILLS";"PA";19030;"BUCKS";2155474863;"http://www.creativenewbeginnings.com/";;"amy@creativenewbeginnings.com";"http://www.creativenewbeginnings.com/";"https://www.facebook.com/creativenewbeginnings/";;;;;"x";"x";"x";"x";;"https://scontent.fskp2-1.fna.fbcdn.net/v/t1.0-1/c33.0.200.200/p200x200/10846494_287884304754446_6576155546321342957_n.jpg?_nc_cat=0&oh=53114d17de01c55f4793dd2424dbe64c&oe=5B831FF6";"6:45AM - 6PM";"6:45AM - 6PM";"6:45AM - 6PM";"6:45AM - 6PM";"6:45AM - 6PM";"Closed";"Closed";
1173945;"BRIGHT BEGINNERS INC";"800 CLARMONT AVE";"BENSALEM";"PA";19020;"BUCKS";2675207200;"http://brightbeginnersacademy.com/";"gcohen@brightbeginnersacademy.com";"An inclusive PreSchool and Child Care Center dedicated to supporting your child reach his or her full potential. Our curriculum “Big Day for PreK” meets the needs of diverse learners, including those with autism.";"http://brightbeginnersacademy.com/";"https://www.facebook.com/pg/BrightBeginnersAcademy/posts/?ref=page_internal";;;;"x";"x";"x";"x";;"x";"http://1a1.340.myftpupload.com/wp-content/uploads/2015/12/bb-horz.png";"6:45AM - 6PM";"6:45AM - 6PM";"6:45AM - 6PM";"6:45AM - 6PM";"6:45AM - 6PM";"Closed";"Closed";
1173946;"ENON COULTER COMMUNITY DEVELOPMENT CORPORATION";"2800 W CHELTENHAM AVE";"PHILADELPHIA";"PA";19150;"PHILADELPHIA";2152767200;"http://www.enontab.org/";"scholarship@enontab.org";"To provide K - 12 students and parents holistic, high quality educational programs, experiences and resources, for academic preparedness and career competitive edge.";"http://www.enontab.org/contact/ed-support";"https://www.facebook.com/pg/enontab/about/?ref=page_internal";;;;;;;"x";;;"http://www.enontab.org/images/logo.png";"6:30AM - 6PM";"6:30AM - 6PM";"6:30AM - 6PM";"6:30AM - 6PM";"6:30AM - 6PM";"Closed";"Closed";
1173947;"GRACED EARLY LEARNING CENTER";"6010 OXFORD AVE";"PHILADELPHIA";"PA";19111;"PHILADELPHIA";2158289267;;;"A safe place to bring your children where they will grow with confidence that they can achieve many lifetime goals";;"https://www.facebook.com/gracedearlylearningcenter/";;;;"x";"x";"x";"x";;;;;;;;;;;
1173948;"HAPPY LITTLE FEET";"5899 LANCASTER AVE";"PHILADELPHIA";"PA";19131;"PHILADELPHIA";2676324080;;;;;;;;;;;;;;;;;;;;;;;
1173949;"HONEY BEES LEARNING ACADEMY";"5844 N CAMAC ST";"PHILADELPHIA";"PA";19141;"PHILADELPHIA";2679715163;"https://ece.greatphillyschools.org/schools/honey-bees-learning-academy";;;;;;;;;;;;;;;;;;;;;;
1173950;"WE TREASURE KIDS CHRISTIAN CHILDCARE";"4523 N BROAD ST";"PHILADELPHIA";"PA";19140;"PHILADELPHIA";2673004929;"https://wetreasurekids.site123.me/";"wetreasurekids@gmail.com";"CHRISTIAN CHILD CARE has Bible time where a bible story and related songs are learned. Each month we focus on a character trait of God and His love for us. Children begin to see Gods loving hand in the world around them.";"https://wetreasurekids.site123.me/";;;;;"x";"x";"x";"x";;;"https://cdn-cms.f-static.com/uploads/97137/400_57e9c3e5cf837.jpg";"6:30AM - 6PM";"6:30AM - 6PM";"6:30AM - 6PM";"6:30AM - 6PM";"6:30AM - 6PM";"Closed";"Closed";
1173951;"JOYS OF EARLY LEARNING LLC";"201 N 61ST ST";"PHILADELPHIA";"PA";19139;"PHILADELPHIA";2159951043;;"joeldaycare@gmail.com";"Degreed teachers and care givers, we are well experienced in child care and committed to ensure that your kids are provided a safe and happy place to learn and play while you provide for them.";;"https://www.facebook.com/joelcenters/";;;;"x";"x";"x";"x";;;"https://scontent.fskp2-1.fna.fbcdn.net/v/t1.0-1/p200x200/29196865_550185735353343_4375910992689758208_n.png?_nc_cat=0&oh=1d1d12ce8fde3c4484d82b63d7c20e23&oe=5B8A598A";"6:30AM - 5PM";"6:30AM - 5PM";"6:30AM - 5PM";"6:30AM - 5PM";"6:30AM - 5PM";"Closed";"Closed";
1173952;"SUGA MAMAS DAYCARE";"300 W CHELTENHAM AVE";"PHILADELPHIA";"PA";19126;"PHILADELPHIA";2154500707;;"sugamamasdaycare@gmail.com";"Suga Mama's Daycare located in Philadelphia PA offers an enriching learning environment. It provides developmentally appropriate early childhood program that foster holistic growth among children.";;"https://www.facebook.com/sugamamasdaycareandpreschool/";;;;"x";"x";"x";"x";;;"https://scontent.fskp2-1.fna.fbcdn.net/v/t1.0-9/20664449_2101218103438700_6212059578256348431_n.jpg?_nc_cat=0&oh=ba28185b2b2e01cb5dc845b91fd538bb&oe=5B8AA446";"6AM - 6PM";"6AM - 6PM";"6AM - 6PM";"6AM - 6PM";"6AM - 6PM";"Closed";"Closed";
1173953;"TURNING PAIGES ILC II";"5229 MARKET ST";"PHILADELPHIA";"PA";19139;"PHILADELPHIA";2154724437;;;;;"https://www.facebook.com/pages/Turning-Paiges-Islamic-Learning-Center/370090989759826";;;;;;;;"x";;;;;;;;;;
1173954;"STAGES COMMUNITY SCHOOL";"635 W HUNTING PARK AVE";"PHILADELPHIA";"PA";19140;"PHILADELPHIA";2675956356;;"info.stagescs@gmail.com";"S.T.A.G.E.S is ""Sharing, Together and Granting Educational Success"".";;"https://www.facebook.com/stagescommunityschool/";;;;"x";"x";"x";"x";;;"https://scontent.fskp2-1.fna.fbcdn.net/v/t1.0-1/c67.0.200.200/p200x200/14650171_1802880799996874_7309204859779290945_n.jpg?_nc_cat=0&oh=75ef6e3eb932e88f8c3f6f2fba19ec9c&oe=5B97A709";;;;;;;;
1173955;"CHUNKY CHEEKS CHILDCARE LLC";"6817 TORRESDALE AVE";"PHILADELPHIA";"PA";19135;"PHILADELPHIA";2159047549;;;;;;;;;;;;;;;;;;;;;;;
1173956;"MILLERS CHILDCARE CENTER";"2739 W GIRARD AVE";"PHILADELPHIA";"PA";19130;"PHILADELPHIA";2152323183;;;;;;;;;;;;;;;;;;;;;;;
1173957;"NORRIS SQUARE COMMUNITY ALLIANCE";"142-74 W DIAMOND STREET";"PHILADELPHIA";"PA";19122;"PHILADELPHIA";2154255119;"http://nscaonline.org/";"info@nscaphila.org";"The mission of Norris Square Community Alliance is to empower Norris Square residents to improve their lives by becoming self-reliant, and to unite and build the community through the development and improvement of the physical, economic, social, cultural, and educational aspects of the neighborhood.";"http://nscaonline.org/?page_id=110";"https://www.facebook.com/NorrisSquareCom";"http://nscaonline.org/?page_id=532";;;"x";"x";"x";"x";;;"http://nscaonline.org/wp-content/uploads/2014/11/Banner-logo-transparent-background.png";;;;;;;;
1173958;"VISION TO VICTORY CHRISTIAN LRNG CTR INC";"462 E ALLEGHENY AVE";"PHILADELPHIA";"PA";19134;"PHILADELPHIA";2156340890;"http://www.visiontovictory.net/";"allegheny1@visiontovictory.net";"Vision to Victory Christian Learning Center (VTVCLC), is not just a place for children to come and simply attend, but a safe house to impart the sustenance and love that each child requires during their primary years of growth.";"http://www.visiontovictory.net/Contact";"https://www.facebook.com/Vision-To-Victory-Christian-Learning-Center-497473193604404/";;;"http://www.visiontovictory.net/staff";"x";"x";"x";"x";;;"https://static.wixstatic.com/media/90f7fb_ed38173b09a0d5ff856c8a8283f8b09e.jpg/v1/fill/w_341,h_342,al_c,q_80,usm_0.66_1.00_0.01/90f7fb_ed38173b09a0d5ff856c8a8283f8b09e.webp";"6AM - 6PM";"6AM - 6PM";"6AM - 6PM";"6AM - 6PM";"6AM - 6PM";"Closed";"Closed";
1173960;"LITTLE DINOS LEARNING CENTER INC";"6044 CASTOR AVE";"PHILADELPHIA";"PA";19149;"PHILADELPHIA";2155333466;;;;;;;;;;;;;;;;;;;;;;;
1173959;"CHILDESSENTIALS CARE OF WEST PHILLY";"5255 SPRUCE ST";"PHILADELPHIA";"PA";19139;"PHILADELPHIA";2155209188;;"info@mychildessentials.com";"Child Care, Preschool, Before and After Care, Transportation";;"https://www.facebook.com/childessentials.care/";;;;"x";"x";"x";"x";;;"https://scontent.fskp2-1.fna.fbcdn.net/v/t1.0-1/c34.0.200.200/p200x200/13512038_1074724839287824_1252313846815858225_n.png?_nc_cat=0&oh=3cf8085ccd5d65a4c9b517e52cc039a0&oe=5B7C4CFD";"Open 24/7";"Open 24/7";"Open 24/7";"Open 24/7";"Open 24/7";"Open 24/7";"Open 24/7";
1173961;"APPLESEEDS LEARNING CENTER LLC";"2418 W YORK ST";"PHILADELPHIA";"PA";19132;"PHILADELPHIA";2672759056;;;"Infants -Todlers -Pre-Kindergarten - After-School";;"https://www.facebook.com/AppleseedLearningCenter%20/";;;;"x";"x";"x";"x";"x";;"https://scontent.fskp2-1.fna.fbcdn.net/v/t1.0-1/c0.0.200.200/p200x200/13516550_1107335575993186_1091289304462405054_n.jpg?_nc_cat=0&oh=eeedc47f542788c3aea571ccc7f8b8c4&oe=5B4F85DE";"6:30AM - 6PM";"6:30AM - 6PM";"6:30AM - 6PM";"6:30AM - 6PM";"6:30AM - 6PM";"Closed";"Closed";
1173962;"THINKING OUT OF THE BOX LEARNING CENTER";"1462 N 52ND ST";"PHILADELPHIA";"PA";19131;"PHILADELPHIA";2159219723;"https://www.tootblc.com/";;"Thinking Out Of The Box is committed to providing a progressive and innovative education in a Biblically-based environment that nurtures spiritual, physical, social, and mental growth. We recognize that your child is your greatest treasure. We share your concerns and are here to serve your needs.";"https://www.tootblc.com/get-in-touch";"https://www.facebook.com/Thinking-Out-of-The-Box-162096903817973/?pnref=lhc";;;;"x";"x";"x";"x";;;"https://static.wixstatic.com/media/d24adc_9b778e190ed943de8b3fb9c7c1a99ca3~mv2_d_1600_1600_s_2.png/v1/fill/w_303,h_303,al_c,usm_0.66_1.00_0.01/d24adc_9b778e190ed943de8b3fb9c7c1a99ca3~mv2_d_1600_1600_s_2.png";"6:30AM - 6:30PM";"6:30AM - 6:30PM";"6:30AM - 6:30PM";"6:30AM - 6:30PM";"6:30AM - 6:30PM";"Closed";"Closed";
1173963;"WEST OAK LANE BEACON ACADEMY";"6401 E WISTER STREET";"PHILADELPHIA";"PA";19138;"PHILADELPHIA";2674374008;"https://www.wolcs.org/";;;;;;;;;;;;;;;;;;;;;;
1173964;"TODDLER TOWN EARLY LEARNING CENTER";"1937 W LEHIGH AVE";"PHILADELPHIA";"PA";19132;"PHILADELPHIA";2679283511;"https://www.toddlertownlearningacademy.com/contact.html";;;;;;;;;;;;;;;;;;;;;;
1173966;"ARIELLES WORLD DAYCARE CENTER";"1002 N MARSHALL ST";"PHILADELPHIA";"PA";19123;"PHILADELPHIA";2155153220;;;"At Arielle's World we provide equal opportunity employment and childcare services to families.";;"https://www.facebook.com/ariellesworlddaycare/";;;;"x";"x";"x";;;;;"Open 24/7";"Open 24/7";"Open 24/7";"Open 24/7";"Open 24/7";"Open 24/7";"Open 24/7";
1173965;"AnointedHands Child Development Center Too";"3134 WILLITS RD";"PHILADELPHIA";"PA";19136;"PHILADELPHIA";2154642637;;;;;;;;;;;;;;;;;;;;;;;"Licence not renewed"
1173967;"PRIMOSE SCHOOL OF CENTER CITY PHILADELPHIA";"1635 MARKET ST";"PHILADELPHIA";"PA";19103;"PHILADELPHIA";2155451920;"https://www.primroseschools.com/";;"Primrose Schools® is a national system of accredited private preschools that provides a premier early education and child care experience for children and families. Our Franchise Owners, Leadership Teams and School Staff partner with parents to help build the right foundation for future learning and in life.";"https://www.primroseschools.com/schools/center-city-philadelphia/?utm_source=yext&utm_medium=maplistings&utm_campaign=localmaps";"https://www.facebook.com/PrimroseCenterCity/";"https://www.primroseschools.com/careers/";;;;;"x";"x";;;"https://scontent.fskp2-1.fna.fbcdn.net/v/t1.0-1/p200x200/11351449_10152913927743201_6224541141081853345_n.png?_nc_cat=0&oh=4821b1b37cb73a36818f9db3ff75c8bd&oe=5B85234E";"7AM - 6PM";"7AM - 6PM";"7AM - 6PM";"7AM - 6PM";"7AM - 6PM";"Closed";"Closed";
1173968;"A SECURE FUTURE ACADEMY LLC";"4500 CHESTNUT ST";"PHILADELPHIA";"PA";19139;"PHILADELPHIA";2153866660;;;"Secure Future Academy committed to providing your family with the highest quality education and safe, loving environment that feels like home.";;"https://www.facebook.com/Secure-Future-Academy-165764053829767/";;;;"x";"x";"x";"x";;;;"7AM - 6:30PM";"7AM - 6:30PM";"7AM - 6:30PM";"7AM - 6:30PM";"7AM - 6:30PM";"Closed";"Closed";
1173970;"BUILDING BLOCKS ACADEMY";"4970 LANCASTER AVE";"PHILADELPHIA";"PA";19131;"PHILADELPHIA";6104572214;;;;;;;;;;;;;;;;;;;;;;;
1173969;"NORRIS SQUARE COMMUNITY ALLIANCE-McKinley School";"412 W SUSQUEHANNA AVE # 30";"PHILADELPHIA";"PA";19122;"PHILADELPHIA";2152914896;"http://nscaonline.org/?page_id=36";;"NSCA manages two Early Learning centers, operates three Out-of-School-Time programs at Hunter, McKinley, and Moffet elementary schools, and offers additional early childhood education opportunities through two partner organizations. ";"http://nscaonline.org/?page_id=606";"https://www.facebook.com/NorrisSquareCom";"http://nscaonline.org/?page_id=532";;;;;"x";"x";;;"http://nscaonline.org/wp-content/uploads/2014/11/Banner-logo-transparent-background.png";"9AM - 5PM";"9AM - 5PM";"9AM - 5PM";"9AM - 5PM";"9AM - 5PM";"Closed";"Closed";
1173972;"MARYS LEARNING ACADEMY LLC";"6763 GERMANTOWN AVE";"PHILADELPHIA";"PA";19119;"PHILADELPHIA";2158442279;"http://marys-learning-academy-llc.business.site/";"maryslearningacademy@gmail.com";"Mary's Learning Academy is an early learning program that utilizes Science, Technology, Engineering, Art and Math as our educational philosophy.";"http://marys-learning-academy-llc.business.site/";"https://www.facebook.com/maryslearning/";;;;;"x";"x";"x";;;"https://lh3.googleusercontent.com/-Qt8-o2jxNls/WZDvj7NsoGI/AAAAAAAAACk/rc0vBHyJxzQj08MxeH0PCW58Ur53LWtLQCLoCGAYYCw/w1280-h0-no-v1/MLC%2BWindow%2BDesign%2Bwithout%2BTrees%2Bcopy.jpg";"7AM - 6PM";"7AM - 6PM";"7AM - 6PM";"7AM - 6PM";"7AM - 6PM";"Closed";"Closed";
1173971;"ALAIN LOCKE SCHOOL";"4601 HAVERFORD AVE";"PHILADELPHIA";"PA";19139;"PHILADELPHIA";2679772542;"https://locke.philasd.org/";;"As proud Locke Lions, we are critical thinkers who problem solve.  We are citizens who are peaceful and respectful community members.  We work hard to be responsible learners.  We make safe choices, and we are life-long learners.";"https://locke.philasd.org/";;;;"https://locke.philasd.org/parents/";;;"x";"x";;;;"8:30AM - 3:09PM";"8:30AM - 3:09PM";"8:30AM - 3:09PM";"8:30AM - 3:09PM";"8:30AM - 3:09PM";"Closed";"Closed";
1173973;"BENEVOLENT EDUCATION LIFE LEARNING SERVICES INC";"5900 LATONA ST";"PHILADELPHIA";"PA";19143;"PHILADELPHIA";2154715900;;;;;;;;;;;;;;;;;;;;;;;
1173975;"PROJECT PLAY SCHOOL INC";"1901 S 9TH ST";"PHILADELPHIA";"PA";19148;"PHILADELPHIA";2153093631;"https://www.projectplayschool.org/";"projectplayschool@gmail.com";"Beginning in October 2016, Project P.L.A.Y. at Bok will offer full-time and part-time pre-school options with extended hours for children ages 2 1/2 through 5 years. Bok is a natural fit for the Philadelphia location given the space’s long history as an educational space and its future home for many artists, makers, and community members. ";"https://www.projectplayschool.org/schools/bok-school-south-philadelphia/";"https://www.facebook.com/Project-PLAY-School-138670039535710/";;"https://www.projectplayschool.org/schools/bok-school-south-philadelphia/enrollment-information-for-bok/";;;;"x";"x";;;"https://scontent.fskp2-1.fna.fbcdn.net/v/t1.0-1/c23.0.200.200/p200x200/398267_334656063270439_229264944_n.jpg?_nc_cat=0&oh=da1337cf11af97542d0b3291d9c4cddd&oe=5B98F477";"8AM - 6PM";"8AM - 6PM";"8AM - 6PM";"8AM - 6PM";"8AM - 6PM";"Closed";"Closed";
1173976;"CREATIVE STEPS INC HOLME";"9152 ACADEMY RD";"PHILADELPHIA";"PA";19114;"PHILADELPHIA";2672780106;"https://holme.philasd.org/";"holme.homeandschool@gmail.com";"Effective Communicators who will use verbal, written, artistic and technological forms of communication to give, send, and receive information";"https://holme.philasd.org/";"https://www.facebook.com/thomasholmehomeandschool/";;;"https://www.philasd.org/holme/wp-content/uploads/sites/404/2017/11/Holme-Parent-Handbook2017-2018-2.pdf";;;"x";"x";;;"https://scontent.fskp2-1.fna.fbcdn.net/v/t1.0-1/p200x200/1962649_769008009853222_2479691879376327561_n.jpg?_nc_cat=0&oh=ea29c31437da1e2f9ae362bd3be0d08f&oe=5B934B92";;;;;;;;
1173974;"ANGELIC PHASES LEARNING CENTER LLC";"3206 KENSINGTON AVE # 3210";"PHILADELPHIA";"PA";19134;"PHILADELPHIA";2154261612;;;;;;;;;;;;;;;;;;;;;;;
1173977;"FRANKLIN DAY NURSERY NORTHEAST";"5416 RISING SUN AVE";"PHILADELPHIA";"PA";19120;"PHILADELPHIA";2674285814;;;;;;;;;;;;;;;;;;;;;;;
1173978;"TYME FOR TOTZS LEARNING CENTER LLC";"4180 GERMANTOWN AVE";"PHILADELPHIA";"PA";19140;"PHILADELPHIA";2154578687;;;;;;;;;;;;;;;;;;;;;;;
1173979;"EARLY LEARNING ACADEMY AT CENTRE SQUARE";"1500 MARKET ST";"PHILADELPHIA";"PA";19102;"PHILADELPHIA";2159852085;"https://child-care-preschool.brighthorizons.com/";;"Early Learning Academy at Centre Square is committed to providing the highest-quality child care and early education in the world.";"https://child-care-preschool.brighthorizons.com/PA/Philadelphia/earlylearningacademy?utm_source=yext&utm_medium=directory&utm_campaign=yext_3278&IMS_SOURCE_SPECIFY=Yext";"https://www.facebook.com/earlylearningacademyatcentresquare/";"https://jobs.brighthorizons.com/";;"https://child-care-preschool.brighthorizons.com/pa/philadelphia/earlylearningacademy/parent-resources";"x";"x";"x";"x";;;"https://scontent.fskp2-1.fna.fbcdn.net/v/t1.0-1/p200x200/28168510_1604544999644553_5945961961129778524_n.png?_nc_cat=0&oh=8930ca4636576e955d519b9d49239c81&oe=5B8A79E5";"7AM - 6PM";"7AM - 6PM";"7AM - 6PM";"7AM - 6PM";"7AM - 6PM";"Closed";"Closed";
1173980;"TEMPLE BETH ZION BETH ISRAEL";"300 S 18TH ST";"PHILADELPHIA";"PA";19103;"PHILADELPHIA";2157355142;"https://bzbi.org/";"templeoffice@bzbi.org";"Temple Beth Zion-Beth Israel is an urban center for Jewish life in the heart of Philadelphia. Center City's Conservative congregation.";"https://bzbi.org/learn/";"https://www.facebook.com/temple.bzbi/";;;;;;"x";"x";;"x";"https://bzbi.org/wp-content/themes/bzbiwp/images/logo.png";"8AM - 5PM";"8AM - 5PM";"8AM - 5PM";"8AM - 5PM";"8AM - 3PM";"Closed";"Closed";
1173982;"ALC ACADEMY";"1325 S 33RD ST";"PHILADELPHIA";"PA";19146;"PHILADELPHIA";2153985011;;;;;;;;;;;;;;;;;;;;;;;
1173981;"DREAM PURSUE CONQUER CHILDCARE ACADEMY";"6114 TORRESDALE AVE";"PHILADELPHIA";"PA";19135;"PHILADELPHIA";2154371523;;;;;;;;;;;;;;;;;;;;;;;
1173985;"OLNEY CHARTER HIGH SCHOOL";"100 W DUNCANNON AVE";"PHILADELPHIA";"PA";19120;"PHILADELPHIA";2154563014;"http://www.aspirapa.org/olney/";"info@aspirapa.org";"In addition to the five charter schools that ASPIRA Inc. of PA manages, we also provide a diverse array of programs and extended learning opportunities for youth and families alike. Extended learning time and enrichment beyond the classroom have proven vital to youth success — academically, behaviorally, emotionally, and socially.";"http://www.aspirapa.org/home/programs/";"https://www.facebook.com/OlneyCharter/";"http://www.aspirapa.org/home/staff/";"http://www.aspirapa.org/olney/olney-information-and-enrollment/";"http://www.aspirapa.org/home/parent-information/parents-resources/";;;;"x";;;"https://scontent.fskp2-1.fna.fbcdn.net/v/t1.0-1/c0.0.200.200/p200x200/11895985_946335568746029_4909655226553010561_n.jpg?_nc_cat=0&oh=502bc7bae8e478ebb49392005a07d83a&oe=5B7EDD78";;;;;;;;
1173983;"AMAZING MINDZ LEARNING CENTER LLC";"5703 CHESTER AVE";"PHILADELPHIA";"PA";19143;"PHILADELPHIA";2157270727;;;"Amazing Mindz Learning Center is more then a daycare, it's a home away from home in which your child will feel loved and nurtured.";;"https://www.facebook.com/amazingmindzlearningcenter/?rf=442776495913880";;;;;;"x";;;;"https://scontent.fskp2-1.fna.fbcdn.net/v/t1.0-1/c117.0.200.200/p200x200/13335698_571977956317582_482661302917621359_n.png?_nc_cat=0&oh=b6bf6c7a4bab75ff02d74f4178d79963&oe=5B896734";"6AM - 6PM";"6AM - 6PM";"6AM - 6PM";"6AM - 6PM";"6AM - 6PM";"6AM - 6PM";"6AM - 6PM";
1173984;"EARLY LEADERS";"2100 CHELTEN AVE";"PHILADELPHIA";"PA";19138;"PHILADELPHIA";2157153925;;;"Early Leaders Daycare welcomes children ages 6 weeks-5 years old. Also after school care is available! Become an Early Leader today!!";;"https://www.facebook.com/earlyleaders/";;;;"x";"x";"x";"x";;;"https://scontent.fskp2-1.fna.fbcdn.net/v/t1.0-1/p200x200/16602786_260591917697677_6601162430709419663_n.jpg?_nc_cat=0&oh=4827d6a80e4ecc9dac7c50de22a2b152&oe=5B7C6406";;;;;;;;
1173988;"THE VILLAGE CHILDCARE CENTER LLC";"5435 N 3RD ST";"PHILADELPHIA";"PA";19120;"PHILADELPHIA";2159087786;;;;;;;;;;;;;;;;;;;;;;;
1173989;"DIVINE TREASURES CHILDCARE";"7567 HAVERFORD AVE";"PHILADELPHIA";"PA";19151;"PHILADELPHIA";2152201197;;;"Divine Treasures is a program devoted to the needs of children and families. We teach children and firmly believe that our responsive relationship with parents and caregivers based on love and respect for the child and his or her family. At Divine Treasures, your child will have the opportunity to explore, grow, create, discover, build positive relationships with his or her peers, and become confident leaders.";;"https://www.facebook.com/DivineTreasures215/";;;;"x";"x";"x";"x";"x";;"https://scontent.fskp2-1.fna.fbcdn.net/v/t1.0-1/c1.0.200.200/p200x200/16299555_1660145417618830_2167700336276556617_n.jpg?_nc_cat=0&oh=75c645a2ef1ddc24846a548452945c5d&oe=5B7E1968";;;;;;;;
1173986;"ST LUKES DAYSCHOOL OF GOOD SHEPHERD";"10901 CALERA RD";"PHILADELPHIA";"PA";19154;"PHILADELPHIA";2156328374;"http://www.stlukesdayschool.net/";"ms_sonia@aol.com";"St. Luke's is an educational program serving children 6 months through 5 years of age in NE Philadelphia.We have open enrollment year round.";"http://www.stlukesdayschool.net/";"https://www.facebook.com/stlukesdayschool1973/";;"http://www.stlukesdayschool.net/enroll.html";"http://www.stlukesdayschool.net/parent.html";"x";"x";"x";"x";;;"https://scontent.fskp2-1.fna.fbcdn.net/v/t1.0-1/p200x200/13445561_1098007903575343_4973699635265595776_n.jpg?_nc_cat=0&oh=e2531e3a9b3d9541bf33040475c376f3&oe=5B7B12AC";"6:45AM - 6PM";"6:45AM - 6PM";"6:45AM - 6PM";"6:45AM - 6PM";"6:45AM - 6PM";"Closed";"Closed";
1173987;"LITTLE STEPS DAYCARE LLC";"3500 N 2ND ST";"PHILADELPHIA";"PA";19140;"PHILADELPHIA";2674572309;;;"Day care";;"https://www.facebook.com/Little-Steps-517453245103886/";;;;"x";"x";"x";"x";;;"https://scontent.fskp2-1.fna.fbcdn.net/v/t1.0-1/p200x200/11225387_517468661769011_3115792479188905009_n.jpg?_nc_cat=0&oh=d389c1799564e614b09be3fc86cf98ca&oe=5B5198C2";"7AM - 6PM";"7AM - 6PM";"7AM - 6PM";"7AM - 6PM";"7AM - 6PM";"Closed";"Closed";
1173990;"MAYFAIR OST";"2901 PRINCETON AVE";"PHILADELPHIA";"PA";19149;"PHILADELPHIA";2156245920;"http://cssoutofschooltime.org/";;"Mayfair Out-of-School Time Program (OST), located in Philadelphia (19149) provides creative programming for children in grades K-5, ages 5-11 and children in grades 6-8, ages 10-14  in afterschool hours and eight weeks during the summer camp";"http://cssoutofschooltime.org/mayfair-ost-grades-k-5/";"https://www.facebook.com/CSSOutofSchoolTimePrograms/";;;;;;;"x";"x";"x";"http://cssoutofschooltime.org/wp-content/uploads/2015/11/lgosos.png";"6AM - 6PM";"6AM - 6PM";"6AM - 6PM";"6AM - 6PM";"6AM - 6PM";"Closed";"Closed";
1173991;"HOPE INSTITUTE OF SCIENCE SCHOOL FOR GIRLS LLC";"1558 WADSWORTH AVE";"PHILADELPHIA";"PA";19150;"PHILADELPHIA";2156216302;"https://www.hisschoolforgirls.com/";"hisschool4girls@gmail.com";"Hope Institute of Science (H.I.S) School for Girls is a STEM based private preschool school that allows children to participate in scientific curriculum";"https://www.hisschoolforgirls.com/";"https://www.facebook.com/hisschool4girls/?rf=720920174741629";;;;;"x";"x";;;;"https://www.hisschoolforgirls.com/uploads/6/9/2/9/69296693/his-school-logo-copy.jpg?422";"6AM - 6PM";"6AM - 6PM";"6AM - 6PM";"6AM - 6PM";"6AM - 6PM";"Closed";"Closed";
1173992;"Agape Childcare and Learning Center";"5920 TORRESDALE AVE";"PHILADELPHIA";"PA";19135;"PHILADELPHIA";2152895888;;;;;;;;;;;;;;;;;;;;;;;
1173993;"LIL ACHIEVERS EDUCATIONAL ACADEMY";"4806 N BROAD ST";"PHILADELPHIA";"PA";19141;"PHILADELPHIA";2158735689;;;;;;;;;;;;;;;;;;;;;;;"Closed"
1173995;"INQUIRY CHARTER SCHOOL";"1301 BELMONT AVE";"PHILADELPHIA";"PA";19104;"PHILADELPHIA";2158235541;"http://www.belmontcharternetwork.org/";"ics@belmontcharternetwork.org";"At Inquiry, we believe that how children learn is as important as what they learn. Our methods encourage creativity, support problem solving, and produce life-long learners.";"http://www.belmontcharternetwork.org/ics/";"https://www.facebook.com/InquiryCharterSchool/";"http://www.belmontcharternetwork.org/careers/";"http://www.belmontcharternetwork.org/ics/apply/";"http://www.belmontcharternetwork.org/wp-content/uploads/2017/09/ICS-Family-Handbook-2017-2018.pdf";;"x";"x";"x";"x";;;;;;;;;;
1173996;"GROWING TOGETHER DAYCARE SERVICES 2";"6671 GERMANTOWN AVE";"PHILADELPHIA";"PA";19119;"PHILADELPHIA";2156217394;;;;;;;;;;;;;;;;;;;;;;;
1173994;"APPLE TREE EARLY LEARNING ACADEMY LLC";"1509 WADSWORTH AVE";"PHILADELPHIA";"PA";19150;"PHILADELPHIA";2673355409;;;;;;;;;;;;;;;;;;;;;;;
1173997;"MICOS WONDERLAND DAYCARE CENTER II";"4838 FRANKFORD AVE";"PHILADELPHIA";"PA";19124;"PHILADELPHIA";2159411437;;;"Mico's Wonderland Daycare centers provide a safe and nurturing environment where children receive caring, attentive, age appropriate interactive tasks.";;"https://www.facebook.com/micoswonderland1and2/";;;;;;;;;;;"Open 24/7";"Open 24/7";"Open 24/7";"Open 24/7";"Open 24/7";"Open 24/7";"Open 24/7";
1173999;"OVERBROOK ELEMENTARY SCHOOL";"6201 LEBANON AVE";"PHILADELPHIA";"PA";19151;"PHILADELPHIA";2158797740;"https://overbrook.philasd.org/";;"The mission of Overbrook Elementary School is to provide a high quality education utilizing 21st Century technology that prepares, ensures and empowers all Overbrook Elementary students to achieve their full intellectual and social potential in order to become lifelong learners and productive members of society.";"https://overbrook.philasd.org/";;;;"https://overbrook.philasd.org/parents/";;;"x";"x";;;;"8AM - 3:09PM";"8AM - 3:09PM";"8AM - 3:09PM";"8AM - 3:09PM";"8AM - 3:09PM";"Closed";"Closed";
1173998;"CAYUGA OST";"4344 N 5TH ST";"PHILADELPHIA";"PA";19140;"PHILADELPHIA";2155873588;"https://cayuga.philasd.org/";;"Cayuga Elementary School is multi-culturally diverse, serving students from K-5th grades.  Our vision promotes the achievement of high proficiency academic levels for all students through the use of the Pennsylvania Common Core set by the School District of Philadelphia and by teachers and paraprofessionals that are highly qualified for their positions.";"https://cayuga.philasd.org/";;;;"https://cayuga.philasd.org/parents/";;;"x";"x";;;;"8:21AM - 3PM";"8:21AM - 3PM";"8:21AM - 3PM";"8:21AM - 3PM";"8:21AM - 3PM";"Closed";"Closed";
1174000;"DIORS LITTLE ANGELS CENTER II";"6106 LANSDOWNE AVE";"PHILADELPHIA";"PA";19151;"PHILADELPHIA";2155719183;;;;;;;;;;;;;;;;;;;;;;;
1174001;"THE PLAYPEN ACADEMY DAYCARE LLC";"1420 POINT BREEZE AVE";"PHILADELPHIA";"PA";19146;"PHILADELPHIA";2677586537;;;;;"https://www.facebook.com/The-Playpen-Academy-132894863429614/";;;;;;;;;;;"6AM - 6PM";"6AM - 6PM";"6AM - 6PM";"6AM - 6PM";"6AM - 6PM";"6AM - 6PM";"6AM - 6PM";
1174002;"A MOTHERS TOUCH DAYCARE 3";"1100 W GIRARD AVE";"PHILADELPHIA";"PA";19123;"PHILADELPHIA";2157879682;"http://www.amotherstouchchildcareacademy.com/";"info@amotherstouchchildcareacademy.com";"At Mother’s Childcare and Learning Academy, we help ensure that children realize their full potential, and support parents as children's first and most important teachers. Part of our mission is creating a child-friendly learning environment where children can grow up safe, healthy and with a love of learning. We strive to ensure our academy offers plenty of safe and inexpensive learning opportunities that remind both adults and children about the importance of fun in learning.";"http://www.amotherstouchchildcareacademy.com/";"https://www.facebook.com/amotherstouchchildcareacademy/";;;;;;"x";"x";"x";"x";"https://scontent.fskp2-1.fna.fbcdn.net/v/t1.0-1/17626112_403981049973764_6144582456520397227_n.jpg?_nc_cat=0&oh=b923d324316cdb05b45c4c9b8a43d8ff&oe=5B8A2CE8";"6AM - 6PM";"6AM - 6PM";"6AM - 6PM";"6AM - 6PM";"6AM - 6PM";"Closed";"Closed";
1174003;"CHRISTIAN LIGHT EDCATIONAL CENTER";"204 S 60TH ST";"PHILADELPHIA";"PA";19139;"PHILADELPHIA";2154763307;;;;;"https://www.facebook.com/pages/Christian-Light-Educational-Center/541484582662275";;;;;;;;;;;;;;;;;;
1174004;"MS LESLIES WIGGLES N GIGGLES LEARNING ACADEMY";"2910 S 70TH ST";"PHILADELPHIA";"PA";19142;"PHILADELPHIA";2677131774;;;;;;;;;;;;;;;;;;;;;;;
1174005;"A BRIGHTER 2MORROW III";"5312 MARKET ST";"PHILADELPHIA";"PA";19139;"PHILADELPHIA";2154714529;;"abrighter2morrowforus@gmail.com";"An Evolution of Exceptional Childcare";;"https://www.facebook.com/ABrighter2Morrowforus/";;;;;;;;;;"https://scontent.fskp2-1.fna.fbcdn.net/v/t1.0-1/p200x200/16729553_1245972975520760_5341057632570301176_n.jpg?_nc_cat=0&oh=abe608e84ac3c9b63c1d5d5029374822&oe=5B9C90D9";;;;;;;;
1174007;"6TH STREET NANAS DAYCARE LLC";"3900 N 6TH ST";"PHILADELPHIA";"PA";19140;"PHILADELPHIA";2674572717;;;;;;;;;;;;;;;;;;;;;;;
1174006;"CHRISTIAN LIGHT EDUCATIONAL CENTER";"211 S 60TH ST";"PHILADELPHIA";"PA";19139;"PHILADELPHIA";;;;;;;;;;;;;;;;;;;;;;;;
1174009;"LITTLE TREE LEARNING CENTER INC";"7024 CASTOR AVE";"PHILADELPHIA";"PA";19149;"PHILADELPHIA";2157424311;;;;;;;;;;;;;;;;;;;;;;;
1174008;"KIDS R US ANNEX INC";"6366 STENTON AVE";"PHILADELPHIA";"PA";19138;"PHILADELPHIA";2673367193;;;;;;;;;;;;;;;;;;;;;;;
1174010;"YOUR CHILDS WORLD LEARNING CENTER INC";"2400 S 71ST ST";"PHILADELPHIA";"PA";19142;"PHILADELPHIA";2672337031;"http://www.yourchildsworldlc.com/";;"Where your child will feel free to explore all possibilities";"http://www.yourchildsworldlc.com/";"https://www.facebook.com/yourchildsworldlc/?hc_ref=ARQn3GEZgziEzS_l0Uzdgngil4bti7GUlnS0pRT0CZ9xRraoEb-14aMEb5j-49r3F3k";"http://www.yourchildsworldlc.com/job-opportunities-.html";"http://www.yourchildsworldlc.com/register.html";"http://www.yourchildsworldlc.com/parent-portal.html";;;"x";"x";"x";;;"7AM - 5PM";"7AM - 5PM";"7AM - 5PM";"7AM - 5PM";"7AM - 5PM";"Closed";"Closed";
1174011;"EARLY LITERACY ACADEMY OF THE DELAWARE VALLEY";"1601 N 4TH ST";"PHILADELPHIA";"PA";19122;"PHILADELPHIA";2157631876;"https://www.earlyliteracyacademy.com/";"info@earlyliteracyacademy.com";"Early Literacy Academy Childcare Center is a safe, clean and nurturing environment for children six weeks to five years old. We provide children with research-based learning opportunities designed through play and inquiry that capitalize on a child’s natural curiosity and excitement.";"https://www.earlyliteracyacademy.com/";"https://www.facebook.com/earlyliteracyacademy/";"https://docs.wixstatic.com/ugd/b8b618_0c491cef205a4976a8d9ed1e77a33bef.pdf";;;"x";"x";"x";"x";;;"https://static.wixstatic.com/media/b8b618_1dc00f3827274e97bd4dc3c8b1b22fe3~mv2.png/v1/fill/w_896,h_238,al_c,usm_0.66_1.00_0.01/b8b618_1dc00f3827274e97bd4dc3c8b1b22fe3~mv2.png";"6:30AM - 6:30PM";"6:30AM - 6:30PM";"6:30AM - 6:30PM";"6:30AM - 6:30PM";"6:30AM - 6:30PM";"Closed";"Closed";
1174012;"OXFORD CIRCLE CCDA CHILDCARE CENTER";"5600 LANGDON ST";"PHILADELPHIA";"PA";19124;"PHILADELPHIA";2675715661;"https://www.kinderacademy.com/";;"If you are a parent looking for high quality childcare that provides a structured pre-school program with the convenience of daycare hours, call us or stop by one of our locations today. All of our locations feature state-certified teaching professionals and all locations are licensed with the State of Pennsylvania. ";"https://www.kinderacademy.com/locations";"https://www.facebook.com/kinderacademyus";;;;"x";"x";"x";;;;"https://static.wixstatic.com/media/7f86a9_668a005d95644da7945b8d4d27fab387~mv2.png/v1/fill/w_133,h_117,al_c,usm_0.66_1.00_0.01/7f86a9_668a005d95644da7945b8d4d27fab387~mv2.png";;;;;;;;
1174013;"LITTLE MISS MUFFINS LEARNING ACADEMY";"7171 OGONTZ AVE";"PHILADELPHIA";"PA";19138;"PHILADELPHIA";2152240400;"https://www.instagram.com/ms_muffin1985/";;;;;;;;;;;;;;;;;;;;;;
1174014;"DESTINYS CHILDREN EARLY LEARNING ACADEMY";"3529 HAVERFORD AVE";"PHILADELPHIA";"PA";19104;"PHILADELPHIA";2153275173;;;"Childcare Learning Center /Pre K COUNTS Center free CHILDCARE for 3 and 4 year olds starting in September 2018";;"https://www.facebook.com/Destinys-Children-Early-Learning-Center-1147443872024094/?ref=page_internal";;;;"x";"x";"x";"x";;;;"7:30AM - 5:30PM";"7:30AM - 5:30PM";"7:30AM - 5:30PM";"7:30AM - 5:30PM";"7:30AM - 5:30PM";"Closed";"Closed";
1174015;"JUST ABOUT ME EARLY LEARNING CENTER";"5901 N BROAD ST";"PHILADELPHIA";"PA";19141;"PHILADELPHIA";2673352240;;;;;;;;;;;;;;;;;;;;;;;
1174016;"SKIES THE LIMIT";"1346 N 27TH ST";"PHILADELPHIA";"PA";19121;"PHILADELPHIA";2159191170;;;;;;;;;;;;;;;;;;;;;;;"Licence not renewed"
1174067;"DARLENES WEE CARE 4 KIDS INC";"6800 MARKET ST";"UPPER DARBY";"PA";19082;"DELAWARE";6102846242;"http://www.darlenesweecare4kids.com/";"darlenesweecare4kids@gmail.com";"Darlene’s Wee Care 4 Kids is a full-service, fully licensed infant and child care center in Upper Darby, PA, serving children 6 weeks to 13 years";"http://www.darlenesweecare4kids.com/";"https://www.facebook.com/darlenesweecare4kids/";;"http://www.darlenesweecare4kids.com/enroll/";;"x";"x";"x";"x";"x";"x";"https://dta0yqvfnusiq.cloudfront.net/darlenesweecare4kids/2015/11/main-site-logo.png";"6AM - 11PM";"6AM - 11PM";"6AM - 11PM";"6AM - 11PM";"6AM - 11PM";"8AM - 6PM";"6:30AM - 6PM";
1174066;"THE DISCOVERY TREE III RIDLEY TOWNSHIP LOCATION";"1312 MACDADE BLVD";"WOODLYN";"PA";19094;"DELAWARE";4848162886;"http://thediscoverytree.net/index.html";"director@thediscoverytree.net";"The Discovery Tree is a Full-Day Preschool and Child Care Center for Ages 3 Months through 5 Years. We have three locations in Delaware County, Pennsylvania. Two locations are in Drexel Hill and one locations is in Ridley Township (Woodlyn).";"http://thediscoverytree.net/index.html";"https://www.facebook.com/pg/TheDiscoveryTreePage/about/";"http://thediscoverytree.net/employment_opportunities.html";"http://thediscoverytree.net/enrollment.html";"http://thediscoverytree.net/Parent%20Handbook%20revised%20Sept%202016.pdf";"x";"x";"x";"x";;;"http://thediscoverytree.net/newimages/logodiscovery4.png";"7AM - 6PM";"7AM - 6PM";"7AM - 6PM";"7AM - 6PM";"7AM - 6PM";"Closed";"Closed";
1174065;"LIL DARLINGS III CHILDCARE CENTER";"1609 W 9TH ST";"CHESTER";"PA";19013;"DELAWARE";6108744698;;;;;;;;;;;;;;;;;;;;;;;
1174064;"FAITHFUL HANDS ACADEMY";"677 LONG LN";"UPPER DARBY";"PA";19082;"DELAWARE";4844620120;;"info@faithfulhandsacademy.com";;;"https://www.facebook.com/Faithful-Hands-Academy-LLC-1487518554618742/";;;;;;;;;;"https://scontent.fskp2-1.fna.fbcdn.net/v/t1.0-1/p200x200/22815199_1487519141285350_2841621119560480573_n.png?_nc_cat=0&oh=40c9cf3dd0066c5172d2fe957f2d3dc7&oe=5B85E266";"6AM - 9PM";"6AM - 9PM";"6AM - 9PM";"6AM - 9PM";"6AM - 9PM";"Closed";"Closed";
1174069;"LITTLE JOURNEYS ACADEMY LLC";"3722 WEST CHESTER PIKE";"NEWTOWN SQUARE";"PA";19073;"DELAWARE";6109864822;"https://www.littlejourneysacademy.com/";"LittleJourneysAcademy@gmail.com";"Our mission is to offer quality, affordable, flexible, and safe child care for all children from eight weeks through five years of age, while providing peace of mind for the parents of every child.";"https://www.littlejourneysacademy.com/";"https://www.facebook.com/Little-Journeys-Academy-1460180217637744/?fref=ts";;"https://www.littlejourneysacademy.com/news__events";;"x";"x";"x";"x";;;"https://scontent.fskp2-1.fna.fbcdn.net/v/t1.0-1/p200x200/15078604_1730903907232039_5813238160945593629_n.jpg?_nc_cat=0&oh=a6ad59387f1bacfb12d2f9c0667a2326&oe=5B88B8C8";"7AM - 6PM";"7AM - 6PM";"7AM - 6PM";"7AM - 6PM";"7AM - 6PM";"Closed";"Closed";
1174068;"FAMILY SUPPORT SERVICES";"1400 LAWRENCE RD";"HAVERTOWN";"PA";19083;"DELAWARE";6108535960;;;;;;;;;;;;;;;;;;;;;;;
1174072;"CORNERSTONE LEARNING CENTER";"2275 W CHESTER PIKE";"BROOMALL";"PA";19008;"DELAWARE";6103561923;"https://www.cornerstoneloveandlearning.org/";"cornerstoneloveandlearning@gmail.com";"Our mission is to provide the exceptional care and education, every child deserves, and to respect every child as God's creation.";"https://www.cornerstoneloveandlearning.org/";"https://www.facebook.com/cornerstoneloveandlearning.org/";;"https://www.cornerstoneloveandlearning.org/tuition-forms";"https://www.cornerstoneloveandlearning.org/tuition-forms";"x";"x";"x";"x";;;"https://scontent.fskp2-1.fna.fbcdn.net/v/t1.0-1/c7.0.195.195/11665697_1026857227332427_7532594543667048658_n.png?_nc_cat=0&oh=0d1b39131c5d4946d54e5779b69dffbd&oe=5B89FC67";"7AM - 6PM";"7AM - 6PM";"7AM - 6PM";"7AM - 6PM";"7AM - 6PM";"Closed";"Closed";
1174073;"FREDERICK DOUGLASS CHRISTIAN SCHOOL";"700 CENTRAL AVE";"CHESTER";"PA";19013;"DELAWARE";6104999030;"http://www.gebch.com/";"terry.doyle@gebch.com";"Great has more than a place in our name. Greatness describes our goals and objectives in ministry. Because we have a Great Saviour we strive for Greatness in: our Pastorate, our Preaching, our Teaching, our Praise, our Worship and Greatness in all our Ministries. ";"http://www.gebch.com/";"https://www.facebook.com/FrederickDouglassChristianSchool/";;;;;;;;;;;;;;;;;;
1174071;"CENTER FOR ACADEMIC SUPPORT AND STUDENT ENRICHMENT";"527 S WYCOMBE AVE";"LANSDOWNE";"PA";19050;"DELAWARE";6109903952;;;;;;;;;;;;;;;;;;;;;;;
1174070;"MEDIA ELEMENTARY";"FRONT AND MONROE STREET";"MEDIA";"PA";19063;"DELAWARE";6106276800;"https://www.rtmsd.org/";"siteadmin@rtmsd.org  ";"Welcome to the Media Elementary School community.  I am proud and honored to be a member of a school community that is steeped in tradition, dedicated to educating the whole child, and committed to excellence in education.  It’s a great day to be a Mustang";"https://www.rtmsd.org/mediaelementary";;;;"https://www.rtmsd.org/Page/18537";;;"x";"x";;;"https://www.rtmsd.org/cms/lib/PA01000204/Centricity/Template/GlobalAssets/images///Logos/Logo.png";"8AM - 4:30PM";"8AM - 4:30PM";"8AM - 4:30PM";"8AM - 4:30PM";"8AM - 4:30PM";"Closed";"Closed";
1174074;"GLENWOOD ELEMENTARY";"122 S PENNELL RD";"MEDIA";"PA";19063;"DELAWARE";6106276900;"https://www.rtmsd.org/";"ebucci@rtmsd.org";"Glenwood Elementary is a kindergarten through fifth grade school located in the Middletown Township";"https://www.rtmsd.org/glenwoodelementary";;;"https://www.rtmsd.org/site/Default.aspx?PageID=512";"https://www.rtmsd.org/Page/10890";;;"x";"x";"x";;"https://www.rtmsd.org/cms/lib/PA01000204/Centricity/Template/GlobalAssets/images///Logos/Logo.png";;;;;;;;
1174082;"HAPPY MINDS MONTESSORI";"1355 BUSINESS CENTER DR";"HORSHAM";"PA";19044;"MONTGOMERY";2674774550;"http://www.happymindsmontessori.com/";"info@happymindsmontessori.com";"Happy Minds Montessori is a Montessori preschool/daycare in Horsham, PA";"http://www.happymindsmontessori.com/";"https://www.facebook.com/happymindsmontessori/";;"http://www.happymindsmontessori.com/admission.html";"http://www.happymindsmontessori.com/parents.html";"x";"x";"x";"x";;;"http://www.happymindsmontessori.com/images/logo.png";"7AM - 6PM";"7AM - 6PM";"7AM - 6PM";"7AM - 6PM";"7AM - 6PM";"Closed";"Closed";
1174083;"UKRAINIAN LEARNING CENTER FOR CHILDREN";"700 CEDAR RD";"ABINGTON";"PA";19001;"MONTGOMERY";2156630381;"https://www.ueccphila.org/";"contact@ueccphila.org";"The mission of the ULCC is to fully immerse children in Ukrainian culture, heritage, tradition and language with multi-cultural awareness and respect for diversity.";"https://www.ueccphila.org/organizations-at-the-uecc/";"https://www.facebook.com/pg/Ukrainian-Learning-Center-for-Children-521976041308079/about/?ref=page_internal";;"https://www.ueccphila.org/forms/";;;;;;;;"https://scontent.fskp2-1.fna.fbcdn.net/v/t1.0-1/c218.0.193.193/1935511_521976687974681_7813381218632313054_n.jpg?_nc_cat=0&oh=16a60f1d1931524d00ed6c4ac93c972f&oe=5B88D5D9";"9AM - 4PM";"9AM - 4PM";"9AM - 4PM";"9AM - 4PM";"9AM - 4PM";"Closed";"Closed";
1174084;"LITTLE SPROUTS LEARNING CENTER";"406 N SUMNEYTOWN PIKE";"NORTH WALES";"PA";19454;"MONTGOMERY";2156160675;"http://www.littlesprouts-learning.com/";"info@littlesprouts-learning.com";"Little Sprouts Learning Center, is a fully licensed child care facility in North Wales, PA that believes in pairing education with fun and exciting activities. We offer full and part-time infant, toddler, preschool, pre-kindergarten, before and after school developmental and learning programs. We are committed to providing each and every child that comes through our door with a safe and fun experience by offering the highest quality child care services in the North Penn area";"http://www.littlesprouts-learning.com/";"https://www.facebook.com/pg/Little-Sprouts-Learning-Center-391595374362371/about/";"http://www.littlesprouts-learning.com/careers/";;;"x";"x";"x";"x";"x";;"http://www.littlesprouts-learning.com/wp-content/uploads/2015/07/logo-little-sprouts.png";"6:30AM - 6PM";"6:30AM - 6PM";"6:30AM - 6PM";"6:30AM - 6PM";"6:30AM - 6PM";"Closed";"Closed";
1174085;"IVY LEAGUE EARLY LEARNING CENTER";"1908 W POINT PIKE";"LANSDALE";"PA";19446;"MONTGOMERY";6109312761;;"info@theivyleagueelc.com";"Ivy League Early Learning Center is a newly state licensed childcare program in Lansdale, PA. We are conveniently close to Sumneytown Pike and Merck.";;"https://www.facebook.com/Ivy-League-Early-Learning-Center-1128781127250151/";;;;"x";"x";"x";"x";;;"https://scontent.fskp2-1.fna.fbcdn.net/v/t1.0-1/p200x200/16507947_1128995033895427_8945546159627320937_n.jpg?_nc_cat=0&oh=29587ce68c96b8caee13c0d2db88029f&oe=5B9BF498";"6:30AM - 6PM";"6:30AM - 6PM";"6:30AM - 6PM";"6:30AM - 6PM";"6:30AM - 6PM";"Closed";"Closed";
1174087;"STEPPING STONES NURSERY SCHOOL AND DAYCARE";"40 N MAIN ST";"HATFIELD";"PA";19440;"MONTGOMERY";2153682052;"http://gracelutheranhatfield.org/";"steppingstonesoffice@verizon.net";"The development, growth and nurturing of children in a safe environment is our highest priority. We seek to provide an environment based on Christian values in which children can develop age-appropriate social and emotional skills, learn and explore, welcome the gift of diversity, and achieve solid, foundational steps for their future success.";"http://gracelutheranhatfield.org/stepping-stones/";;;"http://gracelutheranhatfield.org/stepping-stones/enrollment-information/";"http://gracelutheranhatfield.org/stepping-stones/parent-resources/";"x";"x";"x";"x";;;"http://gracelutheranhatfield.org/wp-content/uploads/2014/10/grace_200.png";"7AM - 5:30PM";"7AM - 5:30PM";"7AM - 5:30PM";"7AM - 5:30PM";"7AM - 5:30PM";"Closed";"Closed";
1174086;"UPPER PERKIOMEN YMCA SCHOOL AGE PROGRAM";"1399 QUAKERTOWN RD";"PENNSBURG";"PA";18073;"MONTGOMERY";2156799622;"https://philaymca.org/";;"The Upper Perkiomen Valley YMCA, serving Pennsburg, East Greenville, Green Lane, Hereford, Palm and the surrounding communities, offers a wide range of programs for children and teens including swim lessons, sports, fitness, karate and day camps. For adults and seniors, the Y has personal training, a variety of group exercise classes, water aerobics and free babysitting services.";"https://philaymca.org/locations/upper-perkiomen-valley/";"https://www.facebook.com/UpperPerkY";"https://philaymca.org/about-us/careers/";;;"x";"x";"x";"x";"x";"x";"https://philaymca.org/wp-content/themes/philly_ymca/images/white-logo-2018.png";"5AM - 10PM";"5AM - 10PM";"5AM - 10PM";"5AM - 10PM";"5AM - 9PM";"7AM - 6PM";"7AM - 5PM";
1174089;"GWYNEDD FRIENDS SCHOOL";"1101 DEKALB PIKE";"NORTH WALES";"PA";19454;"MONTGOMERY";2156995392;"http://www.gwyneddfriendsschool.org/";"dberdougo@gwyneddfriendsschool.org";"Gwynedd Friends School offers an educational program rooted in Quaker values to preschool and kindergarten-aged children";"http://www.gwyneddfriendsschool.org/";"https://www.facebook.com/gwyneddfriendsschool/";;"http://www.gwyneddfriendsschool.org/admissions/come-visit-us/";;;;"x";"x";;;"https://scontent.fskp2-1.fna.fbcdn.net/v/t1.0-1/p200x200/13718692_174026586347577_9127551839227446230_n.jpg?_nc_cat=0&oh=c7b74ec7c66e2341a582bdb6af5b4a9d&oe=5B833681";;;;;;;;
1174088;"PFVY RUPERT ELEMENTARY SCHOOL";"1230 SOUTH ST";"POTTSTOWN";"PA";19464;"CHESTER";6103237300;"http://www.pottstownschools.com/";"kbenfield@pottstownk12.org ";"It is The Mission of the Pottstown School District to prepare each student, by name, for success at every level.";"http://www.pottstownschools.org/rupertelementary_home.aspx";"https://www.facebook.com/RupertElementarySchoolPottstown/";"http://www.pottstownschools.org/EmploymentOpportunities.aspx";"http://www.pottstownschools.org/StudentRegistration.aspx";"http://www.pottstownschools.org/Downloads/2016-17%20ELEM%20STUDENT%20HANDBOOK4.pdf";;;"x";"x";;;"http://www.pottstownschools.com/sysimages/logo.png";"8:40AM - 2:40PM";"8:40AM - 2:40PM";"8:40AM - 2:40PM";"8:40AM - 2:40PM";"8:40AM - 2:40PM";"Closed";"Closed";
1174090;"WILLOW NATURE DAY SCHOOL";"109 YORK RD";"WILLOW GROVE";"PA";19090;"MONTGOMERY";2153667871;;;;;;;;;;;;;;;;;;;;;;;
1174091;"UPPER MERION EXTENDED DAY BELMONT";"200 ANDERSON RD";"KING OF PRUSSIA";"PA";19406;"CHESTER";6102657970;"https://www.umasd.org/";"jzelli@umasd.org";"The UMASD Extended Day Program is self-supporting.  Funding is not provided through residential tax dollars nor by the Upper Merion Area School District.  However, the school district does provide the locations to serve those children in our school community registered for the Extended Day program.";"https://www.umasd.org/domain/886";;;;"https://www.umasd.org/Page/10544";;;"x";"x";;;"https://www.umasd.org/cms/lib/PA01000379/Centricity/Template/GlobalAssets/images///logos/upper_merion.png";"8AM - 3:30PM";"8AM - 3:30PM";"8AM - 3:30PM";"8AM - 3:30PM";"8AM - 3:30PM";"Closed";"Closed";
1174092;"ANTIOCH PRESCHOOL AND CHILDCARE";"ONE ANTIOCH AVE";"CONSHOHOCKEN";"PA";19428;"MONTGOMERY";6108286760;"http://www.antiochurch.org/";"office.antioch@gmail.com";"Antioch Academy & Child Care Center is to provide a safe, caring, environment to meet the needs of the children in our care, and to assist them in their spiritual, physical, emotional, social, and intellectual growth";"http://www.antiochurch.org/content/764.html";"https://www.facebook.com/Rev-Sungkee-Ho-215160145205212/";;"http://www.antiochurch.org/sites/default/files/REGISTRATION%20FORM.pdf";;"x";"x";"x";"x";;;"http://www.antiochurch.org/sites/default/files/pictures/antioch_preschool.png";;;;;;;;
1174094;"YMCA OF GREATER PITTSBURGH/PHILLIPS ELEMENTARY";"1150 JACKS RUN RD";"NORTH VERSAILLES";"PA";15137;"ALLEGHENY";4126970694;"http://www.ymcaofpittsburgh.org/base_locations/";"base@ymcapgh.org";"As the largest provider of school-age programs in the Greater Pittsburgh area, we help thousands of children every day reach their fullest potential in a welcoming, supportive environment.";"http://www.ymcaofpittsburgh.org/base_locations/#PennTrafford";"https://www.facebook.com/ymcapgh/";;;;;;;;"x";;"https://scontent.fskp2-1.fna.fbcdn.net/v/t1.0-1/p200x200/13138852_1192630564082671_8998187181543513958_n.jpg?_nc_cat=0&oh=04ed53a3d441cd1397c9dbeceeca28f4&oe=5B907C50";"2:51PM – 6PM";"2:51PM – 6PM";"2:51PM – 6PM";"2:51PM – 6PM";"2:51PM – 6PM";"Closed";"Closed";
1174095;"YMCA OF GREATER PGH/GREENFIELD ELEMENTARY";"1 ALGER ST";"PITTSBURGH";"PA";15207;"ALLEGHENY";4124215648;"http://www.ymcaofpittsburgh.org/base_locations/";"base@ymcapgh.org";"As the largest provider of school-age programs in the Greater Pittsburgh area, we help thousands of children every day reach their fullest potential in a welcoming, supportive environment.";"http://www.ymcaofpittsburgh.org/base_locations/#Greenfield";"https://www.facebook.com/ymcapgh/";;;;;;;;"x";;"https://scontent.fskp2-1.fna.fbcdn.net/v/t1.0-1/p200x200/13138852_1192630564082671_8998187181543513958_n.jpg?_nc_cat=0&oh=04ed53a3d441cd1397c9dbeceeca28f4&oe=5B907C50";"7AM - 9PM";"7AM - 9PM";"7AM - 9PM";"7AM - 9PM";"7AM - 9PM";"Closed";"Closed";
1174096;"Aunt Lettes House LLC";"1508 MIFFLIN ST";"HOMESTEAD";"PA";15120;"ALLEGHENY";4129010007;;;;;;;;;;;;;;;;;;;;;;;
1174097;"LEARNING AND EDUCATIONAL DAYCARE";"212 E 8TH AVE";"HOMESTEAD";"PA";15120;"ALLEGHENY";4122053287;"http://www.learningdaycare.com/";;"OUR FOCUS IS PROVIDING THE HIGHEST QUALITY CARE FOR YOU CHILD IN A SAFE, COMFORTABLE ENVIRONMENT. WE PROMOTE HEALTHY EARLY-CHILDHOOD DEVELOPMENT ALLOWING CHILDREN TO SOCIALIZE AND LEARN IN A LOVING SETTING STRUCTURED BY THEIR NEEDS. OUR CURRICULUM ENCOMPASSES SOCIAL SKILLS, FINE MOTOR SKILLS, GROSS MOTOR SKILLS, LANGUAGE, MUSIC, DRAMATIC PLAY, SCIENCE, MATH, ART AND CREATIVITY ALL WHILE HAVING FUN.";"http://www.learningdaycare.com/";"https://www.facebook.com/Learning-Educational-Daycare-1784827501735113/";;;;"x";"x";"x";"x";;;"http://static1.squarespace.com/static/5773efb215d5dbbfbeb46274/t/5773f1e9e4fcb59a25f807d8/1467764195898/?format=1500w";"6:30AM - 7PM";"6:30AM - 7PM";"6:30AM - 7PM";"6:30AM - 7PM";"6:30AM - 7PM";"Closed";"Closed";
1174098;"YMCA of Sewickley Valley-Moon Middle School";"904 BEAVER GRADE RD";"CORAOPOLIS";"PA";15108;"ALLEGHENY";4122649440;"https://www.sewickleyymca.org/";" akuzniarski@sewickleyymca.org";"The Y strives to meet your child’s individual needs by ensuring enthusiasm and excitement for learning and positive attention. At the Sewickley YMCA we utilize age-appropriate curriculum with a focus on S.T.R.E.A.M. (Science, Technology, Reading, Engineering, Arts and Math).";"https://www.sewickleyymca.org/programs/%E2%80%8Bmoon-area-school-age-child-care/middle-school-pack%E2%80%8B";;;;"https://www.sewickleyymca.org/sites/default/files/documents/SACC%20Handbook%202016.pdf";;;;;"x";;"https://www.facebook.com/SewickleyY/";"3PM - 6:30PM";"3PM - 6:30PM";"3PM - 6:30PM";"3PM - 6:30PM";"3PM - 6:30PM";"Closed";"Closed";
1174099;"AFTER SCHOOL ACADEMY OF PENN HILLS";"10739 FRANKSTOWN RD";"PITTSBURGH";"PA";15235;"ALLEGHENY";4127276323;;;"The After School Academy of Penn Hills is an after school child care business located in the Penn Hills area of Pittsburgh.";;"https://www.facebook.com/After-School-Academy-of-Penn-Hills-1765843326987356/";;;;;;;;"x";;;"2:30AM -7PM";"2:30AM -7PM";"2:30AM -7PM";"2:30AM -7PM";"2:30AM -7PM";"Closed";"Closed";
1174100;"YMCA OF GREATER PITTSBURGH/PHILLIPS ELEMENTARY";"1917 SARAH ST";"PITTSBURGH";"PA";15203;"ALLEGHENY";4127736442;"http://www.pittsburghphillips.com/";"mcalvert1@pghboe.net";"A safe school where students soar to their highest potential as they grow to be life-long learners, creative thinkers, and contributing members of their community.";"http://www.ymcaofpittsburgh.org/base_locations/#PennTrafford";"https://www.facebook.com/PittsburghPhillipsPTO/?fref=ts";;;"http://www.pittsburghphillips.com/parents";;;"x";"x";;;"https://static.wixstatic.com/media/3cb108_f29465a4b88a4bcca17a4414e3cdcb60.png/v1/fill/w_75,h_77,al_c,usm_0.66_1.00_0.01/3cb108_f29465a4b88a4bcca17a4414e3cdcb60.png";"2:51PM – 6PM";"2:51PM – 6PM";"2:51PM – 6PM";"2:51PM – 6PM";"2:51PM – 6PM";"Closed";"Closed";
1174101;"In God We Trust Our Littles Ones Day Care";"100 Smithfield St";"Pittsburgh";"PA";15222;"ALLEGHENY";4122515926;"http://www.ourlittleonesdaycare.webs.com/";"ourlittleonesdaycare@yahoo.com";"Providing Spiritual, Educational, Social, and Physical Development";"http://www.ourlittleonesdaycare.webs.com/";"https://www.facebook.com/IGWTOLODaycareInc/";;;;"x";"x";"x";"x";;;;"6AM - 9:30PM";"6AM - 9:30PM";"6AM - 9:30PM";"6AM - 9:30PM";"6AM - 9:30PM";"6AM - 7:30PM";"6:30AM - 6:30PM";
1174102;"JAYNENE WHITTINGTONS DAYCARE";"149 SANDY CREEK RD";"VERONA";"PA";15147;"ALLEGHENY";4127936000;;;"Started out in my home it was going so well now I have a center! Now enrolling for Infants, Toddlers, Preschool, School Age, and before and after school.";;"https://www.facebook.com/daycare149/?ref=nf";;;;"x";"x";"x";"x";;;;;;;;;;;
1174103;"KIDSVILLE DAYCARE";"201 S GRAHAM ST";"PITTSBURGH";"PA";15206;"ALLEGHENY";4129920480;;;;;"https://www.facebook.com/kidsvilledaycare/";;;;;;;;;;;;;;;;;;
1174104;"ABCS AND 123S CHILD CARE CENTER";"404 E 8TH AVE";"HOMESTEAD";"PA";15120;"ALLEGHENY";4127585773;"http://www.abc123childcarecenter.biz/";;"Here at ABC's & 123's Child Care Center we provide a caring learning environment we believe that children of all ages can learn if you just take the time out.  Our programs are age appropriate we work with children with math, spelling, word phrase, reading, science, and history.  We also make sure that we teach the children learning through play";"http://www.abc123childcarecenter.biz/";;;;;"x";"x";"x";"x";;;;"Open 24/7";"Open 24/7";"Open 24/7";"Open 24/7";"Open 24/7";"Open 24/7";"Open 24/7";
1174106;"The LEO Academy for Early Education";"237 6TH ST";"PITTSBURGH";"PA";15238;"ALLEGHENY";4124269085;"https://www.theleoacademy.com/";"theleoacademy@gmail.com  ";"At The LEO Academy we strive to provide the highest quality of care to each individual child and family. We believe that in order to meet all of the developmental needs of each child it is imperative to maintain professional relationships, and effective communication with each family.";"https://www.theleoacademy.com/";"https://www.facebook.com/theleoacademy/";;"https://www.theleoacademy.com/admissions";"https://www.theleoacademy.com/tuition";"x";"x";"x";"x";;;"https://static.wixstatic.com/media/5a1b7e_052fa770c8fd4db987c7c1d61588543b.jpg/v1/fill/w_265,h_291,al_c,q_80,usm_0.66_1.00_0.01/5a1b7e_052fa770c8fd4db987c7c1d61588543b.webp";"6:45AM - 6PM";"6:45AM - 6PM";"6:45AM - 6PM";"6:45AM - 6PM";"6:45AM - 6PM";"Closed";"Closed";
1174105;"Community Day School";"6424 FORWARD AVE";"PITTSBURGH";"PA";15217;"ALLEGHENY";4125211100;"https://www.comday.org/";"cds@comday.org";"Community Day School is a nurturing, academically excellent Jewish day school for the 21st century. From Early Childhood through Middle School, we inspire our students to love learning through innovative teaching methods and hands-on discovery.";"https://www.comday.org/";"https://www.facebook.com/CommunityDaySchool/";"https://www.comday.org/about-us/employment-opportunities";"https://www.comday.org/apply";"https://www.comday.org/get-involved/parent-association";;;"x";"x";;;"https://www.comday.org/image/new-design-images/logo.png";"7:30AM - 3:30PM";"7:30AM - 3:30PM";"7:30AM - 3:30PM";"7:30AM - 3:30PM";"7:30AM - 3:30PM";"Closed";"Closed";
1174108;"JEWISH COMMUNITY CENTER OF GREATER PITTSBURGH";"5738 DARLINGTON RD";"PITTSBURGH";"PA";15217;"ALLEGHENY";4125218010;"https://jccpgh.org/";"membership@jccpgh.org";"Our goal was simple – to help our members, guests, professional staff, donors, partners and other stakeholders know more than what we do, but WHY we exist and who we aspire to be.";"https://jccpgh.org/locationshours/";"https://www.facebook.com/JCCpittsburgh/";;"https://onlineedge.jccpgh.org/OnlineEdge/programlist.html";;;;;;"x";"x";"https://scontent.fskp2-1.fna.fbcdn.net/v/t1.0-1/p200x200/13237823_998656956892825_8417987429157783268_n.png?_nc_cat=0&oh=f746fe574dc2d8e6d79cb21196a2499e&oe=5B9CD243";"5:30AM - 10PM";"5:30AM - 10PM";"5:30AM - 10PM";"5:30AM - 10PM";"5:30AM - 6PM";"8AM - 6PM";"7:45AM - 6PM";
1174107;"DEAKINGS DAYCARE";"5799 HAMPTON ST";"PITTSBURGH";"PA";15206;"ALLEGHENY";4125294605;;;;;;;;;;;;;;;;;;;;;;;
1174109;"WRIGHT CHILDCARE SOLUTIONS";"437 TURRETT ST";"PITTSBURGH";"PA";15206;"ALLEGHENY";4126702742;"https://www.wrightchildcaresolutions.com/";" admin@wrightchildcare.com";"We are a full service child care company servicing the Greater Pittsburgh Area. We specialize in on-site child care and commercial daycare centers, events and programming, in home and emergency care, and training and curriculum management. ";"https://www.wrightchildcaresolutions.com/copy-of-services";"https://www.facebook.com/WrightChildcareSolutions/";;;"https://www.wrightchildcaresolutions.com/parent-resources";"x";"x";"x";;;;"https://static.wixstatic.com/media/e9b009_4c6c68383c074a9d9256adfb387c408a~mv2_d_2506_2480_s_4_2.png/v1/fill/w_145,h_141,al_c,usm_0.66_1.00_0.01/e9b009_4c6c68383c074a9d9256adfb387c408a~mv2_d_2506_2480_s_4_2.png";"7AM - 6PM";"7AM - 6PM";"7AM - 6PM";"7AM - 6PM";"7AM - 6PM";"Closed";"Closed";
1174110;"BRIGHT LIGHT ACADEMY LLC";"5618 KENTUCKY AVE";"PITTSBURGH";"PA";15232;"ALLEGHENY";4123622500;"http://brightlightacademyllc.com/";"brightlightacademychildcare@gmail.com";"Every child is unique.  They have different likes & dis-likes, they learn in different ways & at different rates.  Knowing this, our teachers customize our curriculum to accommodate your child’s individual needs.  We assess their progress throughout the year & adjust our program accordingly, thus helping your child meet their potential.";"http://brightlightacademyllc.com/";"https://www.facebook.com/BrightLightAcademychildcare/";;;;;;"x";"x";"x";;"http://brightlightacademyllc.com/wp-content/uploads/2016/08/logo.png";"6:30AM - 6PM";"6:30AM - 6PM";"6:30AM - 6PM";"6:30AM - 6PM";"6:30AM - 6PM";"Closed";"Closed";
1174112;"YMCA OF GREATER PGH/BURGWIN ELEMENTARY";"5411 JASON ST";"PITTSBURGH";"PA";15207;"ALLEGHENY";4126211762;;;;;;;;;;;;;;;;;;;;;;;"Closed"
1174111;"EXTENDED DAY SERVICES/SOUTH PARK MIDDLE SCHOOL";"2500 STEWART RD";"SOUTH PARK";"PA";15129;"ALLEGHENY";4122211980;"http://www.extendedday.com/";"EDS-Office@comcast.net";"Our before and after school programs are located in the South Park Elementary Center.  Students from the South Park Middle School.are bused to the Elementary Center for the after school program.";"http://www.extendedday.com/south_park";;;;;;;;"x";"x";"x";"http://n.b5z.net/i/u/10051895/i/White_Flag.png";"7AM - 6PM";"7AM - 6PM";"7AM - 6PM";"7AM - 6PM";"7AM - 6PM";"Closed";"Closed";
1174113;"SOLID FOUNDATIONS ACADEMY LLC";"119 NEELY SCHOOL RD";"WEXFORD";"PA";15090;"ALLEGHENY";7247998038;"http://www.solidfoundationsacademy.com/";"solidfoundationsacademy1@gmail.com";"The Solid Foundations Academy offers a preschool, drop-in child care center and reading, writing and math remediation and enrichment services.";"http://www.solidfoundationsacademy.com/";"https://www.facebook.com/SolidFoundationsAcademy/";;"http://www.solidfoundationsacademy.com/Enrollment.html";;"x";"x";"x";;;;"http://www.solidfoundationsacademy.com/SFA_business_logo.png";"8AM - 6PM";"8AM - 6PM";"8AM - 6PM";"8AM - 6PM";"8AM - 6PM";"Closed";"Closed";
1174125;"HOLLAND COUNTRY DAY SCHOOL";"1525 S BAILEY RD";"COATESVILLE";"PA";19320;"CHESTER";4847845594;;;"Holland Country Day School takes pride in their highly-qualified teachers and developmentally appropriate learning environments. ";;"https://www.facebook.com/HollandCountryDaySchool/";;;;"x";"x";"x";"x";;;"https://scontent.fskp2-1.fna.fbcdn.net/v/t1.0-1/19598993_249656272197026_2635500754771490015_n.png?_nc_cat=0&oh=f607587d6f451fb02cb1c7d385943fbc&oe=5B86E841";"7:30AM - 5:30PM";"7:30AM - 5:30PM";"7:30AM - 5:30PM";"7:30AM - 5:30PM";"7:30AM - 5:30PM";"Closed";"Closed";
1174126;"ACADEMY KIDS";"555 FOX CHASE";"COATESVILLE";"PA";19320;"CHESTER";6103831800;"https://www.academykids.org/";"academykidspa@gmail.com";"""REAL LEARNING, NOT JUST PLAY""";"https://www.academykids.org/";"https://www.facebook.com/Academy-Kids-502634326445104/";;"https://www.academykids.org/registration.html";;"x";"x";"x";"x";"x";"x";"https://www.academykids.org/uploads/7/8/9/9/78999994/editor/logo2_1.png?1496539419";"6AM - 6PM";"6AM - 6PM";"6AM - 6PM";"6AM - 6PM";"6AM - 6PM";"7AM - 5PM";"7AM - 5PM";
1174128;"LEHIGH VALLEY CHILDRENS CENTERS AT SALISBURY MS";"3301 DEVONSHIRE RD";"ALLENTOWN";"PA";18103;"LEHIGH";4842646528;"http://www.lvcconline.org/";"westernsalisbury@LVCConline.org";"LVCC provides high quality early education and child care to promote healthy child development, meet the needs of families, and encourage children to discover the joy of learning.";"http://www.lvcconline.org/locations/allentown?id=52:lvcc-at-western-salisbury&catid=16:allentown";"https://www.facebook.com/LVCConline/";"http://www.lvcconline.org/employment";"http://www.lvcconline.org/cacfp/forms";;"x";"x";"x";"x";"x";"x";"http://www.lvcconline.org/images/lvcc-logo-2.png";"6:30AM - 6PM";"6:30AM - 6PM";"6:30AM - 6PM";"6:30AM - 6PM";"6:30AM - 6PM";"Closed";"Closed";
1174129;"ALLENTOWN YMCA SCHOOL AGE PROGRAM-FOGELSVILLE ELEM";"312 S RR 100";"FOGELSVILLE";"PA";18051;"LEHIGH";4843876019;"http://www.parklandsd.org/community/day-care/";"choronest@parklandsd.org";"We will continue to practice being respectful, responsible, safe, and kind as a Fogelsville Fox. G";"http://www.parklandsd.org/fo/";;;"http://www.parklandsd.org/schools/registration-information/";;;;"x";"x";"x";"x";"http://www.parklandsd.org/wp-content/themes/fv17/images/logo.png";"8:35AM - 3:30PM";"8:35AM - 3:30PM";"8:35AM - 3:30PM";"8:35AM - 3:30PM";"8:35AM - 3:30PM";"Closed";"Closed";
1174131;"WATCH US GROW CHILD CARE LEARNING CENTER INC";"160 W HAMILTON ST STE 200";"ALLENTOWN";"PA";18102;"LEHIGH";4843477706;;"info@wuglc.com";;;"https://www.facebook.com/wuglc/";;;;;"x";"x";"x";;;"https://scontent.fskp2-1.fna.fbcdn.net/v/t31.0-8/14889915_1175640132501996_1226666012708928549_o.jpg?_nc_cat=0&oh=c6bcf904ff952de48f4c7650a7937c68&oe=5B83493E";"Open 24/7";"Open 24/7";"Open 24/7";"Open 24/7";"Open 24/7";"Open 24/7";"Open 24/7";
1174130;"Butterfly Learning Center LLC";"1828 W ALLEN ST";"ALLENTOWN";"PA";18104;"LEHIGH";6104322978;"https://www.butterflylearningcenter.com/";"misscorinnebutterflycenter@yahoo.com";"Butterfly Learning Center’s mission is to provide a safe, warm and caring environment that expresses joy and love as we provide a nurturing setting on a daily basis. We understand that a peaceful and happy place for children to learn is created through a caring, positive and affirming atmosphere.";"https://www.butterflylearningcenter.com/home";;"https://www.butterflylearningcenter.com/employee-information";"https://www.butterflylearningcenter.com/documents";"https://www.butterflylearningcenter.com/bill-pay";;;"x";"x";;;;"5AM - 11:45PM";"5AM - 11:45PM";"5AM - 11:45PM";"5AM - 11:45PM";"5AM - 11:45PM";"6PM - 9:45PM";"6PM - 9:45PM";
1174133;"ALLENTOWN YMCA SCHOOL AGE PROGRAM-IRONTON ELEM";"3929 MAUCH CHUNK RD";"COPLAY";"PA";18037;"LEHIGH";6102161016;"http://www.parklandsd.org/";"holmesr@parklandsd.org ";"Our school community, comprised of caring, committed staff, family, and community members, is committed to ensuring that all of our students have positive successful learning experiences. The success of all children is at the heart of every decision that we make as we work together as a school team!";"http://www.parklandsd.org/ir/";;;"http://www.parklandsd.org/schools/registration-information/";"http://www.parklandsd.org/wp-content/uploads/elem_handbook.pdf";;;"x";"x";"x";"x";"http://www.parklandsd.org/wp-content/themes/ir17/images/logo.png";"8:50AM - 3:30PM";"8:50AM - 3:30PM";"8:50AM - 3:30PM";"8:50AM - 3:30PM";"8:50AM - 3:30PM";"Closed";"Closed";
1174134;"ADVENTUROUS KIDS EARLY CHILDHOOD CENTER INC";"924 N FRONT ST";"ALLENTOWN";"PA";18102;"LEHIGH";6103510100;;;;;;;;;;;;;;;;;;;;;;;"Closed"
1174132;"ALLENTOWN YMCA SCHOOL AGE PROGRAM-SCHNECKSVILLE EL";"4260 SAND SPRING RD";"SCHNECKSVILLE";"PA";18078;"LEHIGH";6102161016;"http://www.parklandsd.org/";"doperak@parklandsd.org ";"Being the SHARKS, we teach our students to be Safe, Helpful, Accountable, Respectful and Kind.  Students will receive positive praise and earn rewards for their good behavior throughout the school year.";"http://www.parklandsd.org/sv/";;;"http://www.parklandsd.org/schools/registration-information/";"http://www.parklandsd.org/wp-content/uploads/elem_handbook.pdf";;;;"x";"x";"x";"http://www.parklandsd.org/wp-content/themes/sv17/images/logo.png";"8:50AM - 3:30PM";"8:50AM - 3:30PM";"8:50AM - 3:30PM";"8:50AM - 3:30PM";"8:50AM - 3:30PM";"Closed";"Closed";
1174135;"GET SET LEARNING CENTER";"946 N VAN BUREN ST";"ALLENTOWN";"PA";18109;"LEHIGH";4843503182;;"getsetlearningcenter@gmail.com";"Our mission, is to provide a high-quality early learning educational program. That promote a healthy child development by meeting the needs of families";;"https://www.facebook.com/getsetcenters/";;;;"x";"x";"x";"x";;;"https://scontent.fskp2-1.fna.fbcdn.net/v/t1.0-1/p200x200/13512072_1029249160462674_1864994041812528794_n.jpg?_nc_cat=0&oh=4ff885d7c5ba441735bec760be66527b&oe=5B999AE7";;;;;;;;
1174146;"KIDDIE ACADEMY OF CRANBERRY TWP";"1044 N BOUNDARY RD";"CRANBERRY TOWNSHIP";"PA";16066;"Butler";7244529898;"https://kiddieacademy.com/";;"We provide educational daycare in the greater Cranberry Township, PA area that focuses on days filled with learning and fun, the key ingredients of our Life Essentials® educational philosophy. The smiles you’ll see on our children’s faces as they learn, share family style meals with other children, and grow socially will delight you. The words from our children’s parents about our program, safety and facility will impress you.";"https://kiddieacademy.com/academies/cranberry-township/";"https://www.facebook.com/KiddieAcademyofCranberryTownship";"https://kiddieacademy.com/careers/";;"https://kiddieacademy.com/academies/cranberry-township/resources/";"x";"x";"x";"x";;"x";"https://kiddieacademy.com/academies/wp-content/themes/kiddieacademy/assets/svg/kiddieacademy-logo.svg";"6:30AM - 6:30PM";"6:30AM - 6:30PM";"6:30AM - 6:30PM";"6:30AM - 6:30PM";"6:30AM - 6:30PM";"Closed";"Closed";
1174147;"GARDEN MONTESSORI SCHOOL LLC";"204 COMMERCE PARK DR";"CRANBERRY TOWNSHIP";"PA";16066;"Butler";7247780111;"http://www.gardenmontessori.com/";"sandydurkin@gardenmontessori.com";"The Garden Montessori School values and encourages the development of the child's sense of independence, self-discipline and confidence in a safe, supportive, culturally and academically diverse environment as guided by the Montessori philosophy.";"http://www.gardenmontessori.com/";"https://www.facebook.com/thegardenmontessorischool";;"http://www.gardenmontessori.com/enrollment.html";"http://www.gardenmontessori.com/uploads/5/7/4/9/5749962/the_garden_montessori_school_handbook_master_copy_2018_update.pdf";;;"x";"x";;"x";"https://scontent.fskp2-1.fna.fbcdn.net/v/t1.0-1/c0.25.200.200/p200x200/1377157_427771640666817_1800901670_n.jpg?_nc_cat=0&oh=c1773a86438439b9fc07230a3776fddc&oe=5B8C3EC8";"7:30AM - 6PM";"7:30AM - 6PM";"7:30AM - 6PM";"7:30AM - 6PM";"7:30AM - 6PM";"Closed";"Closed";
1174150;"LUTHERCARE FOR KIDS REAMSTOWN";"58 S REAMSTOWN RD";"REAMSTOWN";"PA";17567;"Lancaster";7173363233;"http://luthercareforkids.org/";" lckrtown@luthercare.org";"Luthercare for Kids provides a safe, nurturing environment where children can be kids, students, athletes and artists… where they can explore, learn, thrive and grow. Give your child a great start by enrolling them in a Luthercare for Kids Early Learning Center with five locations in Lancaster and Lebanon counties.";"http://luthercareforkids.org/reamstown";"https://www.facebook.com/luthercareforkids/";"http://luthercareforkids.org/careers/";;"http://luthercareforkids.org/reamstown/prices-packages/";"x";"x";"x";"x";"x";"x";"http://luthercareforkids.org/reamstown/wp-content/uploads/sites/17/2017/06/Luthercare_forKids_Block2015_long-REAMSTOWN-01.png";"6AM - 6PM";"6AM - 6PM";"6AM - 6PM";"6AM - 6PM";"6AM - 6PM";"Closed";"Closed";
1174151;"ENCHANTED GARDEN LEARNING CENTER LLC";"144 S MARKET ST";"ELIZABETHTOWN";"PA";17022;"LANCASTER";7175213540;;"enchantedgardenprek@gmail.com";"Enchanted Garden is a daycare with a preschool curriculum and summer camp. We specialize in fine and creative arts.";;"https://www.facebook.com/EnchantedGardenLC/";;;;;;;;;;"https://scontent.fskp2-1.fna.fbcdn.net/v/t1.0-1/p200x200/15136013_1814175918858835_7525733692126039729_n.jpg?_nc_cat=0&oh=39fbe0094f9fcabba6df9247bdeeddc4&oe=5B817891";"8:30AM - 5PM";"8:30AM - 5PM";"8:30AM - 5PM";"8:30AM - 5PM";"8:30AM - 5PM";"Closed";"Closed";
1174152;"HOLY SPIRIT MONTESSORI LLC";"32 W VINE ST";"LANCASTER";"PA";17603;"LANCASTER";7173339287;"http://montlanc.com/";;;;;;;;;;;;;;;;;;;;;;
1174158;"MONTESSORI REGIONAL CHARTER SCHOOL/NORTH CAMPUS";"1116 W 7TH ST";"ERIE";"PA";16502;"ERIE";8148337771;"http://www.mrcserie.org/";"office@mrcserie.org";"Our mission is to provide a superior Montessori program of study that will develop lifelong learners. Our children will be prepared academically, emotionally, and socially by creating a love of learning through meaningful and fulfilling educational experiences.";"http://www.mrcserie.org/contact";"https://www.facebook.com/MontessoriRegionalCharterSchool/";"http://www.mrcserie.org/careers";"http://www.mrcserie.org/enrollment";;;;"x";"x";"x";"x";"http://www.mrcserie.org/_/rsrc/1468865717204/config/customLogo.gif?revision=9";"8AM - 4PM";"8AM - 4PM";"8AM - 4PM";"8AM - 4PM";"8AM - 4PM";"Closed";"Closed";
1174159;"St Martin Early Learning Center";"1727 STATE ST";"ERIE";"PA";16501;"ERIE";8144541675;"http://www.stmartincenter.org/";;"St. Martin Center Early Learning Center (SMELC), located at 1727 State Street (corner of 18th and State Streets), provides care for children between the ages of six weeks and 13 years. The state-of-the-art facility also offers preschool curriculum, as well as before and after school care.";"http://www.stmartincenter.org/programs/early-learning-center/";"http://www.facebook.com/StMartinCenter";;;;"x";"x";"x";"x";"x";;"https://scontent.fskp2-1.fna.fbcdn.net/v/t1.0-1/420511_336667776370249_391498265_n.jpg?_nc_cat=0&oh=d7b8d7e3c62b2e5d695a571e441bfa5c&oe=5B854132";"6:30AM - 5:30PM";"6:30AM - 5:30PM";"6:30AM - 5:30PM";"6:30AM - 5:30PM";"6:30AM - 5:30PM";"Closed";"Closed";
1174167;"DELLA HUBBARTS DAYCARE";"2602 MYRTLE ST";"ERIE";"PA";16508;"ERIE";8146164204;;;"Della's Daycare Provides a clean, safe loving environment for your children while you work. We offer first and second shifts. ";;"https://www.facebook.com/Della-Hubbarts-Daycare-152851102214685/";;;;;;;;;;"https://scontent.fskp2-1.fna.fbcdn.net/v/t1.0-1/c34.0.193.193/30582125_152852068881255_552458683116277574_n.png?_nc_cat=0&oh=789b9395ab02b7b724b9cd06295d8118&oe=5B8C7646";;;;;;;;
1174169;"CROSS CUT CHILD CARE CENTER";"179 HAIDA AVE";"HASTINGS";"PA";16646;"CAMBRIA";8142475177;"http://www.crosscutchurch.org/";"childcare@crosscutchurch.org";"Cross Cut Child Care Center is a place where you can feel secure leaving your children while you work. ";"http://www.crosscutchurch.org/Child-Care";"https://www.facebook.com/CCCCC16/";;"http://www.crosscutchurch.org/Enroll";"http://www.crosscutchurch.org/For-Parents";"x";"x";"x";"x";;;"https://scontent.fskp2-1.fna.fbcdn.net/v/t1.0-1/p200x200/14470511_259162644480281_1083859358449100280_n.jpg?_nc_cat=0&oh=e66319d14c51b3bf4602846afeef1e2d&oe=5B9201CD";"6AM - 6PM";"6AM - 6PM";"6AM - 6PM";"6AM - 6PM";"6AM - 6PM";"Closed";"Closed";
1174170;"LL AFTER SCHOOL PROG AT DIVINE MERCY WEST CAMPUS";"430 TIOGA ST";"JOHNSTOWN";"PA";15905;"CAMBRIA";8142620732;"https://www.divinemercy.academy/west-campus/";;"After School Care is a safe, structured and fun option for your child. We offer board games, craft supplies, toys, puzzles, computers, Legos, movies, gym equipment and outdoor fun. ";"https://www.divinemercy.academy/after-school-care/";"https://www.facebook.com/DMCACrusaders/";;"https://www.divinemercy.academy/application/";;;;;;"x";;"https://www.divinemercy.academy/wp-content/uploads/2016/07/DivineMercyLogo.png";"2:50PM - 6PM";"2:50PM - 6PM";"2:50PM - 6PM";"2:50PM - 6PM";"2:50PM - 6PM";"Closed";"Closed";
1174174;"DREAM BUILDERS CHILD CARE LLC";"210 SNYDER RD";"HERMITAGE";"PA";16148;"MERCER";7249794420;"https://dbchildcare.com/";;"We exist to provide a loving, supportive, safe and educational environment for infants, toddlers, and preschool children.";"https://dbchildcare.com/";;;;;"x";"x";"x";"x";;;;"6AM - 6PM";"6AM - 6PM";"6AM - 6PM";"6AM - 6PM";"6AM - 6PM";"Closed";"Closed";
1174181;"NEW STAR CHILD CARE CENTER II CORPORATION";"701 N 8TH ST";"READING";"PA";19604;"BERKS";6108167843;"http://newstarchildcare.com/l";"newstarchildcare@gmail.com";"Keep your child engaged in a learning environment while you're away by enrolling them in one of our programs. New Star Child Care Center's are a Keystone Stars facility!";"http://newstarchildcare.com/locations/4380052";;"http://newstarchildcare.com/employment/4380257";"http://newstarchildcare.com/enrollment/3595457";;"x";"x";"x";"x";;;"http://newstarchildcare.com/communities/1/000/001/776/551//images/12639218_259x127.png";"4AM - 6PM";"4AM - 6PM";"4AM - 6PM";"4AM - 6PM";"4AM - 6PM";"Closed";"Closed";
1174182;"APIS CHILD CARE LLC";"830 MOUNTAIN HOME RD";"READING";"PA";19608;"BERKS";6103400420;;;"Apis Childcare Center is currently enrolling children ages infant to school age. ";;"https://www.facebook.com/ApisChildCare/";;;;"x";"x";"x";"x";;;"https://scontent.fskp2-1.fna.fbcdn.net/v/t1.0-1/c0.0.200.200/p200x200/20431222_571191439742007_1096028521977306851_n.jpg?_nc_cat=0&oh=eed567b8f7ec62c42584199659c8e647&oe=5B7DB036";"6AM - 6PM";"6AM - 6PM";"6AM - 6PM";"6AM - 6PM";"6AM - 6PM";"Closed";"Closed";
1174184;"DARILYNS KIDDIE CITY DAY CARE CENTER II CORP";"1116 PERRY ST";"READING";"PA";19604;"BERKS";4842588456;;;;;;;;;;;;;;;;;;;;;;;
1174183;"FOREVER KIDS AT HEART LLC";"16 TELFORD AVE";"READING";"PA";19609;"BERKS";4846503474;"http://www.foreverkidsatheart.com/";"amy@foreverkidsatheart.com";"Here at Forever Kids at Heart, we provide a safe, secure and fun atmosphere for your child, while offering parents' peace of mind knowing your child will be assisted with homework and tutoring, fed a nutritious meal, and transported to their local activity on time.";"http://www.foreverkidsatheart.com/";"https://www.facebook.com/Foreverkidsatheart/";"http://www.foreverkidsatheart.com/careers.html";"http://www.foreverkidsatheart.com/tuition.html";;;;"x";"x";;;"http://nebula.wsimg.com/dae7cbe90908d23a7560ec9ba13a7fd9?AccessKeyId=97866E6A0A99A95C0FC6&disposition=0&alloworigin=1";"6:30AM - 6PM";"6:30AM - 6PM";"6:30AM - 6PM";"6:30AM - 6PM";"6:30AM - 6PM";"Closed";"Closed";
1174186;"LIBERTY CURTIN ELEMENTARY";"11125 N EAGLE VALLEY RD";"BLANCHARD";"PA";16826;"Centre";5709622225;"https://www.kcsd.k12.pa.us/";;"The Keystone Central community will provide an educational environment that develops high levels of academic achievement and promotes respectful citizenship in all students.";"https://www.kcsd.k12.pa.us/schools/liberty-curtin-elementary-school";;;;"https://www.kcsd.k12.pa.us/our-district/student-handbooks";;;"x";"x";;;"https://www.kcsd.k12.pa.us/images/logo.png";"7:50AM - 2:45PM";"7:50AM - 2:45PM";"7:50AM - 2:45PM";"7:50AM - 2:45PM";"7:50AM - 2:45PM";"Closed";"Closed";
1174187;"CENTRE HALL SCHOOL AGE PROGRAM";"104 N PENNSYLVANIA AVE";"CENTRE HALL";"PA";16828;"CENTRE";8142385105;"http://www.cdfc.org/";"enrollment@cdfc.org";"The school age program offer a variety of enriching and recreational activities, as well as restful periods at the end of the school day. Time and space are provided for children to work on homework and assignments. ";"http://www.cdfc.org/pennsValleySchoolAgeChildcare.php";"https://www.facebook.com/pages/Child-Development-and-Family-Council-of-Centre-County/139217362784101";"http://www.cdfc.org/Employment.php";;;"x";"x";"x";"x";;"x";"http://www.cdfc.org/images/balloonKid_top.png";"7AM - 6PM";"7AM - 6PM";"7AM - 6PM";"7AM - 6PM";"7AM - 6PM";"Closed";"Closed";
1174194;"U-GRO LEARNING CENTER";"100 MOUNT ALLEN DR";"MECHANICSBURG";"PA";17055;"CUMBERLAND";7175612201;"https://www.u-gro.com/";;"Our curriculum includes an intergenerational program with “grandfriends,"" which combines their talents and life skills in daily and special events. ";"https://www.u-gro.com/locations/mechanicsburg/";;"https://www.u-gro.com/careers/";;;"x";"x";"x";"x";"x";"x";"https://www.u-gro.com/wp-content/themes/ugro/images/logo.png";"6AM - 6PM";"6AM - 6PM";"6AM - 6PM";"6AM - 6PM";"6AM - 6PM";"Closed";"Closed";
1174196;"DAY STAR LEARNING CENTER";"50 ALEXANDER SPRING RD";"CARLISLE";"PA";17015;"CUMBERLAND";7172437828;;"daystar_learningcenter@yahoo.com";"Child care learning center servicing the Carlisle area and surroundings.";;"https://www.facebook.com/daystarlearningcenter/posts_to_page/";;;;"x";"x";"x";"x";;;"https://scontent.fskp2-1.fna.fbcdn.net/v/t1.0-1/p200x200/14046108_221107658291417_1204006898439745034_n.png?_nc_cat=0&oh=fb07b6bb7676754a62204c220cdc898e&oe=5B8E8A95";"6AM - 00PM";"6AM - 00PM";"6AM - 00PM";"6AM - 00PM";"6AM - 00PM";"Closed";"Closed";
1174195;"MY PLACE TOO CHILDCARE CTR LLC";"745 Orrstown Rd";"SHIPPENSBURG";"PA";17257;"CUMBERLAND";7177734945;;;;;;;;;;;;;;;;;;;;;;;
1174197;"BULLDOG PREP ACADEMY LLC";"10 MOUNT ROCK RD";"NEWVILLE";"PA";17241;"CUMBERLAND";7177761277;"https://bulldogprepacademy.wixsite.com/bulldogprepacademy";"bulldogprepacademy@gmail.com";"Bulldog Prep Academy offers a Kindergarten preparatory program, before and after school care for school aged children, and school aged summer camps.";"https://bulldogprepacademy.wixsite.com/bulldogprepacademy";"https://www.facebook.com/bulldogpreparatoryacademy/";;"https://bulldogprepacademy.wixsite.com/bulldogprepacademy/about1-c1z94";;;;"x";"x";"x";"x";"https://static.wixstatic.com/media/75614a_1f2cf794390b4800aaa2c6546070faac~mv2.png/v1/fill/w_336,h_252,al_c,usm_0.66_1.00_0.01/75614a_1f2cf794390b4800aaa2c6546070faac~mv2.png";"7AM - 6PM";"7AM - 6PM";"7AM - 6PM";"7AM - 6PM";"7AM - 6PM";"Closed";"Closed";
1174201;"FCCA/ALICE SCHAFER";"220 W SCHOOL DR";"LINESVILLE";"PA";16424;"CRAWFORD";8146834225;;;;;;;;;;;;;;;;;;;;;;;"Closed"
1174208;"Saegertown";"18741 STATE HIGHWAY 198";"SAEGERTOWN";"PA";16433;"CRAWFORD";8147636511;"http://www.penncrest.org/";;"A school is a place where learning occurs. Learning happens best in an orderly environment. If things are going to get done, there must be rules, or procedures, that are fair.";"https://sites.google.com/a/penncrest.org/ses/";;"http://www.penncrest.org/employment";;"https://sites.google.com/a/penncrest.org/ses/school-calendar";;;"x";"x";;;"https://sites.google.com/a/penncrest.org/ses/_/rsrc/1467001603789/config/customLogo.gif?revision=1";"8:10AM -2:55PM";"8:10AM -2:55PM";"8:10AM -2:55PM";"8:10AM -2:55PM";"8:10AM -2:55PM";"Closed";"Closed";
1174207;"FCCA/CONNEAUT LAKE";"630 LINE ST";"CONNEAUT LAKE";"PA";16316;"CRAWFORD";8143824501;"http://www.edline.net/";;"The Mission of the Conneaut School District is to provide a safe and supportive environment where all acquire the skills to become productive citizens of a global society. ";"http://www.edline.net/pages/Conneaut_Lake-Sadsbury_ES";;;;"http://www.edline.net/pages/Conneaut_SD/Shortcuts/Parents___Students";;;"x";"x";;"x";"http://www.edline.net/dynimg/_VUGmq_/hdrImageGroupEntid/3926298233085818530/hdrImageLastMod/1319110722923/hdrImageAttrName/header_image_0_data/hdrImageFileName/cles_Header.jpg";;;;;;;;
1174202;"Cambridge Springs";"130 STEELE ST";"CAMBRIDGE SPRINGS";"PA";16403;"CRAWFORD";8143982044;"http://www.penncrest.org/";" csesoffice@penncrest.org";"Approximately 528 students (K-6";"https://sites.google.com/a/penncrest.org/cses/";"https://www.facebook.com/pages/Cambridge-SpringsElementarySchool/802753606437887";;;"https://sites.google.com/a/penncrest.org/cses/handbook";;;"x";"x";;;"https://sites.google.com/a/penncrest.org/cses/_/rsrc/1467001174517/config/customLogo.gif?revision=2";;;;;;;;
1174203;"Conneaut Valley";"22491 St Hwy 18";"Conneautville";"PA";16406;"CRAWFORD";8145872151;"http://www.conneautsd.org/5/home";;"The Mission of the Conneaut School District is to provide a safe and supportive environment where all acquire the skills to become productive citizens of a global society.";"http://www.conneautsd.org/5/home";;"http://www.conneautsd.org/Employment";;"http://www.conneautsd.org/District/Links-Forms";;;"x";"x";;;;;;;;;;;
1174204;"FCCA/MAPLEWOOD";"32695 STATE HIGHWAY 408";"TOWNVILLE";"PA";16360;"CRAWFORD";8149675210;;;;;;;;;;;;;;;;;;;;;;;
1174205;"FCCA/TITUSVILLE 1";"302 E WALNUT ST";"TITUSVILLE";"PA";16354;"CRAWFORD";8148271951;"http://www.gorockets.org/";;"The Titusville Area School District is truly a reflection of its community, rich in heritage, dynamic, and ever changing as it continuously seeks to provide for the highest quality of life.  ";"http://www.gorockets.org/";;"http://www.gorockets.org/employmentopportunities.aspx";"http://www.gorockets.org/EnrollinginTitusvilleAreaSchoolDistrict.aspx";"http://www.gorockets.org/parentcenter.aspx";;;;"x";;;;;;;;;;;
1174206;"FCCA/TITUSVILLE 2";"350 E SPRUCE ST";"TITUSVILLE";"PA";16354;"CRAWFORD";8148271951;"http://www.gorockets.org/";;"The Early Childhood Learning Center is community-based educational partnership that ensures children and families a positive beginning to the school experience";"http://www.gorockets.org/earlychildhoodlearningcenter_home.aspx";;;;;;;"x";"x";;;;;;;;;;;
1174210;"SUNNY DAY PRESCHOOL AND DAYCARE INC";"657 SEVEN BRIDGE RD";"EAST STROUDSBURG";"PA";18301;"MONROE";5704249597;;"sunnyday@ptd.net";"Preschool and Daycare with 2 locations (East Stroudsburg & Saylorsburg) for ages 2 months to 6 years open daily M-F from 6:30am to 6:00pm.";;"https://www.facebook.com/sunnydaypa/";;;;"x";"x";"x";"x";;;"https://scontent.fskp2-1.fna.fbcdn.net/v/t1.0-1/p200x200/14141833_1140873385969140_2166898808736344395_n.jpg?_nc_cat=0&oh=d14c53a3bdb58cd2ba310854275f618e&oe=5B8B7A34";"6:30AM - 6PM";"6:30AM - 6PM";"6:30AM - 6PM";"6:30AM - 6PM";"6:30AM - 6PM";"Closed";"Closed";
1174209;"STEPPING STONES PRESCHOOL/CHILDCARE INC";"3203 ROUTE 611";"BARTONSVILLE";"PA";18321;"MONROE";5706296618;"http://www.steppingstonespreschoolanddaycare.com/";"steppingstonespa@yahoo.com";"We believe that every child is unique and will grow at his or her own pace. Our teachers spend time nurturing children’s strengths and encouraging them to reach new heights";"http://www.steppingstonespreschoolanddaycare.com/";"https://www.facebook.com/Steppingstonesbartonsville/";;"http://www.steppingstonespreschoolanddaycare.com/forms.html";;;"x";"x";"x";;"x";"http://nebula.wsimg.com/b6586bbb7328f950c8ec98ffbf0de112?AccessKeyId=44EA156AEF14AA6C95F7&disposition=0&alloworigin=1";"5:30AM - 6:30PM";"5:30AM - 6:30PM";"5:30AM - 6:30PM";"5:30AM - 6:30PM";"5:30AM - 6:30PM";"Closed";"Closed";
1174213;"The Mountain Center";"354 MEMORIAL BLVD";"TOBYHANNA";"PA";18466;"MONROE";5708947692;"http://www.themountaincenter.net/";;"Providing stability for families in need";"http://www.themountaincenter.net/";;;;;;;;;;;"http://assimediafinal.s3.amazonaws.com/site3761/reseller3291/company35545/user78469/1516890375_PSFC-logo.png";;;;;;;;
1174211;"ACORNS TO OAKS LEARNING CENTER";"125 ROSE ST";"SCOTRUN";"PA";18355;"MONROE";5706299069;"http://www.acornstooaksinc.com/";"acorns3@verizon.net";"We are committed to providing a safe, fun and positive learning environment for your children ";"http://www.acornstooaksinc.com/";"https://www.facebook.com/acorns.to.oaks.inc";;;"http://www.acornstooaksinc.com/Tuition___Fees.html";;"x";"x";"x";"x";"x";;"6:30AM - 6:30PM";"6:30AM - 6:30PM";"6:30AM - 6:30PM";"6:30AM - 6:30PM";"6:30AM - 6:30PM";"Closed";"Closed";
1174212;"SUNNY DAY PRESCHOOL AND DAYCARE INC";"1029 ROUTE 715";"SAYLORSBURG";"PA";18353;"MONROE";5706298740;"https://sunnydaypa.com/";;"We offer services to families with Infants, Woddlers, Toddlers, and Pre-K/Preschool (Ages 3 months to 6 years).  We also offer Before and After School care for School Age Children (KG-1st Grade) from the Pleasant Valley and East Stroudsburg school districts (Busing is by the Districts)";"https://sunnydaypa.com/saylorsburg-1";"https://www.facebook.com/sunnydaypa/";;;;;;"x";"x";"x";;"https://scontent.fskp2-1.fna.fbcdn.net/v/t1.0-1/p200x200/14141833_1140873385969140_2166898808736344395_n.jpg?_nc_cat=0&oh=d14c53a3bdb58cd2ba310854275f618e&oe=5B8B7A34";"6:30AM - 6PM";"6:30AM - 6PM";"6:30AM - 6PM";"6:30AM - 6PM";"6:30AM - 6PM";"Closed";"Closed";
1174214;"NDC YMCA SUMMER CAMP";"500 N CHURCH ST";"ELIZABETHVILLE";"PA";17023;"DAUPHIN";7173629494;"http://ymcaharrisburg.org/";"ndcymca@ymcaharrisburg.org";"The Harrisburg Area YMCA is committed to the healthy development of children and teens through a broad range of programs that capture the imagination, instill positive values, build self-esteem and teach fundamental skills. That’s why summer camp is such a critical part of our YMCA. ";"http://ymcaharrisburg.org/home/camp/";"https://www.facebook.com/NorthernDauphinCoYMCA/";;;;;;;;"x";"x";"http://ymcaharrisburg.org/content/themes/ymca/images/logo-white.png";"5:30AM - 10PM";"5:30AM - 10PM";"5:30AM - 10PM";"5:30AM - 10PM";"5:30AM - 8PM";"8AM - 4PM";"1PM - 6PM";
1174215;"MIKAYLAS PLACE";"212 N PROGRESS AVE";"HARRISBURG";"PA";17109;"DAUPHIN";7175410914;"http://mikaylasplace.org/";" info@mikaylasplace.org";"This center features eight classrooms, an outdoor and indoor playground area, and an after school area. The safety of the children is key, whereas there is a lock-code system that only allows permitted families access to the building. We are a STARS 2 program that offer services to children from ages six weeks 12 years old, full and part-time, three to five days a week. ";"http://mikaylasplace.org/locations/";"https://www.facebook.com/mikaylasplacehbg";"http://mikaylasplace.org/careers/";;"https://www.tuitionexpress.com/default.aspx";;;"x";"x";"x";;"http://mikaylasplace.org/wp-content/uploads/2018/04/mplogo.png";"5:30AM - 12PM";"5:30AM - 12PM";"5:30AM - 12PM";"5:30AM - 12PM";"5:30AM - 12PM";"6:30AM - 6:30PM";;
1174216;"Lotus Multicultural Learning Center";"3368 PAXTON ST";"HARRISBURG";"PA";17111;"DAUPHIN";7174127434;;"thelotusmlc@gmail.com";"We are an early childhood learning center serving the Harrisburg community.";;"https://www.facebook.com/Thelotusmlc/";;;;;;;;;;"https://scontent.fskp2-1.fna.fbcdn.net/v/t1.0-1/p200x200/16427541_161824960982168_5916038792766357726_n.jpg?_nc_cat=0&oh=f99a0951be7853595812de03ce8417cf&oe=5B8CA62D";;;;;;;;
1174220;"SUNNY DAYS CHILD DEVELOPMENT CENTER";"504 GIRARD ST";"HARRISBURG";"PA";17104;"DAUPHIN";7176953877;;;;;;;;;;;;;;;;;;;;;;;
1174221;"A PLUS EARLY LEARNING CENTER INC";"2200A LOGAN ST";"HARRISBURG";"PA";17110;"DAUPHIN";7179637348;;;;;;;;;;;;;;;;;;;;;;;
1174219;"SAFANI ACADEMY";"39 N 2ND ST";"STEELTON";"PA";17113;"Dauphin";7179826171;;"safanichildcare2@gmail.com";"Childcare Center in Steelton, PA serving children 6 months through 13 years old.";;"https://www.facebook.com/Safani-Childcare-Center-183018898530668/";;;;"x";"x";"x";"x";;;;;;;;;;;
1174218;"SEEDLINGS ACADEMY FOR YOUNG LEARNERS LLC";"721 FISHBURN RD";"HERSHEY";"PA";17033;"DAUPHIN";7173123010;"http://growatseedlings.com/";"tmiller@growatseedlings.com";"Seedlings Academy offers innovative programming in an environment that is designed to feel like a child’s home away from home from the minute they walk in the door. This is accomplished through an aesthetically pleasing environment, a welcoming and caring teaching staff, smaller class sizes and a smaller center overall.";"http://growatseedlings.com/";"https://www.facebook.com/terrilynn228/";"http://growatseedlings.com/careers/";"http://growatseedlings.com/enrollment/";;"x";"x";"x";"x";;;"http://seedlingsacademypreschool.com/wp-content/uploads/2016/08/Logo-300px.png";"6:30AM - 5:45PM";"6:30AM - 5:45PM";"6:30AM - 5:45PM";"6:30AM - 5:45PM";"6:30AM - 5:45PM";"Closed";"Closed";
1174226;"LITTLE GENIUSES PREPARATORY ACADEMY LLC";"4386 STURBRIDGE DR";"HARRISBURG";"PA";17110;"DAUPHIN";7173079930;"http://www.lgprepacademy.com/";;"At Little Geniuses in Harrisburg, Pennsylvania, we are more than your ordinary day care: we give your child the opportunity to learn and grow, providing the educational support he or she needs. We enrich your child with learning experiences, and we'll also help prepare your young child for kindergarten. ";"http://www.lgprepacademy.com/";"https://www.facebook.com/Little-Geniuses-Preparatory-Academy-562352384156014/";"http://www.lgprepacademy.com/employment.html";;"http://www.lgprepacademy.com/rates.html";;;"x";"x";"x";;"http://www.lgprepacademy.com/image/125141650.png";"7AM - 5:30PM";"7AM - 5:30PM";"7AM - 5:30PM";"7AM - 5:30PM";"7AM - 5:30PM";"Closed";"Closed";
1174229;"LINCOLN LRNG SOLUTIONS/SOUTHSIDE AREA SCHOOL DIST";"4949 STATE ROUTE 151";"HOOKSTOWN";"PA";15050;"BEAVER";7245739581;"http://www.sssd.k12.pa.us/";;"At SSES, we are proud of our students and our educational programs. We strive to provide a physically and emotionally safe environment where students know that we care about them while maintaining high academic expectations for all. I";"http://www.sssd.k12.pa.us/elementaryschool_home.aspx";;;;"http://www.sssd.k12.pa.us/Downloads/Elem%20Handbook%2015-16.pdf";;;"x";"x";;;"http://www.sssd.k12.pa.us/sysimages/logo.png";"8:40AM - 3:05PM";"8:40AM - 3:05PM";"8:40AM - 3:05PM";"8:40AM - 3:05PM";"8:40AM - 3:05PM";"Closed";"Closed";
1174230;"LIFESTEPS/DUTCH RIDGE ELEMENTARY SCHOOL";"2220 DUTCH RIDGE RD";"BEAVER";"PA";15009;"BEAVER";7242831010;"http://www.basd.k12.pa.us/";;"The Beaver Area School District holds firmly to the principle that education involves the development of the whole person and that children are individual learners who can achieve their greatest potential in a positive, supportive learning environment.";"http://www.basd.k12.pa.us/dutchridgeelementaryschool_home.aspx";;;"http://www.basd.k12.pa.us/Enrollment.aspx";;;;"x";"x";;;"http://www.basd.k12.pa.us/sysimages/logo.png";"8:40AM - 3:15PM";"8:40AM - 3:15PM";"8:40AM - 3:15PM";"8:40AM - 3:15PM";"8:40AM - 3:15PM";"Closed";"Closed";
1174234;"Chambersburg YMCA at Marion Elementary";"145 Colorado Street";"Marion";"PA";17235;"Franklin";7172638508;"http://www.chbgy.org/after-school-care";;"The Chambersburg YMCA provides Before and After School Fun Club for children in Kindergarten through 5th grade at eight satellite locations in addition to the YMCA.";"https://www.casdonline.org/marion";"https://www.facebook.com/Chambersburg-Area-School-District-295478343986706/";;"http://www.chbgy.org/sites/chbgy.org/files/BASFC%2017-18%20YMCA%20Registration%20Packet.pdf";;;;;;"x";;"https://www.casdonline.org/cms/lib/PA02217736/Centricity/Template/GlobalAssets/images//logos/marion.jpg";"6:30AM - 6PM";"6:30AM - 6PM";"6:30AM - 6PM";"6:30AM - 6PM";"6:30AM - 6PM";"Closed";"Closed";
1174235;"CLUBHOUSE KIDZ CHILDCARE CENTER INC";"121 SUNSET BLVD W";"CHAMBERSBURG";"PA";17202;"FRANKLIN";7172615786;;;"Offering quality child care for ages 6 weeks thru 12 years old.";;"https://www.facebook.com/ClubhouseKidz/";;;;"x";"x";"x";"x";;;"https://scontent.fskp2-1.fna.fbcdn.net/v/t1.0-1/p200x200/31967983_1859790940726023_8280116000821608448_n.jpg?_nc_cat=0&oh=6b237ccf4bf9633d5397b9b0230a1242&oe=5B7CBB14";;;;;;;;
1174236;"SAFARI ADVENTURES CHILD CARE & EDU CENTER LLC";"3583 SCOTLAND ROAD";"CHAMBERSBURG";"PA";17202;"FRANKLIN";7175048115;;"safariadventuresccec@gmail.com";"We provide quality care for ages 6 weeks through school age. We provide breakfast, lunch, and snack daily, along with a creative curriculum for each age";;"https://www.facebook.com/Safariadventuresccec/";;;;"x";"x";"x";"x";;;"https://scontent.fskp2-1.fna.fbcdn.net/v/t1.0-1/c0.0.200.200/p200x200/14355738_1214124091984764_682710816770196712_n.jpg?_nc_cat=0&oh=cf4bd46874b4bf2ad67735e60da91dc4&oe=5B98AF2A";;;;;;;;
1174242;"YWCA CHILD CHILD CARE AT ADAMS COMMERCE CENTER";"50 EXPEDITION TRL";"GETTYSBURG";"PA";17325;"ADAMS";7173347150;"http://www.ywcagettysburg.org/";"info@ywcagettysburg.org";"The YWCA strives to be positioned as the center for personal and community growth – the place to learn, play and improve emotional and physical well-being. The YWCA will guide Adams County to positive change by connecting cultures, encouraging healthy lifestyles and empowering all who walk through our doors.";"http://www.ywcagettysburg.org/1671/";"https://www.facebook.com/YWCACommercePark/";;"http://www.ywcagettysburg.org/membership/on-line-registration-payment/";;"x";"x";"x";"x";;;"http://www.ywcagettysburg.org/wp-content/themes/ywca-new/images/logo.png";"6:30AM - 6PM";"6:30AM - 6PM";"6:30AM - 6PM";"6:30AM - 6PM";"6:30AM - 6PM";"Closed";"Closed";
1174248;"BARBIS CHILD CARE CENTER LLC";"530 MAIN ST";"WOODLAND";"PA";16881;"CLEARFIELD";8142054141;;;;;;;;;;;;;;;;;;;;;;;
1174247;"LEARNING TREE CHILD CARE LLC";"1205 E DUBOIS AVE";"DU BOIS";"PA";15801;"CLEARFIELD";8145034177;;"seberly@ltchildcare.com";"Open now!!! Accepting applications for children 6 weeks to 6 years. Call now to enroll your child.";;"https://www.facebook.com/learningtreechildcareLLC/";;;;"x";"x";"x";"x";;;"https://scontent.fskp2-1.fna.fbcdn.net/v/t1.0-1/p200x200/13321792_917206695056443_4287208814010176261_n.jpg?_nc_cat=0&oh=0285ed4c1fbc441c4bc1f7dc0e1bc2ac&oe=5B882AEE";"6:30AM - 5:30PM";"6:30AM - 5:30PM";"6:30AM - 5:30PM";"6:30AM - 5:30PM";"6:30AM - 5:30PM";"6:30AM - 5:30PM";"6:30AM - 5:30PM";
1174246;"CURWENSVILLE ELEMENTARY SCHOOL";"650 BEECH ST";"CURWENSVILLE";"PA";16833;"CLEARFIELD";8142361100;"https://www.curwensville.org/";;"The Curwensville Area School District will provide a quality academic environment and rigorous curriculum which inspires all students to become productive, employable and responsible adults with the potential and enthusiasm for a continuous life of learning.  A dedicated staff will support students as they become self-confident, tolerant, secure, caring, and well rounded in intellectual pursuits, social issues, and fundamental core values.";"https://www.curwensville.org/curwensville";"https://www.facebook.com/curwensville/";"https://www.curwensville.org/domain/5";"https://www.curwensville.org/Page/3155";"https://www.curwensville.org/cms/lib/PA01000485/Centricity/Domain/13/Student%20Handbook%202017-2018.pdf";;;"x";"x";;;"https://www.curwensville.org/cms/lib/PA01000485/Centricity/Template/GlobalAssets/images///logos/curwensville.png";"8:40AM - 3:10PM";"8:40AM - 3:10PM";"8:40AM - 3:10PM";"8:40AM - 3:10PM";"8:40AM - 3:10PM";"Closed";"Closed";
1174250;"ROBB ELEMENTARY SCHOOL";"400 E CHURCH ST";"LOCK HAVEN";"PA";17745;"CLINTON";5707483501;"https://www.kcsd.k12.pa.us/";;"The Keystone Central community will provide an educational environment that develops high levels of academic achievement and promotes respectful citizenship in all students.";"https://www.kcsd.k12.pa.us/schools/robb-elementary-school";;"https://www.kcsd.k12.pa.us/school-board/vacancy";;"https://www.kcsd.k12.pa.us/schools/robb-elementary-school/student-handbooks";;;"x";"x";;;"https://www.kcsd.k12.pa.us/images/logo.png";"7:35AM - 2:45PM";"7:35AM - 2:45PM";"7:35AM - 2:45PM";"7:35AM - 2:45PM";"7:35AM - 2:45PM";"Closed";"Closed";
1174249;"MILL HALL ELEMENTARY SCHOOL";"210 KYLER AVE";"MILL HALL";"PA";17751;"CLINTON";5707263105;"https://www.kcsd.k12.pa.us/";;"The Keystone Central community will provide an educational environment that develops high levels of academic achievement and promotes respectful citizenship in all students.";"https://www.kcsd.k12.pa.us/schools/mill-hall-elementary-school";;;;"https://www.kcsd.k12.pa.us/schools/mill-hall-elementary-school/student-handbooks";;;"x";"x";;;"https://www.kcsd.k12.pa.us/images/logo.png";"7:35AM - 2:45PM";"7:35AM - 2:45PM";"7:35AM - 2:45PM";"7:35AM - 2:45PM";"7:35AM - 2:45PM";"Closed";"Closed";
1174252;"WIGGLES N GIGGLES ACADEMY LLC";"310 OAK ST";"IRWIN";"PA";15642;"WESTMORELAND";7248235439;;;;;;;;;;;;;;;;;;;;;;;"Closed"
1174256;"HW GOODE ELEMENTARY BASE";"1464 HERMINIE-WEST NEWTON";"HERMINIE";"PA";15637;"WESTMORELAND";7243315566;"http://hw-good-elementary.echalksites.com/home_page";"kuttlern@youghsd.net";"The Yough School District is very proud of its strong academic programs, excellent teaching and administrative staff, and wide array of opportunities to help our students flourish. ";"http://hw-good-elementary.echalksites.com/home_page";"https://www.facebook.com/HW-Good-Elementary-Principal-647628655376756/";;;"http://hw-good-elementary.echalksites.com/resources_for_parents";;;"x";"x";;;"https://scontent.fskp2-1.fna.fbcdn.net/v/t1.0-9/12524030_650334825106139_2241262750172973757_n.jpg?_nc_cat=0&oh=0734c2d0216a182e393745046de66e75&oe=5B911CF8";"8:30AM - 4PM";"8:30AM - 4PM";"8:30AM - 4PM";"8:30AM - 4PM";"8:30AM - 4PM";"Closed";"Closed";
1174257;"WEST NEWTON ELEMENTARY BASE";"1208 VINE ST";"WEST NEWTON";"PA";15089;"WESTMORELAND";7248752330;"http://wn.youghsd.net/";"kearnse@youghsd.net";"The Yough School District is very proud of its strong academic programs, excellent teaching and administrative staff, and wide array of opportunities to help our students flourish. ";"http://wn.youghsd.net/";;;;;;;"x";"x";"x";;;;;;;;;;
1174254;"CHRISTIAN FAMILY & CHILDRENS CTR";"1076 KINGS WAY";"DONEGAL";"PA";15628;"WESTMORELAND";7245939200;"http://www.champion.org/";"info@champion.org ";"The Center has been ministering to families and children for over 35 years! Our website is designed to provide you with resources about our many programs. Whether it is Champion Christian Preschool, Champion Christian School (K-12), New Horizons Pregnancy Resource Center, Christian Counseling Center or one of our activities, you can find a lot of great and helpful information on our site.";"http://www.champion.org/center_drupal/";"https://www.facebook.com/ChristianFamilyChildrensCenter/";;;;;;"x";"x";"x";;"http://www.champion.org/center_drupal/sites/default/files/centerlogo3.png";"8AM - 5PM";"8AM - 5PM";"8AM - 5PM";"8AM - 5PM";"8AM - 5PM";"Closed";"Closed";
1174255;"T AND K CHILDCARE";"1020 LATROBE 30 PLAZA SUIT";"LATROBE";"PA";15650;"WESTMORELAND";7246863375;"https://www.tandkchildcarelatrobe.com/";"marnieguy2@aol.com";"Planning to enroll your kid in a safe and comfortable childcare center? Get in touch with T And K Childcare, a facility where your little one will learn and grow in the care of trained and qualified staff.";"https://www.tandkchildcarelatrobe.com/";"https://www.facebook.com/pg/T-and-K-Childcare-543883719151578/likes/?ref=page_internal";;;;"x";"x";"x";"x";;;"https://cdn.websites.hibu.com/b52a2e6486884f68a1b261221e7ceafe/dms3rep/multi/mobile/logo-284x28.png";"6AM - 8PM";"6AM - 8PM";"6AM - 8PM";"6AM - 8PM";"6AM - 8PM";"6AM - 8PM";"6AM - 8PM";
1174253;"Scottdale Early Care and Education Center";"501 S BROADWAY ST";"SCOTTDALE";"PA";15683;"WESTMORELAND";7242201309;"https://scottdale.org/";"info@scottdale.org";"The mission of Scottdale Early Learning is to provide early education that fosters the intellectual, creative, social, emotional, and physical development of our students. ";"https://scottdale.org/";"https://www.facebook.com/ScottdaleChildDevelopment/";;"https://scottdale.org/enroll-today/";;;;"x";"x";"x";;"https://scontent.fskp2-1.fna.fbcdn.net/v/t1.0-1/p200x200/18423743_1328422100585063_5255921648448147796_n.png?_nc_cat=0&oh=51ebfa5971596ecf5bdbbb707c3eb656&oe=5B969619";"7AM - 6PM";"7AM - 6PM";"7AM - 6PM";"7AM - 6PM";"7AM - 6PM";"Closed";"Closed";
1174259;"RK MELLON EARLY CARE AND EDUCATION CENTER";"559 BELL ST";"LIGONIER";"PA";15658;"WESTMORELAND";7242388100;"https://shchildservices.org/";"info@shchildservices.org";"Seton Hill Child Services mission is to serve families ethically, with the highest quality of care. We set the standard for quality childcare by demonstrating exemplary skills and commitment to children, families, and our staff.";"https://shchildservices.org/classes/r-k-mellon/";;"https://shchildservices.org/employment-opportunities/";;"https://shchildservices.org/wp-content/uploads/2018/03/PARENT-HANDBOOK-JULY-2017-updated.pdf";"x";"x";"x";;;;"https://shchildservices.org/wp-content/uploads/2018/01/logo-square-100.png";"7:45AM - 4PM";"7:45AM - 4PM";"7:45AM - 4PM";"7:45AM - 4PM";"7:45AM - 4PM";"Closed";"Closed";
1174260;"LOVE LAUGH LEARN AT MOUNTAINTOP LEARNING CENTER";"174 LAKEVIEW DR";"ACME";"PA";15610;"WESTMORELAND";7244237766;;;"Love Laugh Learn At Mountaintop Learning Center is located in Acme, Pa. It is a family owned and run Child Care/Preschool.";;"https://www.facebook.com/Love-Laugh-Learn-At-Mountaintop-Learning-Center-1117178298341480/?ref=page_internal";;;;;;;;;;;;;;;;;;
1174261;"KALP LITTLE SPROUTS LEARNING CENTER";"DEPOT STREET";"YOUNGWOOD";"PA";15697;"WESTMORELAND";7246353922;;;"Kalps LSLC is a Early Childhood Educational Daycare Center. We been open since Aug 2016. Were enrolling children 6 wk to 12yr. Preschool 3 t-th 4-5 m-w-f";;"https://www.facebook.com/littlesproutsyoungwood/";;;;"x";"x";"x";"x";;;"https://scontent.fskp2-1.fna.fbcdn.net/v/t1.0-1/p200x200/26993589_1991799854401747_9027703411611468297_n.jpg?_nc_cat=0&oh=b72c353a485c484bbbbf7ca069042235&oe=5B78B280";"6AM - 12AM";"6AM - 12AM";"6AM - 12AM";"6AM - 12AM";"6AM - 12AM";"Closed";"Closed";
1174258;"Laurel Valley Early Care and Education Center";"137 EDUCATION LN";"NEW FLORENCE";"PA";15944;"WESTMORELAND";7242359748;"https://shchildservices.org/";"info@shchildservices.org";"Seton Hill Child Services mission is to serve families ethically, with the highest quality of care. We set the standard for quality childcare by demonstrating exemplary skills and commitment to children, families, and our staff.";"https://shchildservices.org/classes/laurel-valley/";;"https://shchildservices.org/employment-opportunities/";;"https://shchildservices.org/wp-content/uploads/2018/03/PARENT-HANDBOOK-JULY-2017-updated.pdf";"x";"x";"x";;;;"https://shchildservices.org/wp-content/uploads/2018/01/logo-square-100.png";"7:30AM - 3:30PM";"7:30AM - 3:30PM";"7:30AM - 3:30PM";"7:30AM - 3:30PM";"7:30AM - 3:30PM";"Closed";"Closed";
1174262;"LOVELI FOUNDATIONS LLC";"1718 SW Rugh Street";"Greensburg";"PA";15601;"WESTMORELAND";7248372742;"http://inwestmoreland.com/business/loveli-foundations/";"Lovelifoundations@hotmail.com";;;;;;;;;;;;;;;;;;;;;
1174269;"Peanut Patch Too";"224 PENN ST";"NEW BETHLEHEM";"PA";16242;"CLARION";8144575172;;;;;;;;;;;;;;;;;;;;;;;
1174271;"BLUESTAR PRESCHOOL LEARNING CENTER";"8 BORO RD";"TUNKHANNOCK";"PA";18657;"WYOMING";5704998235;"http://www.bluestarpreschool.com/";;"Bluestar preschool is here to provide the highest quality child care and family support in a most loving environment. We emphasize learning through play, by helping children grow through involvement in the world around them. ";"http://www.bluestarpreschool.com/";;;"http://www.bluestarpreschool.com/servicesandfees.php";;;;;"x";;;;;;;;;;;
1174272;"LIBERTY ELEMENTARY SCHOOL";"8622 ROUTE 414";"LIBERTY";"PA";16930;"TIOGA";5703242521;;;;;;;;;;;;;;;;;;;;;;;
1174276;"KEYSTONE LEARNING ACADEMY";"2105 CARLISLE RD";"YORK";"PA";17408;"YORK";7177646839;;;;;;;;;;;;;;;;;;;;;;;
1174279;"EASTERN YORK AREA RECREATION COMMISSION";"28 WEST MAPLE STREET";"EAST PROSPECT";"PA";17317;"York";7172468155;"http://www.eyarc.org/";"eyarc@comcast.net";"The Eastern York Area Recreation Commission is a not-for-profit organization that is committed to encouraging a sense of community in the Eastern York Area by providing professionally organized recreational and educational programs and activities. The Commission is dedicated to bringing you programs available in athletics, fitness, recreation, education, culture, entertainment, wellness, family events, child care, and travel opportunities for community members of all ages.";"http://www.eyarc.org/contactinfo.html";;"http://www.eyarc.org/employ.html";"http://www.eyarc.org/registrations.html";;;;"x";"x";"x";"x";"http://www.eyarc.org/images/title.png";"9AM - 3PM";"9AM - 3PM";"9AM - 3PM";"9AM - 3PM";"9AM - 3PM";"Closed";"Closed";
1174278;"BOB HOFFMAN YMCA";"1705 PALOMINO RD";"DOVER";"PA";17315;"YORK";7172925622;"http://www.yorkcoymca.org/";"mgross@yorkcoymca.org";"The mission of the YMCA of York and York County is to put Christian Principles into practice through programs that build a healthy spirit, mind and body for all.";"http://www.yorkcoymca.org/ymca-locations/dover/";"https://www.facebook.com/BobHoffmanDoverY/";;;;;;;;"x";"x";"http://www.yorkcoymca.org/wp-content/themes/bones/library/images/ymca-of-york-and-york-county-logo.png";"6AM - 10PM";"6AM - 10PM";"6AM - 10PM";"6AM - 10PM";"6AM - 10PM";"8AM - 5PM";"1AM - 5PM";
1174277;"DELTA-PEACH BOTTOM ELEMENTARY SCHOOL";"1081 ATOM RD";"DELTA";"PA";17314;"YORK";7174565313;"http://delta.sesdweb.net/";;"Creating a curious, collaborative community...one child at a time.";"http://delta.sesdweb.net/";"https://www.facebook.com/DeltaPeachBottomElementary/";;"http://sesddelta.ss13.sharpschool.com/cms/One.aspx?portalId=143332&pageId=769572";;;;"x";"x";;;"http://p13cdn4static.sharpschool.com/UserFiles/Servers/Server_143248/Image/RamJPG.png";;;;;;;;
1174284;"CENTRAL ELEMENTARY";"555 W MOUNTAIN AVE";"WILLIAMSPORT";"PA";17702;"LYCOMING";5703233694;;;;;;;;;;;;;;;;;;;;;;;
1174286;"CAPPA";"734 W 4TH ST";"WILLIAMSPORT";"PA";17701;"LYCOMING";5703267700;"http://www.cappaproject.org/";;"Welcome to CAPPA (Community Alliance for Progressive Positive Action)! CAPPA is a progressive non-profit youth intervention and development program located in Williamsport, Pennsylvania.";"http://www.cappaproject.org/";"https://www.facebook.com/cappaproject/";;"http://www.cappaproject.org/index.php?page=programs";;;;;;;;"https://scontent.fskp2-1.fna.fbcdn.net/v/t1.0-1/c17.0.187.187/10292535_521599697945490_2363620891608216507_n.jpg?_nc_cat=0&oh=f7d2d095dd8667596c8c701db5731aac&oe=5B8D6946";;;;;;;;
1174285;"WARD L MYERS ELEMENTARY";"125 NEW ST";"MUNCY";"PA";17756;"LYCOMING";5705463129;"https://www.muncysd.org/";" vconner@muncysd.org";"EDUCATE, EMPOWER, INSPIRE, COLLABORATE                       Muncy leads the way in inspiring youth through unparalleled academics, character building, tradition and innovation";"https://www.muncysd.org/wardlmyerses";;"https://www.facebook.com/myersopt/";;"https://www.muncysd.org/domain/243";;;"x";"x";;;"https://scontent.fskp2-1.fna.fbcdn.net/v/t1.0-1/c39.0.200.200/p200x200/10636128_506483262788034_7839491597783835259_n.jpg?_nc_cat=0&oh=1b28a9f29237dff30c1d8a1bbd21459f&oe=5B96EED0";"8:30AM - 3:10PM";"8:30AM - 3:10PM";"8:30AM - 3:10PM";"8:30AM - 3:10PM";"8:30AM - 3:10PM";"Closed";"Closed";
1174287;"VENTURES IN LEARNING";"17 MOORE RD";"HAMLIN";"PA";18427;"WAYNE";5706899671;"http://www.northpoconopreschool.org/";;"North Pocono Preschool and Child Care Centers is in existence to provide early childhood related programs and resources for adults and affordable, quality programs and services for their children.";"http://www.northpoconopreschool.org/locations.html";;;;;"x";"x";"x";"x";;;"http://www.northpoconopreschool.org/img/bear.png";"6:30AM -5:30PM";"6:30AM -5:30PM";"6:30AM -5:30PM";"6:30AM -5:30PM";"6:30AM -5:30PM";"Closed";"Closed";
1174289;"KINDERCARE LEARNING CENTERS 073048";"633 QUINCY AVE";"SCRANTON";"PA";18510;"LACKAWANNA";5703444397;;;;;;;;;;;;;;;;;;;;;;;"Closed"
