"id";"name";"address";"city";"state";"zip";"county";"phone";"main url";"email";"details";"location website";"facebook page";"career/employment url";"application/registration url";"parent handbook url";"infant (under 12 months)";"toddler (1-2yrs)";"preschools (2-3yrs)";"pre-kindergarden(4yr)";"before/afterschools";"camps";"logo url";"monday hour";"tuesday hour";"wednesday hour";"thursday hour";"friday hours";"saturday hour";"sunday hour";"notes"
1176799;"Aspire Early Learning Academy, LLC #2";"320 South Lake Drive";"Lexington";"SC";29072;"LEXINGTON";"(803) 356-0650";"http://aspireearlylearningacademy.com/";" AspireEarlyLearningAcademy@gmail.com.";"We prepare your preschooler for kindergarten in a positive, safe, loving, and fun environment that focuses on academics and social interactions.";"http://aspireearlylearningacademy.com/contact/";"https://www.facebook.com/AspireAcademy2/";"http://aspireearlylearningacademy.com/employment/";"http://aspireearlylearningacademy.com/registration/";;"x";"x";"x";"x";;;"http://aspireearlylearningacademy.com/wp-content/uploads/2017/11/Aspire-Logo-300x213.jpg";"6:30AM - 6PM";"6:30AM - 6PM";"6:30AM - 6PM";"6:30AM - 6PM";"6:30AM - 6PM";"Closed";"Closed";
1176802;"Montessori School of Lexington";"1901 Augusta Highway";"Lexington";"SC";29072;"LEXINGTON";"(803) 490-0209";"http://www.montessorischooloflexington.com/";"MontessoriSchoolOfLexington@gmail.com";"At MSL we emphasize independence, freedom within limits, and respect for a child’s natural psychological, physical, and social development";"http://www.montessorischooloflexington.com/";"https://www.facebook.com/montessorischooloflexington/";;;"http://www.montessorischooloflexington.com/";;;"x";"x";;;"https://scontent.fskp2-1.fna.fbcdn.net/v/t1.0-1/c40.0.200.200/p200x200/15578547_1808281702761772_7836447418734905679_n.jpg?_nc_cat=0&oh=791469aedd50f74a5d63ba02a6967a1d&oe=5BB77B7C";"7:30AM - 5:30PM";"7:30AM - 5:30PM";"7:30AM - 5:30PM";"7:30AM - 5:30PM";"7:30AM - 5:30PM";"Closed";"Closed";
1176805;"Little Mountain Elementary School";"692 Mill Street";"Little Mountain";"SC";29075;"NEWBERRY";"(803) 945-7721";"http://littlemountainelem.sc.nce.schoolinsites.com/";"kmack@newberry.k12.sc.us";"Little Mountain Elementary, a historical community school strongly supported by parental and community involvement, is the setting for 402 “Winning Wildcats.”";"http://littlemountainelem.sc.nce.schoolinsites.com/";"https://www.facebook.com/LittleMountainElementary/";;"http://littlemountainelem.sc.nce.schoolinsites.com/?PageName=%27Forms%27&iSection=%27Administrative%27&CorrespondingID=%270%27";"http://littlemountainelem.sc.nce.schoolinsites.com/?PageName=bc&n=228412";;;"x";"x";;;"https://scontent.fskp2-1.fna.fbcdn.net/v/t1.0-1/p200x200/20525641_836835333146592_8679089718120983762_n.jpg?_nc_cat=0&oh=8f044a54f4ded1ff2c2d91b771fbabfe&oe=5BB1EF4E";"7:30AM - 2:40PM";"7:30AM - 2:40PM";"7:30AM - 2:40PM";"7:30AM - 2:40PM";"7:30AM - 2:40PM";"Closed";"Closed";
1176806;"Holy Trinity Catholic School";"1760 Living Stones Lane";"Longs";"SC";29568;"HORRY";"(843) 390-4108";"http://www.htcatholicschoolmyrtlebeach.com/";"MMCCONNELL@charlestondiocese.org";"Holy Trinity Catholic School, a ministry of Our Lady Star of the Sea Parish, offers toelementary students of diverse ethnic, economic and religious backgrounds a superioracademic program based on Gospel values. Within a family atmosphere, the schoolstrives to develop the spiritual, academic, personal, creative and physical growth of eachstudent.";"http://www.htcatholicschoolmyrtlebeach.com/our-school.html";;;"http://www.htcatholicschoolmyrtlebeach.com/admissions.html";"http://www.htcatholicschoolmyrtlebeach.com/school-handbook.html";;;"x";"x";;;"http://www.htcatholicschoolmyrtlebeach.com/uploads/7/4/5/6/7456121/logo_orig.jpg";"7:40AM - 2:40PM";"7:40AM - 2:40PM";"7:40AM - 2:40PM";"7:40AM - 2:40PM";"7:40AM - 2:40PM";"Closed";"Closed";
1176811;"Anderson Mill Elementary";"1845 Old Anderson Mill road";"Moore";"SC";29369;"SPARTANBURG";"(864) 576-6539";"https://ames.spart6.org/";"haunbd@spart6.org";"The mission of Anderson Mill Elementary School is to develop competent and confident lifelong learners by creating a safe, positive, innovative, environment where the staff, parents, and community work together to provide a curriculum that recognizes individual differences and allows for students to reach their maximum potential. ";"https://ames.spart6.org/";"https://www.facebook.com/Anderson-Mill-Elementary-School-168095213204419/";;;;;;"x";"x";"x";;;"7:30AM - 2:30PM";"7:30AM - 2:30PM";"7:30AM - 2:30PM";"7:30AM - 2:30PM";"7:30AM - 2:30PM";"Closed";"Closed";
1176812;"Lowcountry Learners";"1210 Hospital Drive";"Mount Pleasant";"SC";29464;"CHARLESTON";"(843) 388-1949";"https://trisib.wixsite.com/learners";"info@lowcountrylearners.com";"Education is the most powerful weapon which   you can use to change the world";"https://trisib.wixsite.com/learners";"https://www.facebook.com/lowcountrylearners/";;"https://trisib.wixsite.com/learners/Programs";;;;"x";"x";;"x";"https://static.wixstatic.com/media/cba2e1_da1546a939524e30bac5b6835aa8aa47~mv2.jpg/v1/fill/w_595,h_229,al_c,q_80,usm_0.66_1.00_0.01/cba2e1_da1546a939524e30bac5b6835aa8aa47~mv2.webp";;;;;;;;
1176813;"Primrose School of Mount Pleasant";"2674 Brickside Lane";"Mount Pleasant";"SC";29466;"CHARLESTON";"(843) 972-2604";"https://www.primroseschools.com/";"ccaldwell@primrosemountpleasant.com";"With purposeful play and nurturing guidance from teachers, our Balanced Learning approach inspires children to think in more ways: with creativity, compassion and resourcefulness. This time-tested approach instills a love of learning and discovery that helps your child develop and excel for years.";"https://www.primroseschools.com/schools/mount-pleasant/";"https://www.facebook.com/PrimroseMountPleasant/";"https://www.primroseschools.com/schools/mount-pleasant/careers/";;;"x";"x";"x";"x";"x";"x";"https://scontent.fskp2-1.fna.fbcdn.net/v/t1.0-1/p200x200/19030524_935260919945055_6648307487083022964_n.png?_nc_cat=0&oh=dd69dd307308907a66b25ed12bc8618a&oe=5BA712EF";"6:30AM-6PM";"6:30AM-6PM";"6:30AM-6PM";"6:30AM-6PM";"6:30AM-6PM";"Closed";"Closed";
1176814;"The Preschool of the Arts at The Center for Jewish Life";"477 Mathis Ferry Road";"Mount Pleasant";"SC";29464;"CHARLESTON";"(843) 884-2323";"http://preschooloftheartscharleston.com/";"rachel@preschooloftheartscharleston.com";"We maintain a safe, healthy, nurturing, and engaging environment for children, where all social, emotional, and cognitive developmental needs are addressed. Opportunities are provided for children to take responsibility, make decisions, and learn through play in mixed-aged classrooms.";"http://preschooloftheartscharleston.com/";;;"http://preschooloftheartscharleston.com/application-process/";;;"x";"x";"x";;;"http://preschooloftheartscharleston.com/wp-content/uploads/2017/03/hp_logo.png";"9AM - 3PM";"9AM - 3PM";"9AM - 3PM";"9AM - 3PM";"9AM - 3PM";"Closed";"Closed";
1176815;"My Sunshine Child Development Center";"3631 Socastee Bvld";"Myrtle Beach";"SC";29588;"HORRY";"(843) 293-3080";"https://www.mysunshinecdc.com/";"mysunshinecdc@gmail.com";"We are a family oriented child care center, providing a loving, caring, and fun environment for your little ones to grow and learn in. When you are here you and your family become apart of our family.";"https://www.mysunshinecdc.com/";"https://www.facebook.com/mysunshinecdc";;;"https://www.mysunshinecdc.com/Programs";"x";"x";"x";"x";;;;"7AM-6PM";"7AM-6PM";"7AM-6PM";"7AM-6PM";"7AM-6PM";"Closed";"Closed";
1176816;"Kids Unlimited Too";"1911 Golden Street";"Newberry";"SC";29108;"NEWBERRY";;;;;;;;;;;;;;;;;;;;;;;;
1176817;"True Foundations Learning Center";"1817 Hidden Hills Road";"North Augusta";"SC";29841;"AIKEN";"(803) 613-6290";;"truefoundationsfamily@gmail.com";"""Building Strong Futures"" is the heartbeat of the Learning Center. We are focused on providing the best in early learning experiences for each child.";;"https://www.facebook.com/TrueFoundationsFamily/";;;;;;;;;;"https://scontent.fskp2-1.fna.fbcdn.net/v/t31.0-8/26170397_1024181061056441_8646966637757599795_o.jpg?_nc_cat=0&oh=2b2da4b0f80baf5d9c241e595e6efa0d&oe=5BB92181";"7AM-6PM";"7AM-6PM";"7AM-6PM";"7AM-6PM";"7AM-6PM";"Closed";"Closed";
1176818;"Busy Bee's Childcare & Preschool";"401 Martintown Road. Suite 138";"North Augusta";"SC";29841;"AIKEN";"(803) 257-4185";;"weekendsoffun@gmail.com";"Busy Bees Childcare & Preschool is a new childcare center located in the heart of North Augusta. serving ages 6wks-12 years old . 4K program offered";;"https://www.facebook.com/Busy-Bees-Childcare-Preschool-735167366496355/";;;;"x";"x";"x";"x";;;"https://scontent.fskp2-1.fna.fbcdn.net/v/t1.0-1/c0.0.200.200/p200x200/12804882_1158532444159843_3680215523016021711_n.jpg?_nc_cat=0&oh=b4dbe30fc8ee267d22b1f0d7d2b7c369&oe=5BA82867";"7AM-6PM";"7AM-6PM";"7AM-6PM";"7AM-6PM";"7AM-6PM";"Closed";"Closed";
1176820;"Academy Kingdom CCC";"2005 Stokes Avenue";"North Charleston";"SC";29406;"CHARLESTON";"(843) 277-2861";;;"Day care";;"https://www.facebook.com/Academy-Kingdom-Child-Care-Center-323194428057574/";;;;;;;;;;;"6AM - 11PM";"6AM - 11PM";"6AM - 11PM";"6AM - 11PM";"6AM - 11PM";"Closed";"Closed";
1176821;"All God's Children Childcare";"1357 Remount Rd Ste 6";"North Charleston";"SC";29406;"CHARLESTON";"(843) 744-6869";"http://www.allgodschildrenchildcare.net/";"allgodschildrenchildcare1@gmail.com";"We are incorporating ""Go Green,"" a planet friendly enviorment that allows each child the opportunity to create, explore and learn through play and problem solving. These techniques gives a sense of self-esteem and self-worth.";"http://www.allgodschildrenchildcare.net/";"https://www.facebook.com/weloveourkids1/";;;;;;;;;;"http://www.allgodschildrenchildcare.net/bg-1-136058.jpeg?u=3152816047";"6AM - 9PM";"6AM - 9PM";"6AM - 9PM";"6AM - 9PM";"6AM - 9PM";"9AM - 6PM";"Closed";
1176824;"Loving and Learning Child Care Center";"5353 Park Forest Parkway";"North Charleston";"SC";29418;"CHARLESTON";"(842) 552-8585";"http://www.lovingandlearning.com/";"contact@lovingandlearning.com";"Our ultimate goal is to place children on the road to becoming successful, well-rounded young people who will one day share our world as contributing and caring adults.";"http://www.lovingandlearning.com/locations.asp";"https://www.facebook.com/LovingandLearningCCC/";;;;"x";"x";"x";"x";;"x";"http://www.lovingandlearning.com/images/header.gif";;;;;;;;
1176828;"The Oaks Children's Academy";"8695 Dorchester Road";"North Charleston";"SC";29420;"CHARLESTON";"(843) 207-3061";"http://www.theoaksacademy.com/";"theoakschildrensacademy@gmail.com";"The mission of The Oaks Children’s Academy is to provide high quality, developmentally appropriate preschool education in a safe and caring environment, helping children develop socially, creatively, emotionally, physically and intellectually. We strive to provide a healthy and nurturing atmosphere that will foster each child’s feeling of autonomy and positive self-image.";"http://www.theoaksacademy.com/locations/";"https://www.facebook.com/The-Oaks-Childrens-Academy-N-Charleston-254141461720303/";"http://www.theoaksacademy.com/employment/";;;"x";"x";"x";"x";;;"http://www.theoaksacademy.com/wp-content/uploads/2017/07/FullSizeRender-11.jpg";"6AM - 6PM";"6AM - 6PM";"6AM - 6PM";"6AM - 6PM";"6AM - 6PM";"Closed";"Closed";
1176830;"Hannah-Pamplico Elementary/Middle School";"2131 South Pamplico Highway";"Pamplico";"SC";29583;"FLORENCE";"(843) 493-5588";"https://es.fsd2.org/";"hpems@flo2.k12.sc.us";"Hannah-Pamplico Elementary/Middle School is helping all students develop the world class skills and life and career characteristics of the Profile of the South Carolina Graduate by providing an environment that supports our purpose— “Awesome Happens Here: Inspiring Learning, Leading, and Caring.”";"https://es.fsd2.org/";"https://www.facebook.com/Hannah-Pamplico-Elementary-Middle-School-343699965781757/?rc=p";"https://es.fsd2.org/apps/pages/index.jsp?uREC_ID=685703&type=d&pREC_ID=1126198";;"https://1.cdn.edl.io/NOvwywGauyZUAbrQiFaEIljXl8714fdd9qSeHsRqtezZbFUP.pdf";;;;;;;;;;;;;;;
1176831;"Pauline Glenn Springs Elementary";"2957 Highway 56";"Pauline";"SC";29374;"SPARTANBURG";"(864) 583-1868";"https://pgs.spart6.org/";;"Where Dreams Begin...";"https://pgs.spart6.org/";"https://www.facebook.com/Pauline-Glenn-Springs-Elementary-School-602950596414474/";;;"https://pgs.spart6.org/apps/pages/index.jsp?uREC_ID=988601&type=d&pREC_ID=1305131";;;"x";"x";"x";;"https://1.cdn.edl.io/mCQGy3OVNdaghq3uSYuwekywKuvAkpcMnLW6Ihb8be0TMuaZ.jpg";"7:45AM - 2:30PM";"7:45AM - 2:30PM";"7:45AM - 2:30PM";"7:45AM - 2:30PM";"7:45AM - 2:30PM";"Closed";"Closed";
1176834;"House of Joy Childcare Center II";"1321 Springsteen Road";"Rock Hill";"SC";29730;"YORK";"(803) 417-7041";;;"Daycare/ ""Where Learning is a Joy""";;"https://www.facebook.com/House-of-Joy-Daycare-126847840723616/";;;;"x";"x";"x";"x";;;;;;;;;;;
1176836;"Roebuck Elementary";"2401 E Blackstock Road";"Roebuck";"SC";29376;"SPARTANBURG";"(864) 576-6151";;"hembrehc@spart6.org";"A STEAM school";;"https://www.facebook.com/Roebuck-Elementary-287273514725108/";;;;;;"x";"x";;;"https://scontent.fskp2-1.fna.fbcdn.net/v/t31.0-8/11782287_845141908938263_1008043307837344878_o.jpg?_nc_cat=0&oh=6e0a36f536b0c2c47357f1010aa717c9&oe=5B9F361F";;;;;;;;
1176837;"Stepping Stones Learning Center LLC";"49 Saint Matthews Rd";"Saint Matthews";"SC";29135;"CALHOUN";"(803) 655-5437";;"katy.sslc@gmail.com";"The mission of Stepping Stones Learning Center is to provide safe, loving, and supportive high quality child care for children in our community.";;"https://www.facebook.com/steppingstoneslc/";;;;"x";"x";"x";"x";;;;"6:30AM-6PM";"6:30AM-6PM";"6:30AM-6PM";"6:30AM-6PM";"6:30AM-6PM";"Closed";"Closed";
1176838;"Saluda Schools Early Head Start";"403 D N. Calhoun Street";"Saluda";"SC";29138;"SALUDA";"(864) 445-2389";"http://www.saludaschools.org/";;"To establish an educational foundation with diverse learning experiences for all through strong school, family, and community relationships.";"http://www.saludaschools.org/Schools/Saluda-County-Adult-Education";"https://www.facebook.com/Saluda-School-District-1535205733407152/?fref=ts&rf=233116073564198";;;"http://www.saludaschools.org/Parents";;;"x";"x";;;;;;;;;;;
1176842;"Celebration Christian Academy/Preschool";"1441 Jonesville Road";"Simpsonville";"SC";29681;"GREENVILLE";"(864) 688-2900";"http://www.celebrationchurchsc.org/home.html";"info@CelebrationChurchSC.org";"The mission of CCA is helping students to win in life through effective teaching and learning that is biblically sound, academically rigorous, socially engaged, and culturally relevant.";"http://www.celebrationchurchsc.org/academy---preschool.html";"https://www.facebook.com/pg/CelebrationChurchWelcomesYou/about/?ref=page_internal";;;;"x";"x";"x";"x";"x";"x";;"c";"6:30AM-6PM";"6:30AM-6PM";"6:30AM-6PM";"6:30AM-6PM";"Closed";"Closed";
1176844;"Fairforest Elementary";"1005 Mt Zion Road";"Spartanburg";"SC";29303;"SPARTANBURG";"(864) 439-5000";"https://fes.spart6.org/";"myfesfb@gmail.com";"The mission of Fairforest Elementary School is to prepare our students for lifelong learning through a challenging curriculum with open communication in a safe, respectful environment.";"https://fes.spart6.org/";"https://www.facebook.com/Fairforest-Elementary-School-635146279849120/";;;;;;;"x";;;"https://1.cdn.edl.io/ECBhnEyQEceDFLlaJm0ckSQsje2TCXVKUTHL8Iyl2ssFVC1i.jpg";;;;;;;;
1176852;"Northwood Academy Pre-school";"100 Charger Drive";"Summerville";"SC";29486;"DORCHESTER";"(843) 764-2271";"https://northwoodacademy.com/home";"preschool@northwoodacademy.com";"To educate students with an emphasis on college preparation, through academic and character development supplemented by the arts, athletics, and the humanities, with Christian values forming the underlying foundation.";"https://northwoodacademy.com/preschool-academics/";"https://www.facebook.com/NAchargers/";;;"https://static1.squarespace.com/static/57027e4ee321408302d81526/t/5accc895f950b7425268d23b/1523370134621/2018-2019+Pre-school+Handbook.pdf";;;"x";"x";;;"https://static1.squarespace.com/static/57027e4ee321408302d81526/t/57a8a0b89f745640fd67cfa4/1528997556444/?format=1500w";"6:30AM-6PM";"6:30AM-6PM";"6:30AM-6PM";"6:30AM-6PM";"6:30AM-6PM";"Closed";"Closed";
1176858;"Colleton Prep Academy";"165 Academy Road";"Walterboro";"SC";29488;"COLLETON";"(843) 538-8959";"http://www.colletonprep.org/";"cpa@colletonprep.org";"We look and learn beyond tomorrow because we know our students will live and work in an ever changing society.  While we prepare our students to be successful in college, we also give them the skills and values they will need to succeed in life.  We are ""creating leaders for a changing world.";"http://www.colletonprep.org/";"https://www.facebook.com/colletonprep/";"http://www.colletonprep.org/employ.html";"http://www.colletonprep.org/admin.html";"http://www.colletonprep.org/handbook.html";;;;"x";"x";;"http://www.colletonprep.org/images/header-test_01.png";"8AM - 2:30PM";"8AM - 2:30PM";"8AM - 2:30PM";"8AM - 2:30PM";"8AM - 2:30PM";"Closed";"Closed";
1176859;"Little Angels Child Development Center";"67 Rocky One Road";"Winnsboro";"SC";29180;"FAIRFIELD";"(803) 712-0230";;;"Providing Quality Child Care....Where Good Beginnings Never End...";;"https://www.facebook.com/Little-Angels-Child-Development-Center-1360171254047032/";;;;"x";"x";"x";"x";;;"https://scontent.fskp2-1.fna.fbcdn.net/v/t1.0-1/p200x200/16938839_1360367160694108_5984748376615237593_n.jpg?_nc_cat=0&oh=b77a4dd01aa8a95d43b1d7146b6439a3&oe=5BA7B163";;;;;;;;
1176861;"Fennell Elementary CDEPP";"131 Yemassee Highway";"Yemassee";"SC";29945;"HAMPTON";"(803) 398-5591";"http://www.hampton1.org/";;"Fennell Elementary’s mission is to assist in the total development of our students. We will provide students with wholesome learning experiences that will enable them to apply knowledge, to analyze, create, and evaluate these experiences. ";"http://fennellelem.sc.schoolinsites.com/";;;;"http://images.pcmac.org/SiSFiles/Schools/SC/Hampton/FennellElem/Uploads/Publications/Fennell_Elementary_Magnet_School_HB.pdf";;;"x";"x";;;"http://images.pcmac.org/SiSFiles/Schools/SC/Hampton/FennellElem/images/homeclick.gif";"7AM - 2:30PM";"7AM - 2:30PM";"7AM - 2:30PM";"7AM - 2:30PM";"7AM - 2:30PM";"Closed";"Closed";
1176891;"RAGGEDY ANN AND ANDY PRESCHOOL AND DAYCARE, LLC";"707 N CENTENNIAL ST";"KIRKSVILLE";"MO";63501;"ADAIR";"(660) 995-4635";;"barbara.askew@outlook.com";;;;;;;;;;;;;;;;;;;;;
1176895;"LIL' CARDS LLC";"294 S 65 HWY";"LINCOLN";"MO";65338;"BENTON";"(660) 547-0220";;;"We provide safe quality care in a warm and welcoming environment to the children in the surroundings communities. A great learning, social development.";;"https://www.facebook.com/Lil-Cards-Daycare-257610468058536/";;;;;;;;;;;;;;;;;;
1176897;"PARKVIEW KIDS CLUB";"120 E GANO CHANCE DR";"CENTRALIA";"MO";65240;"BOONE";"(573) 682-4521";"http://www.parkviewcentralia.org/pcc/";"parkviewkidsclub@gmail.com";"Parkview Kids Club was founded to provide a Christ-centered safe and nurturing environment for children kindergarten through 6th grade before and after-school.";"http://www.parkviewcentralia.org/pcc/kids-club/";;;;;;;;"x";;;"http://www.parkviewcentralia.org/pcc/files/cache/55e14ce415f1373b5624230323eb0b7d_f17.jpg";"6:30AM-6PM";"6:30AM-6PM";"6:30AM-6PM";"6:30AM-6PM";"6:30AM-6PM";"Closed";"Closed";
1176906;"THE SANDLOT PRESCHOOL AND ACTIVITY CENTER LLC";"6420 E HIGHWAY 124";"HALLSVILLE";"MO";65255;"BOONE";"(573) 696-2020";;"thesandlotkids2020@gmail.com";"Daycare and preschool";;"https://www.facebook.com/thesandlotkids/";;;;"x";"x";"x";;;;"https://scontent.fskp2-1.fna.fbcdn.net/v/t1.0-1/p200x200/13077092_1624504877874699_8119013621790607099_n.jpg?_nc_cat=0&oh=1786ac31c74541dc0052bb3fe0e15203&oe=5BBECEE1";"6:30AM-5PM";"6:30AM-5PM";"6:30AM-5PM";"6:30AM-5PM";"6:30AM-5PM";"Closed";"Closed";
1176908;"BUSY BEE'S CHILDCARE";"127 TURNER PKWY";"CAMDENTON";"MO";65020;"CAMDEN";"(573) 525-1873";;;;;;;;;;;;;;;;;;;;;;;
1176910;"CHILDREN'S PLAYHOUSE AND LEARNING CENTER, LLC";"210 W WALNUT ST";"RAYMORE";"MO";64083;"CASS";"(816) 679-5073";;"samid14@hotmail.com";"samid14@hotmail.com";;"https://www.facebook.com/childrensplayhouseandlearningcenterLLC/";"https://www.facebook.com/pg/childrensplayhouseandlearningcenterLLC/jobs/?ref=page_internal";;;;;"x";;;;"https://scontent.fskp2-1.fna.fbcdn.net/v/t1.0-1/p200x200/22310404_122816308424504_4581076593548233276_n.jpg?_nc_cat=0&oh=70c3e5460fee6118fe000f33bb57272e&oe=5BBB6D18";"6AM - 6PM";"6AM - 6PM";"6AM - 6PM";"6AM - 6PM";"6AM - 6PM";"Closed";"Closed";
1176911;"EL DORADO SPRINGS R-2 SCHOOL DISTRICT";"1018 S PARK ST";"EL DORADO SPRINGS";"MO";64744;"CEDAR";"(417) 876-3112";"https://sites.google.com/a/mail.eldo.k12.mo.us/el-dorado-springs-schools/";"tlanser@mail.eldo.k12.mo.us";"The Mission of the El Dorado Springs R-2 School District is to provide an appropriate, comprehensive, quality education for ALL students with an emphasis on character development, and the acquisition of skills necessary for full participation in a changing society. We affirm that meaningful learning is a lifelong process involving home, school, and community.";"https://sites.google.com/a/mail.eldo.k12.mo.us/el-dorado-springs-schools/";;;;"https://docs.google.com/document/d/1endbzif3zeAV33skyBx9tZWSfQMkFvTQZxL0DiafIEI/edit?usp=drive_web";;;"x";"x";;;"https://sites.google.com/a/mail.eldo.k12.mo.us/el-dorado-springs-schools/_/rsrc/1470256611177/config/customLogo.gif?revision=45";"8:10AM - 3PM";"8:10AM - 3PM";"8:10AM - 3PM";"8:10AM - 3PM";"8:10AM - 3PM";"Closed";"Closed";
1176913;"STOCKTON R-1 SCHOOLS";"906 SOUTH ST";"STOCKTON";"MO";65785;"CEDAR";"(417) 276-5143";"https://www.stockton.k12.mo.us/";"dcrawford@stockton.k12.mo.us";"As a Stockton Tiger we strive to meet the individual needs of our students. Our Mission is to offer a complete program to educate and equip each student to live a responsible and profitable life as a citizen of the community, nation, and world";"https://www.stockton.k12.mo.us/";;"https://drive.google.com/file/d/13NDbd0ywLCpYfAtdT2_MqGBI8_7VCeNz/view?usp=sharing";;;;;"x";"x";;;"https://www.stockton.k12.mo.us/assets/apptegy_cms/themes/stocktonmo/logo-267376e88fcc6ca04a7eb945170881f2.png";;;;;;;;
1176916;"LEARN AND GROW ORGANIC DAYCARE LLC";"1879 N STATE HIGHWAY CC";"NIXA";"MO";65714;"CHRISTIAN";"(417) 812-6008";"http://www.springfieldorganicdaycare.com/";"learnandgroworganicdaycare@gmail.com";"Our mission is to provide a unique enriching experiences through outstanding quality care, organic healthy foods and attention to detail.  We want to change the perception of what a daycare should be and to far exceed the expectations of parent";"http://www.springfieldorganicdaycare.com/";"https://www.facebook.com/LearnandGrowOrganicDaycare/";"https://www.facebook.com/pg/LearnandGrowOrganicDaycare/jobs/?ref=page_internal";;;"x";"x";;;;;"http://nebula.wsimg.com/39866f2c6bd851e7c768c2147130586b?AccessKeyId=8D618EBF117355EC5495&disposition=0&alloworigin=1";;;;;;;;
1176918;"LOVE THE CHILDREN PRESCHOOL AND DAYCARE, LLC";"5055 N STATE HIGHWAY NN";"OZARK";"MO";65721;"CHRISTIAN";"(417) 731-4005";;"wendy@lovethechildrenpreschool.com";;;;;;;;;;;;;;;;;;;;;
1176919;"OZARK PRESCHOOL CIRCLE OF FRIENDS";"1517 S 4TH AVE";"OZARK";"MO";65721;"CHRISTIAN";"(417) 581-0046";;"ozark.preschool@yahoo.com";;;"https://www.facebook.com/ltckids/";;;;;;;;;;"https://scontent.fskp2-1.fna.fbcdn.net/v/t1.0-1/c1.0.200.200/p200x200/1618640_846174638741372_344739021_n.jpg?_nc_cat=0&oh=f1dac8c53a7b2283792f737036b25e5f&oe=5BA1A99F";;;;;;;;
1176920;"ABBC PRESCHOOL";"800 NE 72ND ST";"GLADSTONE";"MO";64118;"Clay";"(816) 436-1649";;;"A preschool program offering early education and pre-kindergarten readiness classes that engage children in successful early learning.";;"https://www.facebook.com/abbcpreschool/";;;;;;"x";"x";;;"https://scontent.fskp2-1.fna.fbcdn.net/v/t1.0-1/p200x200/12806193_1679348302335480_3688827270080187777_n.jpg?_nc_cat=0&oh=9f9c293fe8bc52200d3ebe5da98e1e1c&oe=5BBADE65";;;;;;;;
1176921;"LITTLE LAMBS PRESCHOOL";"2800 NE 64TH ST";"GLADSTONE";"MO";64119;"Clay";"(816) 454-6595";;;;;;;;;;;;;;;;;;;;;;;
1176923;"BRIGHTON MONTESSORI, LLC";"5026 N BRIGHTON AVE";"KANSAS CITY";"MO";64119;"JACKSON";"(816) 455-1175";"https://www.lpecs.com/";"laurahuddart.montessori3@gmail.com";"Brighton Montessori is a True Montessori school that serves children ages 6 weeks to 6 years! With combined experience over 75 years!";"https://www.lpecs.com/";"https://www.facebook.com/brightonmontessori3";;;;"x";"x";"x";"x";;;;"7AM - 6PM";"7AM - 6PM";"7AM - 6PM";"7AM - 6PM";"7AM - 6PM";"Closed";"Closed";
1176925;"STATION 17 LLC";"111 NW BARRY RD";"KANSAS CITY";"MO";64155;"JACKSON";"(816) 420-0604";;"AshleyJM33@gmail.com";;;;;;;;;;;;;;;;;;;;;
1176927;"THE LEARNING TREE DAYCARE & PRESCHOOL LLC";"3536 NW GOWER RD";"GOWER";"MO";64454;"CLINTON";"(816) 424-3373";;"kimberlyk_thelearningtreedaycare@live.com";"Are you, as a working parent, worried about your child's growth and development? Let the staff at The Learning Tree Daycare And Preschool of Gower.";;"https://www.facebook.com/The-Learning-Tree-Daycare-1682603851977556/?rf=381551955374089";;;;;;;;;;"https://scontent.fskp2-1.fna.fbcdn.net/v/t1.0-0/p370x247/12718343_1682604151977526_8728184755339948480_n.png?_nc_cat=0&oh=25d54885ba660649fd08533087bf1d94&oe=5BBA5CDA";"6AM - 5:30PM";"6AM - 5:30PM";"6AM - 5:30PM";"6AM - 5:30PM";"6AM - 5:30PM";"Closed";"Closed";
1176929;"SYCAMORE PLACE LLC";"3219 MASONIC CT";"JEFFERSON CITY";"MO";65109;"COLE";"(573) 301-5410";;"sycamorepreschool@gmail.com";;;;;;;;;;;;;;;;;;;;;
1176931;"MISSOURI OZARKS COMMUNITY ACTION, INC.";"357 JOST ST";"BOURBON";"MO";65441;"CRAWFORD";"(573) 732-4426";;" ";;;;;;;;;;;;;;;;;;;;;
1176932;"CLARKTON CONSOLIDATED SCHOOL DISTRICT C-4";"206 E HIGHWAY 162";"CLARKTON";"MO";63837;"DUNKLIN";"(573) 448-3712";"http://www.clarktonschools.org/elementary-school-0";"lmiller@clarkstonschools.org";;"http://www.clarktonschools.org/elementary-school-0";;"http://www.clarktonschools.org/employment-applications";"http://www.clarktonschools.org/forms-0";"http://www.clarktonschools.org/sites/clarktonschools.org/files/17-18_student_handbook.pdf";;;"x";"x";;;"http://www.clarktonschools.org/sites/clarktonschools.org/files/new_logo_-_10_31_17.png";;;;;;;;
1176933;"NEW HAVEN SCHOOL DISTRICT";"201 E ELTON AVE";"NEW HAVEN";"MO";63068;"FRANKLIN";"(573) 237-2141";;"jkinerk@newhavenschools.us";;;;;;;;;;;;;;;;;;;;;
1176934;"KIDS VILLIAGE LEARNING CENTER LLC";"105 T BOX DR";"ST CLAIR";"MO";63077;"FRANKLIN";"(636) 629-2900";;;;;;;;;;;;;;;;;;;;;;;"License Not Renewed"
1176935;"UNION RXI EARLY CHILDHOOD CENTER";"110 W SPRINGFIELD AVE";"UNION";"MO";63084;"FRANKLIN";"(636) 583-1202";"https://urxi-mo.schoolloop.com/";"vogelm@union.k12mo.us";"The Early Childhood Center is a separate building located on the Central Elementary campus. The center mostly serves children with developmental delays in one or more areas such as speech, language, motor, social/emotional, adaptive and cognition. Free screenings are provided once a year for ALL children through Parents As Teachers for infants, toddlers, and children in the Union R-XI School District beginning at four months of age up until the time the child enters Kindergarten. Home visits or visits at the Parents As Teacher Center can be arranged through a parent educator throughout the school year. Visits can also be set up when a family is expecting to help prepare for the arrival of the new family member.  Both programs are free of charge. Parents As Teacher program offers resources, play groups, screenings and home visits.  The Parents As Teacher program can provide developmental activities for ALL  children to be active during play for learning.  ";"https://urxi-mo.schoolloop.com/cms/section?d=x&group_id=1356617510539";;"https://unionrxi.tedk12.com/hire/index.aspx";;"http://urxi-mo.schoolloop.com/file/1356609713128/1356609569653/7027993380363459118.pdf";;;"x";"x";;;"https://urxi-mo.schoolloop.com/uimg/image/1356609569653/1439533068551.png";;;;;;;;
1176939;"VIBRANCY DAYCARE";"415 E WALKER ST";"ASH GROVE";"MO";65604;"GREENE";"(417) 363-7040";"https://www.vibrancyinchristministries.com/";"vibrancyoffice@gmail.com";;"https://www.vibrancyinchristministries.com/vibrancy-daycare";"https://www.facebook.com/pg/vibrancyinchrist/about/?ref=page_internal";"https://www.vibrancyinchristministries.com/employment";;;"x";"x";"x";"x";"x";;"https://static.wixstatic.com/media/fc7570_0b99766fd5ac43899d98e5dddf6934d8~mv2.gif";"6AM - 6PM";"6AM - 6PM";"6AM - 6PM";"6AM - 6PM";"6AM - 6PM";"Closed";"Closed";
1176940;"CHILD LIFE ACADEMY LLC";"517 E ELM ST";"REPUBLIC";"MO";65738;"GREENE";"(417) 459-6606";;"twoamzingkids@yahoo.com";;;;;;;;;;;;;;;;;;;;;
1176941;"CHILD LIFE ACADEMY LLC";"800 W STATE HIGHWAY 174";"REPUBLIC";"MO";65738;"GREENE";"(417) 732-2014";;;;;;;;;;;;;;;;;;;;;;;
1176942;"LITTLE PEOPLE'S WORKSHOP";"139 N WALNUT AVE";"REPUBLIC";"MO";65738;"GREENE";"(417) 882-2271";"http://www.hoodumc.org";"marlerk@hoodumc.org";"Little People's Workshop is a place where intentionally designed active learning leads children to know and understand God, themselves and their world.";"http://www.hoodumc.org/little-people-s-workshop";"https://www.facebook.com/pg/MinistryofHoodUnitedMethodistChurch/posts/?ref=page_internal";;;;;;;"x";;;"https://static.wixstatic.com/media/70b0a7_270e93b7902b4b38af8f0903291f561c~mv2.png/v1/fill/w_448,h_336,al_c,usm_0.66_1.00_0.01/70b0a7_270e93b7902b4b38af8f0903291f561c~mv2.png";;;;;;;;
1176944;"AFTER SCHOOL TUESDAY";"1222 W SUNSET ST";"SPRINGFIELD";"MO";65807;"GREENE";"(417) 893-6686";;;;;;;;;;;;;;;;;;;;;;;
1176945;"GREATER HEIGHTS LEARNING CENTER LLC";"2345 1/2 W KEARNEY ST";"SPRINGFIELD";"MO";65803;"GREENE";"(417) 368-1877";;"greaterheightslc@outlook.com";;;;;;;;;;;;;;;;;;;;;
1176947;"PRESCHOOL ACADEMY, LLC";"525 SOUTH AVE";"SPRINGFIELD";"MO";65806;"GREENE";"(417) 581-8710";"https://jamesriver.org";"info@preschool.academy";"Preschool Academy is a free two year preschool for 3 and 4 year olds. The mission is to strengthen and uplift low-income families by developing a Christ-centered and family-focused partnership. We feel this is cultivated by establishing an environment built on a strong Biblical foundation.";"https://jamesriver.org/preschool-academy";"https://www.facebook.com/sgfpreschoolacademy/";;"https://jamesriver.org/preschool-questionnaire";;;;"x";"x";;;"https://scontent-frx5-1.xx.fbcdn.net/v/t1.0-1/p200x200/20228262_1232529073523549_6698584419952687262_n.png?_nc_cat=0&_nc_eui2=AeF0fRxFoFlasNpMrye56JbDAhCTbKXUGgRTgHbXmGqiXDCcEgnqJRCexBjdFkTYbrz6p0CwjJRn0tV3D44QzFFVG8HZgaTdIU2VlAC9uJ7qiw&oh=2a2610c3b2150a1bb9e882ea51efa6e8&oe=5BA257EE";"9AM - 3PM";"9AM - 3PM";"9AM - 3PM";"9AM - 3PM";"9AM - 3PM";"Closed";"Closed";
1176948;"SERIOUSLY SILLY DAYCARE AND LEARNING CENTER LLC";"2121B W REPUBLIC RD";"SPRINGFIELD";"MO";65807;"GREENE";"(417) 351-8562";"http://seriouslysillylearningcenter.com/";"seriouslysillylearningcenter@gmail.com";"At Seriously Silly Daycare and Learning Center LLC, we are as serious about learning as we are silly about play!";"http://seriouslysillylearningcenter.com/";"https://www.facebook.com/seriouslysillydaycareandlearningcenter/";;;;;;;;;;;"6AM - 6PM";"6AM - 6PM";"6AM - 6PM";"6AM - 6PM";"6AM - 6PM";"Closed";"Closed";
1176949;"THE SCHOOL DISTRICT OF SPRINGFIELD, R-12";"2757 E DIVISION ST";"SPRINGFIELD";"MO";65803;"GREENE";"(417) 523-1300";"http://www.springfieldpublicschoolsmo.org/pages/SPSMO/SPS_Schools/Early_Childhood/Early_Childhood";"mriley@spsmail.org";;"http://www.springfieldpublicschoolsmo.org/pages/SPSMO/SPS_Schools/Early_Childhood/Early_Childhood";"https://www.facebook.com/SHADYDELLECC";;;;"x";"x";"x";"x";"x";;"http://www.springfieldpublicschoolsmo.org/files/_ZbAJx_/3f702536b31559883745a49013852ec4/TopGraphic-Placeholder.png?isPlacedWithSiteDesigner=true";;;;;;;;
1176950;"A TOUCH ABOVE CHILDCARE LLC";"9379 E EVERGREEN ST";"STRAFFORD";"MO";65757;"GREENE";"(417) 736-4646";"http://www.kidsneed.net/";"atouchabovechildcare@kidsneed.net";"Our goal is: To provide the highest quality of care possible and create a learning environment that involves a relationship between families and A Touch Above Childcare and Preschool.";"http://www.kidsneed.net/";"https://www.facebook.com/atouchabovechildcare/";;;;"x";"x";"x";"x";;;"https://scontent-frx5-1.xx.fbcdn.net/v/t1.0-1/p200x200/14572876_311514379207843_597333755396928451_n.jpg?_nc_cat=0&oh=50c68a07957dd9a605dea63110102db2&oe=5BB0334D";"6:30AM-6PM";"6:30AM-6PM";"6:30AM-6PM";"6:30AM-6PM";"6:30AM-6PM";"Closed";"Closed";
1176951;"BOONSLICK HEARTLAND YOUNG MEN'S CHRISTIAN ASSOCIATION, INC.";"702 LUCKY ST";"FAYETTE";"MO";65248;"HOWARD";"(660) 248-3800";;"thendrix@boonslickheartlandymca.com";;;;;;;;;;;;;;;;;;;;;
1176952;"THE LEARNING TREE PRESCHOOL AND DAYCARE, LLC";"305 HWY 21 NORTH";"PILOT KNOB";"MO";63663;"Iron";"(573) 546-5566";;;;;;;;;"x";"x";"x";"x";;;;"6AM - 9PM";"6AM - 9PM";"6AM - 9PM";"6AM - 9PM";"6AM - 9PM";"Closed";"Closed";
1176953;"SPECTRUM STATION BLUE SPRINGS, L.L.C.";"1353 NW JEFFERSON ST";"BLUE SPRINGS";"MO";64015;"JACKSON";"(816) 427-5858";"https://www.spectrumstation.com/";"bluesprings@spectrumstation.com";"At Spectrum Station, our mission is to serve children and their families by providing innovative, high quality early learning and child care, as well as providing many additional services to help our families in the busy world in which they live.";"https://www.spectrumstation.com/blue-springs-center.html";"https://www.facebook.com/SpectrumStationBlueSprings/";"https://www.spectrumstation.com/employment-opportunities.html";"https://www.spectrumstation.com/forms.html";;"x";"x";"x";"x";;;"https://scontent-frx5-1.xx.fbcdn.net/v/t1.0-1/c48.0.200.200/p200x200/14641940_331050833914983_4167175560715160317_n.jpg?_nc_cat=0&_nc_eui2=AeGLbS13AjPFOEu7QmvG2SseyD1aW0xWKU_KyeguOyPjmBXT0GLxVidhQbBAVZpVFW3nkR_ojqQA0RV-8uNy-tpHIkdS0cPItmnvIaebTxpF6A&oh=527665d3e46bcdd491f02e85fdf94bd0&oe=5BA13FE5";"6AM - 6:30PM";"6AM - 6:30PM";"6AM - 6:30PM";"6AM - 6:30PM";"6AM - 6:30PM";"Closed";"Closed";
1176954;"TRI-CITY CHRISTIAN EARLY LEARNING CENTER";"430 NE DUNCAN RD";"BLUE SPRINGS";"MO";64014;"JACKSON";"(816) 795-1088";"http://tri-city.org/tcearlylearning/";"preschool@tri-city.org";"We Offer a Quality Preschool and Childcare Program for children who are Infants through Pre-Kindergarten. We have been trusted by parents for over thirty years.";"http://tri-city.org/tcearlylearning/";;;;;"x";"x";"x";"x";;;"http://tri-city.org/tcearlylearning/wp-content/uploads/sites/3/2016/08/cropped-EL_LogoTreeheader-2.png";"6:30AM - 6PM";"6:30AM - 6PM";"6:30AM - 6PM";"6:30AM - 6PM";"6:30AM - 6PM";"Closed";"Closed";
1176955;"INDEPENDENCE SCHOOL DISTRICT";"1525 N NOLAND RD";"INDEPENDENCE";"MO";64050;"JACKSON";"(816) 521-5435";"https://www.isdschools.org";"Stephanie-miller@isdschools.org";"We are the home of the Bear Cubs. Christian Ott takes pride in its rich history as the oldest elementary school in the Independence School District. We are committed to providing powerful learning experiences for all children in order to develop knowledgeable and successful learners.";"http://sites.isdschools.org/ott";"https://www.facebook.com/OttPTA/";"https://www.isdschools.org/careers/";;"https://drive.google.com/file/d/0B0H5TeAvQJbgX2Fsb01TRDJLdnU2aXNvZHpmYXN2dUV0QUlz/view";;;"x";"x";;;"http://sites.isdschools.org/themes/responsive/images/2014-isd-logo-rev-for-web.png";"9:00AM - 4:03PM";"9:00AM - 4:03PM";"9:00AM - 4:03PM";"9:00AM - 4:03PM";"9:00AM - 4:03PM";"Closed";"Closed";
1176956;"INDEPENDENCE SCHOOL DISTRICT";"4300 S PHELPS RD";"INDEPENDENCE";"MO";64055;"JACKSON";"(816) 521-5475";"https://www.isdschools.org";"courtney_guy@isdschools.org";"By instilling within kids the motto of ""Practice Safety, Act Responsibly, Work Together, and Show Respect,"" they are empowered to establish a culture of learning.";"http://sites.isdschools.org/williamsouthern";;"https://www.isdschools.org/careers/";;"http://sites.isdschools.org/williamsouthern/useruploads/parents-and-students/2017-18%20Elementary%20Parent%20Student%20Handbook.pdf";;;"x";"x";;;"http://sites.isdschools.org/themes/responsive/images/2014-isd-logo-rev-for-web.png";"9:00AM - 4:03PM";"9:00AM - 4:03PM";"9:00AM - 4:03PM";"9:00AM - 4:03PM";"9:00AM - 4:03PM";"Closed";"Closed";
1176957;"INDEPENDENCE SCHOOL DISTRICT";"20404 E TRUMAN RD";"INDEPENDENCE";"MO";64056;"JACKSON";"(816) 521-5455";"https://www.isdschools.org";"ANNA_MORENO@ISDSCHOOLS.ORG";"Spring Branch Elementary School is located on the east side of the Independence School District. We are the home to approximately 250  Kindergarten through fifth grade students. Convenient before-and-after-school childcare is offered through the Kids’ Safari program. Our Parent Teacher Association supports the staff and students each year with a variety of fun activities, seasonal celebrations, and support of field trips.  We also have community partners who help us tremendously!   They help make Spring Branch a school where students can learn and grow!";"http://sites.isdschools.org/springbranch";;"https://www.isdschools.org/careers/";;"http://sites.isdschools.org/springbranch/useruploads/index/2017-18%20Elementary%20Parent%20Student%20Handbook.pdf";;;"x";"x";"x";;"http://sites.isdschools.org/themes/responsive/images/2014-isd-logo-rev-for-web.png";"9:00AM - 4:03PM";"9:00AM - 4:03PM";"9:00AM - 4:03PM";"9:00AM - 4:03PM";"9:00AM - 4:03PM";"Closed";"Closed";
1176958;"INDEPENDENCE SCHOOL DISTRICT";"17302 RD MIZE RD";"INDEPENDENCE";"MO";64057;"JACKSON";"(816) 521-5635";"https://www.isdschools.org";"JENNIFER_YOUNGHANS@ISDSCHOOLS.ORG";"Blackburn is a proud participant in the district's character education program, CHARACTERplus, a program which emphasizes postitive character traits in all areas of a student's life.";"http://sites.isdschools.org/blackburn";;"https://www.isdschools.org/careers/";;"http://sites.isdschools.org/blackburn/useruploads/parents-and-students/NEW%202017-18%20Elementary%20Parent%20Student%20Handbook.pdf";;;"x";"x";;;"http://sites.isdschools.org/themes/responsive/images/2014-isd-logo-rev-for-web.png";"9:00AM - 4:03PM";"9:00AM - 4:03PM";"9:00AM - 4:03PM";"9:00AM - 4:03PM";"9:00AM - 4:03PM";"Closed";"Closed";
1176959;"A BETTER CHANCE CHRISTIAN LEARNING CENTER";"2901 BENTON PLZ";"KANSAS CITY";"MO";64127;"JACKSON";"(816) 231-5777";;;;;;;;;;;;;;;;;;;;;;;
1176962;"INSPIRE EARLY EDUCATION CENTER LLC";"1019 ADMIRAL BLVD";"KANSAS CITY";"MO";64106;"JACKSON";"(816) 612-7729";;" ";;;;;;;;;;;;;;;;;;;;;
1176963;"PRESCHOOL OF THE ARTS EDUCATIONAL CENTER LLC";"5500 WOODLAND AVE";"KANSAS CITY";"MO";64110;"JACKSON";"(816) 541-3937";"http://preschoolartskc.business.site/";"Angelnurse80@gmail.com";" Childcare Center that focuses on learning and fun. At Preschool Of The Arts Educational Center we allow children to be individuals, teaching independence, self esteem and creativity to help each child learn and develop.";"http://preschoolartskc.business.site/";;;;;"x";"x";"x";"x";;;;"6:00AM - 9PM";"6:00AM - 9PM";"6:00AM - 9PM";"6:00AM - 9PM";"6:00AM - 9PM";"Closed";"Closed";
1176966;"SPECTRUM STATION DOWNTOWN LLC";"911 MAIN ST";"KANSAS CITY";"MO";64105;"JACKSON";"(816) 898-6543";"https://www.spectrumstation.com/";"downtown@spectrumstation.com";"https://www.spectrumstation.com/employment-opportunities.html";"https://www.spectrumstation.com/downtown-center.html";"https://www.facebook.com/SpectrumStationDowntown/?ref=page_internal";"https://www.spectrumstation.com/employment-opportunities.html";"https://www.spectrumstation.com/forms.html";;"x";"x";"x";"x";;;;"6AM - 6PM";"6AM - 6PM";"6AM - 6PM";"6AM - 6PM";"6AM - 6PM";"Closed";"Closed";
1176967;"THE CHILDREN'S LEARNING CENTER";"1648 E 63RD ST";"KANSAS CITY";"MO";64110;"JACKSON";"(816) 462-2368";;" ";"A safe place to learn and grow; We strive to meet the needs of the whole child-- social, emotional,cognitive, physical, and creative";;"https://www.facebook.com/auntieshousekc/";;;;;"x";"x";;;;;;;;;;;;
1176970;"FIRSTEDGE LLC";"1000 SW LONGVIEW PARK DR";"LEES SUMMIT";"MO";64081;"JACKSON";"(816) 600-0700";"https://www.goddardschool.com/";"leessummit2mo@goddardschools.com";"We are committed to providing a dynamic and nurturing preschool giving every child the opportunity to develop into a confident learner who is prepared for successin school and in life";"https://www.goddardschool.com/kansas-city/lees-summit-longview-park-drive-mo?utm_source=google&utm_medium=business_listings&utm_campaign=school&utm_content=main_button";"https://www.facebook.com/GoddardSchoolLeesSummitMO";;;;"x";"x";"x";"x";"x";"x";"https://scontent.fskp2-1.fna.fbcdn.net/v/t1.0-1/14212014_1101686233202242_4115483129887656230_n.jpg?_nc_cat=0&oh=546aa53370e0424256df8a6b8a801e0c&oe=5BB235FD";"7AM - 6PM";"7AM - 6PM";"7AM - 6PM";"7AM - 6PM";"7AM - 6PM";"Closed";"Closed";
1176971;"TOTALLY KIDZ ACADEMY, LLC";"604 SW JEFFERSON ST";"LEES SUMMIT";"MO";64063;"JACKSON";"(816) 282-2068";"http://totallykidzacademy.com/";"totallykidzacademy@gmail.com";"To provide a safe, nurturing environment where a child feels confident, and secure, where he/she will be stimulated to learn and grow. It’s a child’s instinct to learn. In their early years, they do so in everything they see, touch, smell, and hear. We seize every moment we can and turn it into a learning experience. It is our mission to give the children the tools they will need to grow into capable, self- confident, self-sufficient, human beings.";"http://totallykidzacademy.com/";"https://www.facebook.com/pg/TOTallyKidzAcademy/about/";"http://totallykidzacademy.com/contact/";;;"x";"x";"x";"x";"x";"x";"http://totallykidzacademy.com/wp-content/uploads/2017/06/cropped-logo-fixed.png";"6AM - 6PM";"6AM - 6PM";"6AM - 6PM";"6AM - 6PM";"6AM - 6PM";"Closed";"Closed";
1176973;"INDEPENDENCE SCHOOL DISTRICT";"11424 GILL ST";"SUGAR CREEK";"MO";64054;"Jackson";"(816) 521-4560";"https://www.isdschools.org";" ";"Sugar Creek Elementary School strives to be a caring learning community where all members are valued and supported.";"http://sites.isdschools.org/sugarcreek";;;;"http://sites.isdschools.org/sugarcreek/useruploads/important-information/2017-18%20Elementary%20Parent%20Student%20Handbook%20(1).pdf";;;"x";"x";;;"http://sites.isdschools.org/themes/responsive/images/2014-isd-logo-rev-for-web.png";"9:05AM - 4:08PM";"9:05AM - 4:08PM";"9:05AM - 4:08PM";"9:05AM - 4:08PM";"9:05AM - 4:08PM";"Closed";"Closed";
1176974;"FOOTPRINTS & FRIENDS TOO LLC";"5601 N MAIN ST";"JOPLIN";"MO";64801;"JASPER";"(417) 621-0050";"https://www.footprintsfriendspreschool.com/";"footprintsfriendspreschool@yahoo.com";"We provide a loving environment in which children can learn and interact as much as they can with the world around them. Here you will find a nurturing, educational environment for children ages birth through 12 years.";"https://www.footprintsfriendspreschool.com/";"https://www.facebook.com/Footprints-Friends-Preschool-Inc-161894673972871/";;;;"x";"x";"x";"x";;;"https://static.wixstatic.com/media/59e206_54b8a7dc591b4a31bfd5aec6b5f78832.png/v1/fill/w_408,h_142,al_c,usm_0.66_1.00_0.01/59e206_54b8a7dc591b4a31bfd5aec6b5f78832.png";"6AM - 6PM";"6AM - 6PM";"6AM - 6PM";"6AM - 6PM";"6AM - 6PM";"Closed";"Closed";
1176975;"IMMANUEL EARLY CHILDHOOD ACADEMY";"6500 METROPOLITAN BLVD";"BARNHART";"MO";63012;"JEFFERSON";"(636) 464-4114";;"contactieca@gmail.com";"State inspected child care, CPR and first aid trained teachers, Creative curriculum in a fun, caring environment.";;"https://www.facebook.com/ImmanuelEarlyChildhoodAcademy/";;;;"x";"x";"x";"x";;;"https://scontent.fskp2-1.fna.fbcdn.net/v/t1.0-1/p200x200/21272502_423982398003508_511852355930700190_n.jpg?_nc_cat=0&oh=2d89177c84cfb456d40a9fc8c37ac690&oe=5BA7EB72";"6:30AM - 6PM";"6:30AM - 6PM";"6:30AM - 6PM";"6:30AM - 6PM";"6:30AM - 6PM";"Closed";"Closed";
1176976;"MY FRIEND'S HOUSE, LLC.";"19 NEW SUGAR CREEK RD";"FENTON";"MO";63026;"SAINT LOUIS";"(636) 283-8830";"http://www.myfriendshousefenton.com/";"info@myfriendshousefenton.com";"At My Friend's House, our goal is to ensure that your kids are safe, they are learning through activities, and they are enjoying themselves. My Friend's House is more than just a name, it is our mantra. We strive to love your kids as much as you do. Our staff are not just babysitters, they are trained to teach your children arts, sports, and even sign language. Our low-level playground is great for kids with disabilities and those afraid of heights.";"http://www.myfriendshousefenton.com/";"https://www.facebook.com/myfriendshousedaycare/";;;;"x";"x";"x";"x";;;"http://uploads.webflow.com/57d9a2b40f95286d752fb564/57eafb1a1117c47f4d963b48_Asset%203.svg";"6AM - 6PM";"6AM - 6PM";"6AM - 6PM";"6AM - 6PM";"6AM - 6PM";"Closed";"Closed";
1176977;"ST. MARTIN UCC PRESCHOOL";"3229 HIGH RIDGE BLVD";"HIGH RIDGE";"MO";63049;"JEFFERSON";"(636) 677-5602";"http://www.stmartinucc-hr.com/";" St.martinuccpreschool17@outlook.com";"Children ages 3 to 5 years old are welcome at the St. Martin Preschool from 9:00 a.m. to 3:00 p.m. on Tuesdays and Thursdays. Prekindergarten and Early Learning classes run concurrently with the Public school program.";"http://www.stmartinucc-hr.com/church-preschool/";;;;;;;"x";"x";;;"https://static1.squarespace.com/static/561e6684e4b0c35ebcbfc53d/t/5a5115038165f5deaa5266f6/1515263241957/High+Ridge+Preschool+%281%29.png?format=1500w";"8AM - 4:30PM";"8AM - 4:30PM";"8AM - 4:30PM";"8AM - 4:30PM";"8AM - 4:30PM";"Closed";"Closed";
1176979;"LAUGH & LEARN DAYCARE CENTER, LLC";"1095 S MITCHELL ST";"WARRENSBURG";"MO";64093;"JOHNSON";"(660) 362-1522";;;;;"https://www.facebook.com/events/155047778297530/";;;;;;;;;;;;;;;;;;
1176980;"ALIBUGS PLAYHOUSE N LEARNING CENTER";"22510 GRAY EAGLE LN";"LEBANON";"MO";65536;"LACLEDE";"(417) 533-8100";;;"Day care center for age newborn to 12. State pay accepted";;"https://www.facebook.com/AliBugsPlayhouse/";;;;"x";"x";"x";"x";;;"https://scontent.fskp2-1.fna.fbcdn.net/v/t1.0-1/p200x200/36282619_226950824697479_7215965534578278400_n.jpg?_nc_cat=0&oh=98567b5bbc0f7d4af88c54eff3c82f8f&oe=5BA69ED3";"6AM - 5:30PM";"6AM - 5:30PM";"6AM - 5:30PM";"6AM - 5:30PM";"6AM - 5:30PM";"Closed";"Closed";
1176982;"TOT STOP LEARNING CENTER";"22940 GREEN HILLS RD";"LEBANON";"MO";65536;"LACLEDE";"(417) 532-0922";"https://brh7d4.wixsite.com/totstopdaycare";" ";"We are a day care in Lebanon, MO that offers a home away from home for the ages of 6 wks up to the age of 10. We would love to meet you! Come check us out!";"https://brh7d4.wixsite.com/totstopdaycare";;;;;"x";"x";"x";"x";;;;"5:30AM - 5:30PM";"5:30AM - 5:30PM";"5:30AM - 5:30PM";"5:30AM - 5:30PM";"5:30AM - 5:30PM";"Closed";"Closed";
1176983;"THE CROSS";"504 N ELM";"EMMA";"MO";65327;"LAFAYETTE";"(660) 463-7869";"http://holycrossemma.org/";"holycrossemma.sectrectary@centurytel.net";"The C.R.O.S.S was created to provide a supervised, fun-filled, Christian based environment for elementary aged children after regular school hours.";"http://holycrossemma.org/the-cross-after-school-care.html";"https://www.facebook.com/pages/Holy-Cross-Lutheran-Church-and-School/143644649136100";;;"https://drive.google.com/file/d/1HV4_T2tn6JiFooIyW6l6LIA9Ud64zOIq/view";;;;;"x";;;"after school - 5:30PM";"after school - 5:30PM";"after school - 5:30PM";"after school - 5:30PM";"after school - 5:30PM";"Closed";"Closed";
1176988;"BEGINNING TO GROW";"3021 MARKET ST";"HANNIBAL";"MO";63401;"MARION";"(573) 298-6639";;"growandlearn4@gmail.com";;;;;;;;;;;;;;;;;;;;;
1176993;"KREATIVE KIDDOS LLC";"13539 HIGHWAY 52";"VERSAILLES";"MO";65084;"MORGAN";"(573) 378-4822";;" ";;;"https://www.facebook.com/Kreative-Kiddos-Preschool-Daycare-of-Versailles-282357122136221/";;;;;;;;;"x";;;;;;;;;
1176997;"THOMPSON EARLY LEARNING CENTER";"3750 W 10TH ST";"SEDALIA";"MO";65301;"PETTIS";"(660) 851-0198";;"kelly.cady@ewthompsonhealth.com";"THOMPSON EARLY LEARNING CENTER in Pettis County, Missouri, is a child care center which provides high quality day care services for all children. Children who experience quality early education and child care in THOMPSON EARLY LEARNING CENTER in the city of Sedalia receive long term benefits. They have better math, language and social skills as they enter school, and, as they grow older, they will require less special education and will progress further in school.";;;;;;;;;;;;;"6AM - 9PM";"6AM - 9PM";"6AM - 9PM";"6AM - 9PM";"6AM - 9PM";"Closed";"Closed";
1176998;"LITTLE FEET BIG STEPS, LLC";"905 N MAIN ST";"WINDSOR";"MO";65360;"HENRY";"(660) 492-6460";;"jgann9@gmail.com";;;;;;;;;;;;;;;;;;;;;
1177000;"OZARKS REGIONAL YMCA";"1710 W BROADWAY";"BOLIVAR";"MO";65613;"POLK";"(417) 326-3100";"https://www.orymca.org/";"pshepard@orymca.org";"To promote Judeo-Christian values through programs that build a healthy spirit, mind and body for all.";"https://www.orymca.org/bolivar";"https://www.facebook.com/RoyBluntYMCABolivar/";;"https://www.orymca.org/bolivar-after-school";;"x";"x";"x";"x";"x";;"https://scontent-frx5-1.xx.fbcdn.net/v/t1.0-9/10408664_830292983730555_6016993615899329116_n.png?_nc_cat=0&oh=966ae34294184687676bbb73028e83c5&oe=5BE6289A";"5AM - 9PM";"5AM - 9PM";"5AM - 9PM";"5AM - 9PM";"5AM - 9PM";"7AM - 9PM";"1PM - 5PM";
1177001;"LITTLE WONDERS DAYCARE LLC";"16540 HIGHWAY 17";"CROCKER";"MO";65452;"PULASKI";"(573) 578-8130";;"paintmixs@hotmail.com";"A locally owned daycare facility, serving parents with children ages 2 and up.";;"https://www.facebook.com/pages/biz/Little-Wonders-Daycare-LLC-1204390666246258/";;;;;;"x";"x";"x";;"https://scontent-frx5-1.xx.fbcdn.net/v/t1.0-9/13620213_1204402456245079_8748475186969136593_n.jpg?_nc_cat=0&oh=d0576a2fc693098ae3b17c0067d99113&oe=5BA6AA69";"6AM - 9PM";"6AM - 9PM";"6AM - 9PM";"6AM - 9PM";"6AM - 9PM";"Closed";"Closed";
1177005;"STONEBROOKE KIDZ ACADEMY";"500 GW LANE STREET";"WAYNESVILLE";"MO";65583;"PULASKI";"(573) 774-3522";"https://www.stonebrookekidzacademy.com/";"stonebrookekidzacademy@gmail.com";"Our goal is to provide an excellent level of care to our children by working with parents, providing a loving home-like environment combined with a healthy diet, play, rest, and learning.";"https://www.stonebrookekidzacademy.com/";"https://www.facebook.com/stonebrookekidzacademy";;"https://www.stonebrookekidzacademy.com/s/Enrollment-application-6-17.pdf";"https://www.stonebrookekidzacademy.com/s/Parent-Handbook.pdf";"x";"x";"x";"x";"x";;"https://static1.squarespace.com/static/5877dcd08419c2c583ffdb1e/t/59f9034464265f591bb77cf4/1511880023766/?format=1500w";"5:30AM - 6PM";"5:30AM - 6PM";"5:30AM - 6PM";"5:30AM - 6PM";"5:30AM - 6PM";"Closed";"Closed";
1177007;"KELSO C-7 PRESCHOOL";"820 State Highway A";"BENTON";"MO";63736;"SCOTT";"(573) 545-3357";"http://kelsoc-7.wixsite.com/kelso";"CBENTLEY@KELSOC-6.K12.US.MO";"Kelso C-7 Elementary is the best kept secret in southeast Missouri. We are a small, highly successful, public school in New Hamburg, Missouri. We provide students in grades K-8 a private school class size in a public school setting.";"http://kelsoc-7.wixsite.com/kelso";;"http://kelsoc-7.wixsite.com/kelso/job-openings";;;;;;"x";"x";;"https://static.wixstatic.com/media/8178e8_a4447978a7eb411b8141bd8989906f77~mv2.png/v1/fill/w_385,h_131,al_c,usm_0.66_1.00_0.01/8178e8_a4447978a7eb411b8141bd8989906f77~mv2.png";;;;;;;;
1177008;"DELTA AREA ECONOMIC OPPORTUNITY CORPORATION";"123 ARTHUR";"SIKESTON";"MO";63801;"SCOTT";"(573) 472-6333";"http://www.daeoc.com/locations.php";"psouthard@daeoc.com";"The vast majority of our programs cover the 6 counties of Southeast Missouri (Scott, Stoddard, New Madrid, Mississippi, Pemiscot, and Dunklin). Some programs were created to address specific needs in only one or more counties while our Child Care Food Programs reaches outside of our service area to cover 15 counties. If you are interested in a specific program's coverage, call and speak with program's manager.";"http://www.daeoc.com/locationsDetail.php?Early-Head-Start-Center-32";"https://www.facebook.com/DAEOC65/?ref=profile";"http://www.daeoc.com/career.php";;;;;"x";"x";;;"http://www.daeoc.com/images/header1.png";"7AM - 4:30PM";"7AM - 4:30PM";"7AM - 4:30PM";"7AM - 4:30PM";"7AM - 4:30PM";"Closed";"Closed";
1177010;"YMCA-FOUR RIVERS BRANCH-AUGUSTA ELEMENTARY";"5541 LOCUST ST";"AUGUSTA";"MO";63332;"SAINT CHARLES";"(636) 239-5704";"https://www.gwrymca.org/";"childcare.fr@gwrymca.org";"YMCA-FOUR RIVERS BRANCH-AUGUSTA ELEMENTARY in St Charles County, Missouri, is a child care center which provides high quality day care services for all children.";"https://www.gwrymca.org/four-rivers-ymca-child-care";;;"https://www.gwrymca.org/sites/default/files/1%20WASHINGTON-Y%20Club%202018-2019%20Packet.pdf";"https://www.gwrymca.org/sites/default/files/Y-Club%20Family%20Handbook%202018-2019.pdf";;;;;"x";"x";;"6AM - 6PM";"6AM - 6PM";"6AM - 6PM";"6AM - 6PM";"6AM - 6PM";"Closed";"Closed";
1177013;"YMCA-ST. CHARLES BRANCH-BLACKHURST ELEMENTARY";"2000 ELM ST";"ST CHARLES";"MO";63301;"ST CHARLES";"(636) 443-4550";"https://www.gwrymca.org/";"autumn.rempinski@gwrymca.org";;"https://www.gwrymca.org/child-care";;;"https://www.gwrymca.org/sites/default/files/2018-2019%20Y-Club%20Enrollment%20Packet_STC_0.pdf";"https://www.gwrymca.org/sites/default/files/Y-Club%20Family%20Handbook%20STC%202017-2018_0.pdf";;;;;"x";"x";;"6:30AM - 6PM";"6:30AM - 6PM";"6:30AM - 6PM";"6:30AM - 6PM";"6:30AM - 6PM";"Closed";"Closed";
1177014;"YMCA-ST. CHARLES BRANCH-LINCOLN ELEMENTARY";"625 S 6TH ST";"ST CHARLES";"MO";63301;"ST CHARLES";"(636) 443-4650";"https://www.gwrymca.org/";"autumn.rempinski@gwrymca.org";;"https://www.gwrymca.org/child-care";;;"https://www.gwrymca.org/sites/default/files/2018-2019%20Y-Club%20Enrollment%20Packet_STC_0.pdf";"https://www.gwrymca.org/sites/default/files/Y-Club%20Family%20Handbook%20STC%202017-2018_0.pdf";;;;;"x";"x";;"6:30AM - 6PM";"6:30AM - 6PM";"6:30AM - 6PM";"6:30AM - 6PM";"6:30AM - 6PM";"Closed";"Closed";
1177016;"KIDS ACADEMY, INC";"6016 WELDON SPRING PKWY";"WELDON SPRING";"MO";63304;"Saint Charles";"(636) 329-1960";"http://numberonekids.com/";;"Our Center's programs are designed to provide a rich, warm, supportive environment where the child may develop socially, emotionally, physically, and intellectually.";"http://numberonekids.com/locations.htm";;"http://numberonekids.com/employment.htm";"http://ezedit.upci.net/modules/forms/default.asp?wizard_FID=137&FID=137";;"x";"x";"x";"x";"x";"x";"http://numberonekids.com/images/content/welcome_r2_c2.jpg";"6AM - 9PM";"6AM - 9PM";"6AM - 9PM";"6AM - 9PM";"6AM - 9PM";"Closed";"Closed";
1177017;"YMCA-O'FALLON BRANCH-FLINT HILL ELEMENTARY";"587 MEXICO RD";"WENTZVILLE";"MO";63385;"SAINT CHARLES";"(636) 379-0092";"https://www.gwrymca.org/";"kelli.phillips@gwrymca.org";"To provide quality care for children, regardless of socio/economic background.";;;;"https://www.gwrymca.org/sites/default/files/18_19%20Y%20Club%20New%20Participant%20Registration%20and%20Enrollment%20Form.pdf";"https://www.gwrymca.org/sites/default/files/16_17%20Y-Club%20Family%20Handbook.pdf";;;;;"x";"x";;"6:30AM - 6PM";"6:30AM - 6PM";"6:30AM - 6PM";"6:30AM - 6PM";"6:30AM - 6PM";"Closed";"Closed";
1177019;"PARKWAY SCHOOL DISTRICT";"14605 CLAYTON RD";"BALLWIN";"MO";63011;"SAINT LOUIS";"(314) 415-6983";"https://www.parkwayschools.net/";"mahal1@parkwayschools.net";"The mission of the Parkway School District is to ensure all students are capable, curious, caring and confident learners who understand and respond to the challenges of an ever-changing world.";"https://www.parkwayschools.net/Domain/36";"https://www.facebook.com/ParkwayECC/";"https://www.applitrack.com/pkwyk12/onlineapp/";"https://www.parkwayschools.net/domain/945";;;;"x";"x";"x";"x";"https://www.parkwayschools.net/cms/lib/MO01931486/Centricity/Template/GlobalAssets/images///Logos/EarlyChildhoodHeader.png";"7AM - 6PM";"7AM - 6PM";"7AM - 6PM";"7AM - 6PM";"7AM - 6PM";"Closed";"Closed";
1177020;"NEIGHBORHOOD HOUSES @ AIRPORT ELEMENTARY SCHOOL";"8249 AIRPORT RD";"BERKELEY";"MO";63134;"Saint Louis";" (314) 524-3872";"https://www.fergflor.org/";"airportprincipal@fergflor.org";"From preschool through high school, our programs offer excellent educational opportunities for students. Our nationally-acclaimed early education program includes Parents as Teachers, free preschool for three- and four-year olds, early childhood special education programs, child day care and full-day kindergarten. ";"https://www.fergflor.org/airport-elementary";"https://www.facebook.com/FergusonFlorissantSchoolDistrict/";"https://www.fergflor.org/Page/3221";"https://mo01000341.schoolwires.net/domain/97";;;;"x";"x";;"x";"https://www.fergflor.org/cms/lib/MO01000341/Centricity/Template/GlobalAssets/images///logos/FFSD%20New%20Direction%20logo.png";;;;;;;;
1177021;"JUMP START LEARNING CENTER II, INC.";"12297 NATURAL BRIDGE RD";"BRIDGETON";"MO";63044;"SAINT LOUIS";"(314) 344-8866";;;"Preschool for all ages";;"https://www.facebook.com/Jump-Start-Learning-Center-2-1932752323631505/";;;;"x";"x";"x";"x";;;;"6AM - 11PM";"6AM - 11PM";"6AM - 11PM";"6AM - 11PM";"6AM - 11PM";"Closed";"Closed";
1177022;"CHILDREN'S LEARNING ADVENTURE CHILDCARE CENTERS";"15677 MANCHESTER RD";"ELLISVILLE";"MO";63011;"Saint Louis";"(636) 484-7001";"http://www.childrenslearningadventure.com/";;"Children’s Learning Adventure offers premier programs which include Infant and Toddler Programs, nationally renowned Preschool and Pre-Kindergarten Programs, Kindergarten and Advanced Pre-Kindergarten Programs, Before-and-After School Programs, and Holiday and Summer Camp Programs";"http://www.childrenslearningadventure.com/day-care-ellisville";"https://www.facebook.com/CLAellisville/";"http://www.childrenslearningadventure.com/careers";;;"x";"x";"x";"x";"x";"x";"http://www.childrenslearningadventure.com/sysimg/children-s-learning-adventure-config-header-basic-settings-toplogo-field-value.png";"6AM - 6:30PM";"6AM - 6:30PM";"6AM - 6:30PM";"6AM - 6:30PM";"6AM - 6:30PM";"Closed";"Closed";
1177024;"COVENANT FOR LIFE CHILD DEVELOPMENT CENTER";"4417 N HIGHWAY 67";"FLORISSANT";"MO";63034;"SAINT LOUIS";"(314) 801-8002";"http://www.covenantforlife2.com/";"kulearningcenter@gmail.com";"Covenant For Life Child Development Center 2 is a premiere license exempt day care center in Florissant, MO, that was established in 2017. We provide a range of activities that are fun and educational and are geared toward developing positive relationships. From child care, day care, toddler care, infant care, before and after school programs and much more, we have something for every child. Our staff creates an enriching care center in a clean, safe and nurturing environment. When your child is ready for day care, preschool or one of our quality programs in Florissant, MO, call on Covenant For Life Child Development Center 2. ";"http://www.covenantforlife2.com/";"https://www.facebook.com/KidzUniversityFlorissantMo/";;;;"x";"x";"x";"x";"x";"x";"https://scontent.fskp2-1.fna.fbcdn.net/v/t1.0-1/p200x200/21369521_980159978793581_1518300238361943766_n.jpg?_nc_cat=0&oh=21e21f64842e98d8b70371bf6b7b519f&oe=5BA8E1AA";"6AM - 12PM";"6AM - 12PM";"6AM - 12PM";"6AM - 12PM";"6AM - 12PM";"Closed";"Closed";
1177026;"YMCA-EMERSON BRANCH-PARKER ROAD ELEMENTARY";"2800 PARKER RD";"FLORISSANT";"MO";63033;"SAINT LOUIS";"(314) 436-1177";"https://www.gwrymca.org/";" kimberlyhaynes@gwrymca.org";"We believe that all kids deserve the opportunity to discover who they are and what they can achieve. That’s why, through the Y, millions of youth today are cultivating the values, skills and relationships that lead to positive behaviors, better health and educational achievement.";"https://www.gwrymca.org/emerson-y-child-care-forms-info-0";"https://www.facebook.com/gwrymca";"https://www.gwrymca.org/careers-y";"https://www.gwrymca.org/sites/default/files/Y%20Club%20Registration%20%202018-2019_EM.pdf";"https://www.gwrymca.org/sites/default/files/Y-Club%20Family%20Handbook%202017-2018-%20EM.pdf";;;"x";"x";"x";"x";"https://scontent.fskp2-1.fna.fbcdn.net/v/t1.0-1/p200x200/14199731_1204972612899132_2933225871803365845_n.png?_nc_cat=0&oh=1bc6e97bf9ff82b378f331e55ffa6e2e&oe=5BDE6195";"6:30AM - 6PM";"6:30AM - 6PM";"6:30AM - 6PM";"6:30AM - 6PM";"6:30AM - 6PM";"Closed";"Closed";
1177028;"PROVIDENT, INC.";"7047 EMMA AVE";"JENNINGS";"MO";63136;"Saint Louis";"(314) 653-8070";"http://fairviewprimary.mo.jsp.schoolinsites.com/";"carsonm@jenningsk12.org";"Excellence without Escuses";"http://fairviewprimary.mo.jsp.schoolinsites.com/";"https://www.facebook.com/Fairview-Elementary-383422112105982/";;;"http://fairviewprimary.mo.jsp.schoolinsites.com/?PageName=%27Handbook%27";;;"x";"x";;;"https://scontent.fskp2-1.fna.fbcdn.net/v/t1.0-1/c0.0.200.200/p200x200/25396258_384883755293151_773948329852977208_n.jpg?_nc_cat=0&oh=40024daec037071cdf66bccf88ee1fd6&oe=5B9E1471";"8AM - 3PM";"8AM - 3PM";"8AM - 3PM";"8AM - 3PM";"8AM - 3PM";"Closed";"Closed";
1177029;"PROVIDENT, INC.";"8430 LUCAS AND HUNT RD";"JENNINGS";"MO";63136;"Saint Louis";"(314) 653-8190";"http://kennethchelem.mo.jse.schoolinsites.com/";;"Woodland and Hanrahan Elementary Schools will create positive school experiences for all students, fostering a life-long love of learning.  We believe every member of this school community deserves a safe, healthy, creative, and academically challenging environment in which to work and learn";"http://kennethchelem.mo.jse.schoolinsites.com/";"https://www.facebook.com/Jennings-School-District-131693510244680/?ref=br_tf";;"http://kennethchelem.mo.jse.schoolinsites.com/?PageName=%27Forms%27&iSection=%27Administrative%27&CorrespondingID=%270%27";"http://kennethchelem.mo.jse.schoolinsites.com/Common/SchoolArea/HandbookPrint.asp?PolicyID=49845";;;"x";"x";;;;"7:30AM - 4PM";"7:30AM - 4PM";"7:30AM - 4PM";"7:30AM - 4PM";"7:30AM - 4PM";"Closed";"Closed";
1177030;"WORD OF FAITH CHILD DEVELOPMENT CENTER";"6923 W FLORISSANT AVE";"JENNINGS";"MO";63136;"Saint Louis";"(314) 382-1315";"http://wofmc.org/";"word-offaith@live.com";"To harvest the lost, and perfect them into saints, through spiritual inner cleansing,training, equipping and releasing them into their God ordained destiny";;"https://www.facebook.com/pages/word-of-faith-ministry-center/167329416748604";;;;;;;;;;;;;;;;;;
1177031;"NEW DESTINY CHILDCARE";"3732 CAMBRIDGE AVE";"MAPLEWOOD";"MO";63143;"Saint Louis";"(314) 225-4011";"https://www.ndccmaplewood.com/";"newdestinychildcarecenter@gmail.com";"Our Promise is to offer quality individualized care for children in the Maplewood community. All children and families will be treated with respect and courtesy, regardless of race, color, or creed.";"https://www.ndccmaplewood.com/";"https://www.facebook.com/ndccmaplewood/";;;;"x";"x";"x";"x";;;;"6AM - 6PM";"6AM - 6PM";"6AM - 6PM";"6AM - 6PM";"6AM - 6PM";"Closed";"Closed";
1177032;"AFFTON CHRISTIAN KIDS";"9625 TESSON FERRY RD";"ST LOUIS";"MO";63123;"ST LOUIS";"(314) 631-5605";"http://inasmuchas.org/";"pastordavid@inasmuchas.org";"We at Affton Christian Church want you to feel welcomed and invited to join us as a partner in worship. But we also want you and your family to feel at home when it comes to participating in any activities or outreach at ACC.";"http://inasmuchas.org/ack-pre-school-now-enrolling/";"https://www.facebook.com/ACCinasmuchas/";;;;;;"x";"x";;;"http://inasmuchas.org/wp-content/uploads/2016/03/Mission-First-Header-2.jpg";"9AM - 11:30AM";"Closed";"9AM - 11:30AM";"Closed";"9AM - 11:30AM";"Closed";"Closed";
1177033;"BOYS & GIRLS CLUBS OF GREATER ST. LOUIS-LEE HAMILTON ELEMENTARY SCHOOL CLUB";"401 POWELL AVE";"ST LOUIS";"MO";63135;"ST LOUIS";"(314) 335-8340";"https://www.bgcstl.org/";"KEISHA@BGCSTL.ORG";"The mission of the Boys & Girls Clubs of Greater St. Louis (BGCSTL) is to inspire and enable all young people, especially those who need us most, to reach their full potential as productive, responsible and caring citizens. ";"https://www.bgcstl.org/locations/";"https://www.facebook.com/bgcstlouis";"https://www.bgcstl.org/about-us/careers/";;;;;;;"x";"x";"https://www.bgcstl.org/wp-content/uploads/2018/04/BGCSTL_50_Logo_2c.jpg";"3:50PM - 8PM";"3:50PM - 8PM";"3:50PM - 8PM";"3:50PM - 8PM";"3:50PM - 7PM";"Closed";"Closed";
1177034;"CHILDHOOD MEMORIES DAYCARE & LEARNING CENTER LLC";"6822 MYRON AVE";"ST LOUIS";"MO";63121;"ST LOUIS";"(314) 669-9797";;"childhoodmemoriesabc123@yahoo.com";;;;;;;;;;;;;;;;;;;;;
1177035;"CHILDREN OF THE ARK";"10015 ASHBROOK DR";"ST LOUIS";"MO";63137;"ST LOUIS";"(314) 274-7020";;;"State Approved 6-1/2 months to 12 years of age.";;"https://www.facebook.com/pg/bellefontainebaptist/services/?service_id=1386476321446665&ref=page_internal";;;;"x";"x";"x";"x";;;;;;;;;;;
1177036;"FAMILY TREASURES CHILD DEVELOPMENT CENTER LLC";"7340 SAINT CHARLES ROCK RD";"ST LOUIS";"MO";63133;"ST LOUIS";"(314) 335-0591";"https://www.familytreasurescenter.com/";"Familytreasures7@yahoo.com";"Family Treasures offers one of the best early education and childcare programs where children can learn and grow. Our center is a clean, safe, and attractive environment that promotes learning.  Each day children are received by their teachers and caregivers who nurture and provide supervision, kindness, tender care and activities to support their healthy development.";"https://www.familytreasurescenter.com/";"https://www.facebook.com/Family-Treasures-Child-Development-Center-109411443041319/";;"https://www.familytreasurescenter.com/about1-c1z94";"https://www.familytreasurescenter.com/contact";"x";"x";"x";"x";"x";"x";"https://static.wixstatic.com/media/52ac77_c4ddb0cab5914a35b78b74a8168b699a~mv2_d_1850_1677_s_2.jpg/v1/fill/w_295,h_267,al_c,q_80,usm_0.66_1.00_0.01/52ac77_c4ddb0cab5914a35b78b74a8168b699a~mv2_d_1850_1677_s_2.webp";;;;;;;;
1177039;"NEIGHBORHOOD HOUSES @ BERMUDA ELEMENTARY SCHOOL";"5835 BERMUDA DR";"ST LOUIS";"MO";63121;"ST LOUIS";"(314) 601-4448";;"ghampton@neighborhoodhouses.org";;;;;;;;;;;;;;;;;;;;;
1177040;"NEIGHBORHOOD HOUSES @ JOHNSON-WABASH ELEMENTARY SCHOOL";"685 JANUARY AVE";"ST LOUIS";"MO";63135;"ST LOUIS";"(314) 524-0280";;"ghampton@neighborhoodhouses.org";;;;;;;;;;;;;;;;;;;;;
1177041;"NURTURING CURIOSITY CHILDCARE, LLC";"11155 CLAYTON RD";"ST LOUIS";"MO";63131;"ST LOUIS";"(314) 378-5232";;"photze@yahoo.com";;;;;;;;;"x";"x";;;;;;;;;;;
1177042;"POHSIB'S ACADEMY, LLC";"3900 JENNINGS STATION RD";"ST LOUIS";"MO";63121;"ST LOUIS";"(314) 381-9852";;"BATGYRL40@GMAIL.COM";;;;;;;"x";"x";"x";"x";;;;;;;;;;;
1177044;"SMART KIDS CHILD DEVELOPMENT CENTER, LLC";"12027 BELLEFONTAINE RD";"ST LOUIS";"MO";63138;"ST LOUIS";"(314) 274-7545";;"JEREMY.BROWN@SHERATONCLAYTON.COM";;;;;;;"x";"x";"x";"x";;;;;;;;;;;
1177045;"THE SOULFISHER MINISTRIES";"1910 EXUMA DR";"ST LOUIS";"MO";63136;"ST LOUIS";"(314) 494-8279";;"DIAMOND@THESOULFISHERMINISTRIES.COM";;;;;;;;;;;;;;"6AM - 9PM";"6AM - 9PM";"6AM - 9PM";"6AM - 9PM";"6AM - 9PM";"Closed";"Closed";
1177046;"YMCA-EMERSON BRANCH-VOGT ELEMENTARY";"200 CHURCH ST";"ST LOUIS COUNTY";"MO";63135;"ST LOUIS";"(314) 524-0658";;"LAURIE.MCTEARNEN@GWRYMCA.ORG";;;;;;;;;;;;;;;;;;;;;
1177047;"FAITH ACADEMY EARLY CHILDHOOD";"13001 GRAVOIS RD";"SUNSET HILLS";"MO";63127;"ST LOUIS";"(314) 635-2111";"http://faithacademystlouis.com/";"info@faithacademystlouis.com";"WE ARE COMMITTED TO PROVIDE OPPORTUNITIES FOR LEARNING AND SPIRITUAL GROWTH IN A SAFE, GOD-HONORING ATMOSPHERE. WE WILL PROVIDE A PLACE TO MEET THE EMOTIONAL, PHYSICAL, SOCIAL AND INTELLECTUAL DEVELOPMENTAL NEEDS OF EACH INDIVIDUAL CHILD.";"http://faithacademystlouis.com/";"https://www.facebook.com/FaithAcademyStL/";;"http://kw8h51ms3nz34f82p2xrqdlc.wpengine.netdna-cdn.com/wp-content/uploads/2018/06/RegistrationForm2018-19.pdf";"http://kw8h51ms3nz34f82p2xrqdlc.wpengine.netdna-cdn.com/wp-content/uploads/2018/04/HandbookUpdated2018ECSH.pdf";"x";"x";"x";"x";;;"http://kw8h51ms3nz34f82p2xrqdlc.wpengine.netdna-cdn.com/wp-content/uploads/2014/06/logo-footer.png";"6AM - 6PM";"6AM - 6PM";"6AM - 6PM";"6AM - 6PM";"6AM - 6PM";"Closed";"Closed";
1177048;"BEGINNING & BEYOND CHILDREN'S CENTER L.L.C";"4004 N 25TH ST";"ST LOUIS";"MO";63107;"ST LOUIS CITY";"(314) 241-0696";;" ";;;;;;;;;;;;;;;;;;;;;
1177050;"EEI COMPASS EDUCATIONAL PARTNERS, INC.";"2900 S GRAND BLVD";"ST LOUIS";"MO";63118;"ST LOUIS CITY";"(314) 413-4410";"https://compassedprograms.org/";"TGE@compassedprograms.org";"Compass Educational Programs were created to complement the education a child receives during the school day and in the family setting. For parents who are seeking faith-based educational enrichment for their child, Compass provides a safe and loving support system with peace of mind. ";"https://compassedprograms.org/tower-grove-east";"https://www.facebook.com/compassedprograms/";"https://compassedprograms.org/careers";"https://drive.google.com/file/d/0B1SQouT5yxLFQzJFMExlaENzbFU/view";"https://drive.google.com/file/d/0B5-EMWQce-cHS01FWF9ueFljc2c/view";;;"x";;"x";;"https://compassedprograms.org/sites/all/themes/compass/logo.png";"6:30AM - 6PM";"6:30AM - 6PM";"6:30AM - 6PM";"6:30AM - 6PM";"6:30AM - 6PM";"Closed";"Closed";
1177051;"EEI COMPASS EDUCATIONAL PARTNERS, INC.";"2617 SHENANDOAH AVE";"ST LOUIS";"MO";63104;"ST LOUIS CITY";"(314) 440-3320";"https://compassedprograms.org/";"FP@compassedprograms.org";"Compass Educational Programs were created to complement the education a child receives during the school day and in the family setting. For parents who are seeking faith-based educational enrichment for their child, Compass provides a safe and loving support system with peace of mind. ";"https://compassedprograms.org/fox-park";"https://www.facebook.com/compassedprograms/";"https://compassedprograms.org/careers";"https://drive.google.com/file/d/0B1SQouT5yxLFYm9pRnRFanJKbGM/view";"https://drive.google.com/file/d/0B5-EMWQce-cHS01FWF9ueFljc2c/view";;;"x";;"x";;"https://compassedprograms.org/sites/all/themes/compass/logo.png";"6:30AM - 6PM";"6:30AM - 6PM";"6:30AM - 6PM";"6:30AM - 6PM";"6:30AM - 6PM";"Closed";"Closed";
1177052;"FAMILYFORWARD";"3309 S KINGSHIGHWAY BLVD";"ST LOUIS";"MO";63139;"ST LOUIS CITY";"(314) 534-9350";"https://familyforwardmo.org/";;"FamilyForward’s highly skilled staff, evidence-based practices, and strong partnerships with leading educational institutions and researchers positions the agency to utilize innovative tools and practices to formulate better insights and achieve better outcomes for children and families.";"https://familyforwardmo.org/contact-us/";"https://www.facebook.com/familyforwardmo/";"https://familyforwardmo.org/careers/";;;"x";"x";"x";"x";"x";;"https://familyforwardmo.org//wp-content/uploads/family-forward-logo.png";"8AM - 8PM";"8AM - 8PM";"8AM - 8PM";"8AM - 8PM";"8AM - 8PM";"Closed";"Closed";
1177053;"GARRISON DAY CARE CENTER LLC";"1827 N GARRISON AVE";"ST LOUIS";"MO";63106;"ST LOUIS CITY";"(314) 535-3226";;"lhrgardaycare.info@gmail.com";"The garrison Daycare Centre is based on the child development model. Learning through paly is viewed as the cornerstone of the curriculum. Adults provided protection, security, stimulation, support, limits and affection";;"https://www.facebook.com/Garrison-day-care-center-lahore-cantt-2384544345104518/";;;;;;;;;;;;;;;;;;
1177054;"HEART COMMUNITY CORD LLC";"955 ARCADE AVE";"ST LOUIS";"MO";63112;"ST LOUIS CITY";"(314) 472-3284";;"hope@heartcommunitycord.org";"HEART Community Cord is dedicated to serving families by providing social support services that enhance the quality of life through Health, Education, Awareness, Recreation, and Training. Our services are aimed to empower adults and inspire youth.";;"https://www.facebook.com/HEARTCommunityCord/";;;;;;;"x";"x";"x";"https://scontent.fskp2-1.fna.fbcdn.net/v/t1.0-9/32746460_1687227807981585_2052041932720308224_o.jpg?_nc_cat=0&oh=b50c67919c2846c875a91386e3aa6b01&oe=5BA5899C";"8:30AM - 4:30PM";"8:30AM - 4:30PM";"8:30AM - 4:30PM";"8:30AM - 4:30PM";"8:30AM - 4:30PM";"Closed";"Closed";
1177055;"JOYFUL MEMORIES DEVELOPMENT CENTER, LLC";"6114 W FLORISSANT AVE";"ST LOUIS";"MO";63136;"ST LOUIS CITY";"(314) 379-5171";;"JOYFULMEM@YAHOO.COM";"Childcare Center; Excellent curriculum that promotes active learning and creative thinking";;"https://www.facebook.com/joyfulmem/";;;;"x";"x";"x";"x";;;;"6AM - 12PM";"6AM - 12PM";"6AM - 12PM";"6AM - 12PM";"6AM - 12PM";"Closed";"Closed";
1177056;"KARE A LOT CHILD DEVELOPMENT CENTER LLC";"1429 FARRAR ST";"ST LOUIS";"MO";63107;"ST LOUIS CITY";"(314) 327-4839";;"karealot4kidz@yahoo.com";"Fostering creativity won't just increase children’s chances of becoming the next Picasso. We’re also helping them to develop mentally, socially, and emotionally.";;"https://www.facebook.com/Karealot4kidz/";;;;"x";"x";"x";"x";;;"https://scontent.fskp2-1.fna.fbcdn.net/v/t1.0-1/p200x200/32889419_1685419258173622_5804427118318190592_n.jpg?_nc_cat=0&oh=5c295d77e3c6800d06ae75c52e16c0d6&oe=5BDA4F18";"6AM - 9PM";"6AM - 9PM";"6AM - 9PM";"6AM - 9PM";"6AM - 9PM";"Closed";"Closed";
1177057;"LITTLE PRECIOUS ANGELS CHILDCARE 2 LLC";"3129 CHIPPEWA ST";"ST LOUIS";"MO";63118;"ST LOUIS CITY";"(314) 296-3561";"http://www.littlepreciousangelschildcare2.com/";"LPACC11@GMAIL.COM";"Welcome to Little Precious Angels Childcare in St. Louis, Missouri! We are a professional childcare center enrolling children from 6 weeks to 12 years of age. We offer high-quality childcare, before- and after-school care, evening care, and transportation services.";"http://www.littlepreciousangelschildcare2.com/contact-us";"https://www.facebook.com/littlepreciousangels/?rc=p";;;;"x";"x";"x";"x";"x";;"http://mediaprocessor.websimages.com/fit/1920x1920/www.littlepreciousangelschildcare2.com/Logo.png";"6AM - 6PM";"6AM - 9PM";"6AM - 6PM";"6AM - 6PM";"6AM - 6PM";"Closed";"Closed";
1177058;"LITTLE WARRIORS ACADEMY LLC";"3350 GOODFELLOW BLVD";"ST LOUIS";"MO";63120;"ST LOUIS CITY";"(314) 504-6697";;"daniebuffy@yahoo.com";;;;;;;;;;;;;;;;;;;;;
1177059;"MAGNOLIA URBAN LEAGUE HEAD START / EARLY HEAD START";"2725 ALHAMBRA CT";"ST LOUIS";"MO";63118;"ST LOUIS CITY";"(314) 584-6356";"https://www.ulstl.com/head-start/";"pwilliams@urbanleague-stl.org ";"Head Start is a national program that provides child development services to  low income children and families.";"https://ulstl.weebly.com/head-start.html";"https://www.facebook.com/pages/Urban-League-of-Metropolitan-Saint-Louis/147494928628574";"https://www.ulstl.com/employment-opportunities/";;"https://www.ulstl.com/head-start/head-start-parent-connection/";;;"x";"x";;;"https://ulstl.weebly.com/uploads/4/9/3/2/49321269/ul-logo-rbg.jpg";;;;;;;;
1177060;"MISSION: ST. LOUIS";"1224 GRATTAN ST";"ST LOUIS";"MO";63104;"ST LOUIS CITY";"(314) 534-1188";"http://www.missionstl.org/";"info@missionstl.org";"Our vision is that people live in neighborhoods full of opportunity, know and serve their neighbors, and are invited into gospel-centered community.";"http://www.missionstl.org/contact/";"https://www.facebook.com/missionstlouis/";"http://www.missionstl.org/beyondjobs/";;;;;;;;;"http://static1.squarespace.com/static/5671999c40667ab12260940f/t/5a8c1d389140b78cd45a6e03/1530298329629/?format=1500w";"9AM - 5PM";"9AM - 5PM";"9AM - 5PM";"9AM - 5PM";"9AM - 5PM";"Closed";"Closed";
1177061;"MISSION: ST. LOUIS";"4011 PAPIN ST";"ST LOUIS";"MO";63110;"ST LOUIS CITY";"(314) 533-0975";"http://www.missionstl.org/";"info@missionstl.org";"Our vision is that people live in neighborhoods full of opportunity, know and serve their neighbors, and are invited into gospel-centered community.";"http://www.missionstl.org/contact/";"https://www.facebook.com/missionstlouis/";"http://www.missionstl.org/beyondjobs/";;;;;;;;;"http://static1.squarespace.com/static/5671999c40667ab12260940f/t/5a8c1d389140b78cd45a6e03/1530298329629/?format=1500w";"9AM - 5PM";"9AM - 5PM";"9AM - 5PM";"9AM - 5PM";"9AM - 5PM";"Closed";"Closed";
1177062;"PLAYTIME ACADEMY INFANTS, TODDLERS & TWOS CENTER";"1318 N NEWSTEAD AVE";"ST LOUIS";"MO";63113;"ST LOUIS CITY";"(314) 553-9338";;;"The children really enjoyed themselves with crafts ,games and snacks ";;"https://www.facebook.com/Playtime-Academy-Infant-and-Toddler-Center-2-695430200619141/";;;;"x";"x";"x";"x";;;"https://scontent.fskp2-1.fna.fbcdn.net/v/t1.0-1/p200x200/17862587_745737272255100_877186854717023276_n.jpg?_nc_cat=0&oh=fd3e67fe104e72185cef2e151a18ce39&oe=5B9FB07D";;;;;;;;
1177064;"PROVIDENT, INC.";"3022 OREGON AVE";"ST LOUIS";"MO";63118;"ST LOUIS CITY";"(314) 369-5338";;"Spetty@providentstl.org";;;"https://www.facebook.com/ProvidentInc/";;;;;;;;;;;;;;;;;;
1177065;"SAND CASTLE ACADEMY LLC";"1164 N KINGSHIGHWAY BLVD";"ST LOUIS";"MO";63113;"ST LOUIS CITY";"(314) 776-9044";;"WDCPSULLIVAN@SBCGLOBAL.NET";"he Goals of Sand Castle Academy are to work diligently to create an atmosphere that demonstrates caring, loving, learning, productive, healthy, and happy children. Our teachers will strive to have a connection with each of their students according to their individual needs. ";;"https://www.facebook.com/SandCastleAcademyLLC/";"https://www.facebook.com/pg/SandCastleAcademyLLC/jobs/?ref=page_internal";;;"x";"x";"x";"x";;;"https://scontent.fskp2-1.fna.fbcdn.net/v/t1.0-1/c0.7.200.200/p200x200/16683885_1856531191297539_5001971382052103349_n.jpg?_nc_cat=0&oh=7ea88776a1b5f8b35013ce407264f1bd&oe=5BDB84B6";"6:30AM - 7:30PM";"6:30AM - 7:30PM";"6:30AM - 7:30PM";"6:30AM - 7:30PM";"6:30AM - 7:30PM";"Closed";"Closed";
1177066;"STRAY DOG THEATRE";"2745 MERAMEC ST";"ST LOUIS";"MO";63118;"ST LOUIS CITY";"(314) 865-1995";"http://www.straydogtheatre.org/";"GFBell@StrayDogTheatre.org";"Stray Dog Theatre (SDT) is committed to unleashing the art of theatre and community service on Saint Louis and the surrounding community";"http://www.straydogtheatre.org/";;;;;;;;;;;"http://www.straydogtheatre.org/uploads/logo.gif";;;;;;;;
1177067;"YWCA BESSIE T. DRAPER EARLY HEAD START CENTER";"4642 W FLORISSANT AVE";"ST LOUIS";"MO";63115;"ST LOUIS CITY";"(314) 388-2495";"http://www.ywcastlouis.org/site/c.elKSIbOWIkJ8H/b.8376815/k.2327/Head_Start.htm";"ersea@headstart.ywcastlouis.org";"The mission of YWCA St. Louis Head Start is to equip children with the building blocks for lifetime success. Our vision is that the YWCA Head Start Program will be recognized as an exemplary Early Childhood Education Program.";"http://www.ywcastlouis.org/site/c.elKSIbOWIkJ8H/b.8410865/k.81F8/YWCA_Head_Start_Centers.htm";"https://www.facebook.com/ywcametrostl/";"https://ywcastlouis.aaimtrack.com/jobs";"http://www.ywcastlouis.org/site/c.elKSIbOWIkJ8H/b.8386369/k.9C2F/How_to_Enroll.htm";;"x";"x";"x";"x";;;"http://www.ywcastlouis.org/atf/cf/%7B6B88875A-9795-42C9-82C9-C76699CDC459%7D/YWCA_LOGO_CMYK%20Persm%20Metrostl-rev-11916.png";"7AM - 7PM";"7AM - 7PM";"7AM - 7PM";"7AM - 7PM";"7AM - 7PM";"Closed";"Closed";
1177069;"LITTLE HORNET'S LEARNING CENTER";"19101 STATE HIGHWAY C";"ADVANCE";"MO";63730;"STODDARD";"(573) 382-2265";;;;;"https://www.facebook.com/Little-Hornets-Learning-Center-1787475224851723/";;;;"x";"x";"x";"x";;;"https://scontent-frx5-1.xx.fbcdn.net/v/t1.0-9/14955853_1787479684851277_2814778313430353465_n.jpg?_nc_cat=0&oh=a1696ff07e300a7fb6fdffc20987c774&oe=5BE96DB7";"6AM - 9PM";"6AM - 9PM";"6AM - 9PM";"6AM - 9PM";"6AM - 9PM";"Closed";"Closed";
1177070;"MIND'S N MOTION LEARNING CENTER, LLC";"27991 ROCK AVE";"BELL CITY";"MO";63735;"STODDARD";"(573) 309-1000";;"MINDSNMOTIONLEARNINGCENTER@YAHOO.COM";"We strive to provide a safe environment so our kids can play and learn and have fun all the same time.";;"https://www.facebook.com/littlecubslc/";;;;"x";"x";"x";"x";"x";;"https://scontent-frx5-1.xx.fbcdn.net/v/t1.0-9/15781819_656839154521421_2905757597838032757_n.jpg?_nc_cat=0&oh=7d0da6a260a894daadc50cd0c22d078e&oe=5BA54B4A";"6:30AM - 5:30PM";"6:30AM - 5:30PM";"6:30AM - 5:30PM";"6:30AM - 5:30PM";"6:30AM - 5:30PM";"Closed";"Closed";
1177071;"LESTER E. COX MEDICAL CENTERS";"1192 BIRD RD";"BRANSON";"MO";65616;"TANEY";"(417) 348-8810";"https://www.coxhealth.com/employees/cox-learning-centers/";"karrie.ridder@coxhealth.com";"We want your children to feel happy, loved and secure. Our teachers manage their classrooms to provide an attractive, safe and stimulating environment so your child can grow and develop while we nurture the emotional, physical, intellectual and social aspects of their personality. We strive to foster self-esteem and independence through fun, creative learning and play.";"https://www.coxhealth.com/employees/cox-learning-centers/";"https://www.facebook.com/pg/CoxMedicalCenterBranson/";"https://careers.coxhealth.com/";;;"x";"x";"x";"x";"x";;"https://s3-us-west-2.amazonaws.com/coxhealth-static/img/logo.png";"6AM - 8PM";"6AM - 8PM";"6AM - 8PM";"6AM - 8PM";"6AM - 8PM";"Closed";"Closed";
1177072;"DEDERICK PRE-K";"15104 S AA HWY";"EL DORADO SPRINGS";"MO";64744;"CEDAR";"(417) 876-2962";"http://www.dederickprek.com/";"dederickprek@gmail.com";"Our mission is to prepare and equip Pre-K youth for elementary school and life through biblical principles and practices.";"http://www.dederickprek.com/";"https://www.facebook.com/pg/Dederickprek/";;"http://nebula.wsimg.com/4e4cb09d2a38787d4eb648b6e453db12?AccessKeyId=6012A385BB3BE66233E9&disposition=0&alloworigin=1";"http://nebula.wsimg.com/4e4cb09d2a38787d4eb648b6e453db12?AccessKeyId=6012A385BB3BE66233E9&disposition=0&alloworigin=1";;;"x";"x";;;"https://scontent-frx5-1.xx.fbcdn.net/v/t1.0-9/14485023_1701654396822302_8832695739615255338_n.png?_nc_cat=0&oh=3e236b63b79fc4774f4f9b038f903dce&oe=5BD5F187";"7AM - 5PM";"7AM - 5PM";"7AM - 5PM";"7AM - 5PM";"7AM - 5PM";"Closed";"Closed";
1177073;"LITTLE TIKES UNIVERSITY PRESCHOOL";"16834 S 1800 RD";"NEVADA";"MO";64772;"VERNON";"(417) 667-2940";;;;;;;;;;;;;;;;;;;;;;;
1177074;"UNDER THE SON, LLC";"212 E 1ST ST";"MOUNTAIN GROVE";"MO";65711;"WRIGHT";"(417) 259-9932";;"crjarrett20@hotmail.com";;;;;;;;;;;;;;;;;;;;;
1177594;"1ST STEP LEARNING CENTER";"5550 NORTHFIELD RD";"MAPLE HEIGHTS";"OH";44137;"CUYAHOGA";2169046870;;;;;;;;;;;;;;;;;;;;;;;"License Not Renewed"
1177599;"A CHILD'S VIEW";"24161 LORAIN ROAD";"NORTH OLMSTED";"OH";44070;"CUYAHOGA";4407798439;;"achildsview@sbcglobal.net";"A Child's View Childcare & Early Learning Center is open from 6:00am to 9:00pm Monday through Friday. We enroll children ages 6 weeks to 12 year olds.";;"https://www.facebook.com/A-Childs-View-Childcare-Early-Learning-Center-2092810044278397/";;;;"x";"x";"x";"x";;;"https://scontent.fskp2-1.fna.fbcdn.net/v/t1.0-1/r90/c55.136.196.196/p480x480/14191923_2092813507611384_7327711042071771125_n.jpg?_nc_cat=0&oh=fc579d16c4e46da2852336fa81a4e492&oe=5B9F3753";"6AM - 9PM";"6AM - 9PM";"6AM - 9PM";"6AM - 9PM";"6AM - 9PM";"Closed";"Closed";
1177597;"A BRIGHT BEGINNING CHILDCARE AND LEARNING CENTER";"3533 MONROE ST";"TOLEDO";"OH";43606;"LUCAS";4192141155;;;"We are a childcare and learning center that provides services for families with children from ages 6 weeks to 5yrs of age in a safe and secure environment.";;"https://www.facebook.com/abrightbeginningchildcare01/";;;;"x";"x";"x";"x";;;;"6AM - 11:30PM";"6AM - 11:30PM";"6AM - 11:30PM";"6AM - 11:30PM";"6AM - 7:30PM";"Closed";"Closed";
1177598;"A CHILD'S JOURNEY LEARNING CENTER";"846 S. YEARLING RD";"WHITEHALL";"OH";43213;"Franklin";6143971974;;;;;;;;;;;;;;;;;;;;;;;
1177611;"A KID'S PLACE CHILDCARE, INC";"30121 LORAIN RD";"NORTH OLMSTED";"OH";44070;"CUYAHOGA";4407795671;"http://akidsplacecleveland.com/";"akidsplacechildcare954@yahoo.com";"Kid's Place located in North Olmsted, Ohio was developed with the concept of providing children with a nurturing, fun, educational, and safe environment. We are family-owned and provide a ""home away from home"" atmosphere for each child!";"http://akidsplacecleveland.com/";"https://www.facebook.com/A-Kids-Place-Childcare-337125266341814/";;"http://akidsplacecleveland.com/enroll.html";"http://akidsplacecleveland.com/enroll.html";"x";"x";"x";"x";;"x";"http://akidsplacecleveland.com/img/logo.png";"6AM - 6:50PM";"6AM - 6:50PM";"6AM - 6:50PM";"6AM - 6:50PM";"6AM - 6:50PM";"Closed";"Closed";
1177610;"A KIDS ONLY EARLY LEARNING CT INC";"2621 STATE ROAD";"ASHTABULA";"OH";44004;"ASHTABULA";4409985553;;;"A Kids Only Early Learning Center provides center-based child care services and early education for young kids. ";;"https://www.facebook.com/pages/A-Kids-Only-Early-Learning-Center/151563528219311";;;;;;;;;;;"6AM - 6PM";"6AM - 6PM";"6AM - 6PM";"6AM - 6PM";"6AM - 6PM";"Closed";"Closed";
1177609;"A KIDS ONLY EARLY LEARNING CENTER III";"140 E ERIE STREET";"JEFFERSON";"OH";44047;"ASHTABULA";4405763199;;;"A Kids Only Early Learning Center provides center-based child care services and early education for young kids. ";;"https://www.facebook.com/pages/A-Kids-Only-Early-Learning-Center-III/163041000390975";;;;;;;;;;;"6AM - 6PM";"6AM - 6PM";"6AM - 6PM";"6AM - 6PM";"6AM - 6PM";"Closed";"Closed";
1177608;"A KIDS ONLY EARLY LEARNING CENTER II";"839 W MAIN STREET";"GENEVA";"OH";44041;"ASHTABULA";4404151131;;;;;;;;;;;;;;;;;;;;;;;
1177604;"A FUN PLACE TO LEARN, LLC";"4901 GALAXY PARKWAY, SUITE F";"WARRENSVILLE HT";"OH";44128;"CUYAHOGA";2165919440;;;;;;;;;;;;;;;;;;;;;;;
1177605;"A GREAT START PRESCHOOL INC";"7001 FAR HILLS AVE";"DAYTON";"OH";45459;"MONTGOMERY";8773022347;"http://www.agreatstartpreschool.com/";"agreatstart@aol.com";"High quality, part-time preschool for children ages two to five, and Private Kindergarten for children who will be five by September 30.";"http://www.agreatstartpreschool.com/";"https://www.facebook.com/A-Great-Start-Preschool-Inc-97685210068/";;"https://static1.squarespace.com/static/556fa67ae4b0bb277307c39e/t/5afacc6603ce64e9455ff34a/1526385771207/2018-2019+Registration+Form.pdf";"http://www.agreatstartpreschool.com/s/Parent-Handbook-17-18.pdf";;;"x";"x";;;"http://static1.squarespace.com/static/556fa67ae4b0bb277307c39e/t/5574a8b8e4b017c50458d7f8/1529594292241/?format=1500w";"8;30AM - 2:30PM";"8;30AM - 2:30PM";"8;30AM - 2:30PM";"8;30AM - 2:30PM";"8;30AM - 2:30PM";"Closed";"Closed";
1177607;"A J JORDAK SCHOOL";"16000 E HIGH ST";"MIDDLEFIELD";"OH";44062;"GEAUGA";4402791700;"http://cardinalschools.org/";;"ES houses grades K-4 and is home to an average of 400 students. Our Kindergarten classes are in school all day, every day which has resulted in 80% of students testing at the norm or higher in reading and math. Our third graders continue to attain the necessary scores on state and MAP tests to all advance to fourth grade each year, as determined by the Ohio Third Grade Reading Guarantee Law. In addition to their classroom learning, JES students attend an enrichment class of music, art, library, or physical education throughout the week.  Third and fourth grade students also have the opportunity to participate in student council, entrepreneur fairs and the accelerated reader program. In the Spring of 2016, the Ohio Department of Education awarded JES with a Performance Index Score of an ‘A’!";"http://cardinalschools.org/jes/";"https://www.facebook.com/pages/A-J-Jordak-Elementary-School/564650390303656";"https://www.applitrack.com/nccohio/onlineapp/default.aspx?choosedistrict=true&applitrackclient=37809&all=1";"http://cardinalschools.org/parents-students/student-registration/";"http://cardinalschools.org/wp-content/uploads/2017/08/2017-2018-JES-Student-Handbook-1.pdf";;;"x";"x";;;"http://cardinalschools.org/wp-content/themes/cardinal-schools/images/logo.png";"8:25AM - 3:30PM";"8:25AM - 3:30PM";"8:25AM - 3:30PM";"8:25AM - 3:30PM";"8:25AM - 3:30PM";"Closed";"Closed";
1177603;"A FATHER'S LOVE EDUCATION CENTER, LLC";"3350 ALLEGHENY AVENUE";"COLUMBUS";"OH";43209;"FRANKLIN";6142372222;"http://www.afatherslove.info/";"afatherslove@usa.com";"A Father’s Love Education Center is a 10,000 sq. ft. facility that welcomes children aged six weeks to 12 years old. Here, we educate and care for them like they are our own. ";"http://www.afatherslove.info/";"https://www.facebook.com/afathersloveEC/";;"http://www.afatherslove.info/request-purchase-hours";;"x";"x";"x";"x";;;;"6AM - 9PM";"6AM - 9PM";"6AM - 9PM";"6AM - 9PM";"6AM - 9PM";"Closed";"Closed";
1177615;"A+ KIDS LEARNING CENTER";"5700 KATHY RUN LANE";"COLUMBUS";"OH";43229;"FRANKLIN";6143948278;"https://www.apluskidslearningcenter.com/";" apluskids@outlook.com";"Our mission at A+ kids Learning Center is to provide a quality enriched childcare learning environment for children ages six weeks to twelve years old. While providing a secure environment that stimulates their mind and physical growth. With an enhanced learning curriculum to ensure your child is prepared for their educational future";"https://www.apluskidslearningcenter.com/";"https://www.facebook.com/APlusKidsLearningCenter/";"https://www.facebook.com/pg/APlusKidsLearningCenter/jobs/?ref=page_internal";;;"x";"x";"x";"x";;;"https://scontent.fskp2-1.fna.fbcdn.net/v/t1.0-1/c77.0.200.200/p200x200/14102702_304222136612139_1163611520943069739_n.jpg?_nc_cat=0&oh=d2ed0bf208148d8c432c2bd8c3f60b10&oe=5BA0434B";"6:30AM - 7PM";"6:30AM - 7PM";"6:30AM - 7PM";"6:30AM - 7PM";"6:30AM - 7PM";"Closed";"Closed";
1177620;"ABC LEAP INTO LEARNING FAMILY CENTER";"4700 PHILADELPHIA DR";"DAYTON";"OH";45405;"MONTGOMERY";9379388061;;;;;;;;;;;;;;;;;;;;;;;
1177618;"ABC CENTER";"20 E 1ST ST";"NEW BREMEN";"OH";45869;"AUGLAIZE";4196292419;;;;;;;;;;;;;;;;;;;;;;;
1177623;"ABOVE AND BEYOND EARLY LEARNERS ACADEMY";"2615 MELROSE AVE";"CINCINNATI";"OH";45206;"HAMILTON";5138154333;;;"Here at The Academy we provided excellent childcare for ages 6 weeks to 12 years olds";;"https://www.facebook.com/abelacincy/";;;;"x";"x";"x";"x";"x";"x";"https://scontent.fskp2-1.fna.fbcdn.net/v/t1.0-1/c26.0.200.200/p200x200/15940517_1917802558442635_8554221107511224197_n.jpg?_nc_cat=0&oh=ce9cc98b6bec23b923bb0c14d8549e89&oe=5BA43777";"6:30AM - 12PM";"6:30AM - 12PM";"6:30AM - 12PM";"6:30AM - 12PM";"6:30AM - 12PM";"Closed";"Closed";
1177624;"ABRAHAM LINCOLN SCHOOL";"6009 DUNHAM RD";"MAPLE HEIGHTS";"OH";44137;"CUYAHOGA";2164386030;"http://www.mapleschools.com/";"dawn.besteder@mapleschools.com";"Maple Heights City Schools celebrate and reward safe, respectful and responsible behavior in its schools. We believe that when students are aware of what is expected of them and the consequences of misbehavior are made clear, the great majority of our students will choose to make wise choices.";"http://www.mapleschools.com/4/Home";"https://www.facebook.com/pages/Abraham-Lincoln-School/599143016878687";;"http://www.mapleschools.com/Administration/34";"http://www.mapleschools.com/docs/building/4/elementary%20handbook%202017-18%20w-coc.pdf?id=9060";;;"x";"x";;;"http://www.mapleschools.com/customers/OH/MapleHeightsCitySchs/sysimages/custom/Abe-Lincoln-ES-Title.png";"9:10AM - 4PM";"9:10AM - 4PM";"9:10AM - 4PM";"9:10AM - 4PM";"9:10AM - 4PM";"Closed";"Closed";
1177625;"ACADEMY FOR MULTILINGUAL IMMERSION STUDIES";"1908 SEYMOUR AVE";"CINCINNATI";"OH";45237;"HAMILTON";5133631800;"https://amis.cps-k12.org/";;"The Academy of Multilingual Immersion Studies is to teach understanding and respect for racial, cultural, and linguistic diversity via a model immersion program designed for students to acquire other languages, achieve high academic standards, and acknowledge the dignity of each individual.";"https://amis.cps-k12.org/";"https://www.facebook.com/pages/Academy-For-Multilingual-Immersion-Studies/317494458453104";;"https://amis.cps-k12.org/enroll";"https://www.cps-k12.org/families-students/forms";;;"x";"x";;;"https://amis.cps-k12.org/sites/amis.cps-k12.org/files/logo-cps2016.png";"9:15AM - 3:45PM";"9:15AM - 3:45PM";"9:15AM - 3:45PM";"9:15AM - 3:45PM";"9:15AM - 3:45PM";"Closed";"Closed";
1177630;"ADA VILLAGE PRESCHOOL";"725 W NORTH AVE";"ADA";"OH";45810;"HARDIN";"(419) 634-6421";;;"Aspiring to excel in all areas of the school experience";;"https://www.facebook.com/adabulldogs/";;;;;;"x";"x";;;"https://scontent.fskp2-1.fna.fbcdn.net/v/t1.0-1/c85.0.88.88/1904094_233757626810968_920047759_n.jpg?_nc_cat=0&oh=6f26cb338f16f2c46131ed42465113f2&oe=5BE3E23D";;;;;;;;
1177628;"ACCAA HEAD START - GRAND VALLEY";"111 GRAND VALLEY AVENUE";"ORWELL";"OH";44076;"ASHTABULA";4404376260;"http://communityaction.wixsite.com/accaa";;"The Head Start Program is a free, comprehensive child and family development school readiness program available to income eligible families in Ashtabula County.   School readiness means that children are ready for school, families are ready to support their children’s learning, and schools are ready for children.";"http://communityaction.wixsite.com/accaa/locations";"https://www.facebook.com/ACCAAHeadStart/";"http://communityaction.wixsite.com/accaa/employment";;;"x";"x";"x";"x";;;"https://scontent.fskp2-1.fna.fbcdn.net/v/t1.0-1/p200x200/12027506_487099344804809_3843369066003474298_n.png?_nc_cat=0&oh=97a49d571a3388577b912422f1d6d2a5&oe=5BD5E915";"8AM - 3:30PM";"8AM - 3:30PM";"8AM - 3:30PM";"8AM - 3:30PM";"8AM - 3:30PM";"Closed";"Closed";
1177629;"ACCAA/ACHST A-TECH-JEFFERSON";"1565 STATE ROUTE 167, B BLDG.";"JEFFERSON";"OH";44047;"ASHTABULA";4409921257;"http://communityaction.wixsite.com/accaa";;"The Head Start Program is a free, comprehensive child and family development school readiness program available to income eligible families in Ashtabula County.   School readiness means that children are ready for school, families are ready to support their children’s learning, and schools are ready for children.";"http://communityaction.wixsite.com/accaa/locations";"https://www.facebook.com/ACCAAHeadStart/";"http://communityaction.wixsite.com/accaa/employment";;;"x";"x";"x";"x";;;"https://scontent.fskp2-1.fna.fbcdn.net/v/t1.0-1/p200x200/12027506_487099344804809_3843369066003474298_n.png?_nc_cat=0&oh=97a49d571a3388577b912422f1d6d2a5&oe=5BD5E915";"8AM - 3:30PM";"8AM - 3:30PM";"8AM - 3:30PM";"8AM - 3:30PM";"8AM - 3:30PM";"Closed";"Closed";
1177626;"ACADEMY OF ST BARTHOLOMEW";"14875 BAGLEY RD";"CLEVELAND";"OH";44130;"CUYAHOGA";4408456660;"http://www.academystbarts.org/";;"Our Preschool is an accredited program that follows the Diocese of Cleveland. We are in the process of becoming “Step up to Quality” certified.";"http://www.academystbarts.org/";"https://b-m.facebook.com/The-Academy-of-Saint-Bartholomew-1492260007745609/";;"http://www.academystbarts.org/enroll/";;;;"x";"x";"x";;"http://www.academystbarts.org/wp-content/uploads/2018/07/StBartholomew_Banner_Jun2018_V1.png";"6:30AM - 6PM";"6:30AM - 6PM";"6:30AM - 6PM";"6:30AM - 6PM";"6:30AM - 6PM";"Closed";"Closed";
1177627;"ACADEMY OF WORLD LANGUAGES ELEMENTARY SCHOOL";"2030 FAIRFAX AVE";"CINCINNATI";"OH";45207;"HAMILTON";5133637800;"https://awl.cps-k12.org/";;"A citywide magnet program and Community Learning Center offering classes in Arabic, Chinese, Japanese, Russian and English as a Second Language (ESL), to prepare students for a globally linked society through excellence in world languages, cultural studies and high academic standards.";"https://awl.cps-k12.org/";"https://www.facebook.com/pages/Academy-Of-World-Languages-Elementary-School/847725981933877";;"https://awl.cps-k12.org/enroll";"https://www.cps-k12.org/families-students/forms";;;;;;;"https://awl.cps-k12.org/sites/awl.cps-k12.org/files/logo-cps2016.png";"7:45AM - 2:15PM";"7:45AM - 2:15PM";"7:45AM - 2:15PM";"7:45AM - 2:15PM";"7:45AM - 2:15PM";"Closed";"Closed";
1177634;"ADENA ELEMENTARY SCHOOL";"3367 COUNTY ROAD 550";"FRANKFORT";"OH";45628;"ROSS";7409985293;"http://www.adena.k12.oh.us/";"adenafacebook@mail.gsn.k12.oh.us";"Our mission is to provide all students with the knowledge and skills to reach their potential and to become productive citizens.";"http://www.adena.k12.oh.us/adenaelementary_home.aspx";"http://www.facebook.com/AdenaLocalSchools";;"https://docs.google.com/document/d/1WzFszO18uUsaaMBy3qkTerM1dZSFYYl2Ol4Gwg1FS-Y/edit?usp=sharing";"http://www.adena.k12.oh.us/StudentHandbook1.aspx";;;"x";"x";;;"http://www.adena.k12.oh.us/sysimages/logo.png";"7:40AM - 3:05PM";"7:40AM - 3:05PM";"7:40AM - 3:05PM";"7:40AM - 3:05PM";"7:40AM - 3:05PM";"Closed";"Closed";
1177635;"ADLAI STEVENSON SCHOOL";"18300 WODA";"CLEVELAND";"OH";44122;"CUYAHOGA";2168385300;"http://www.clevelandmetroschools.org/";;"Adlai E. Stevenson empowers PreK-8 scholars to become lifelong learners with the knowledge and skills to succeed in the 21st Century. As a wraparound investment school, Adlai E. Stevenson partners with families and the community to make meaningful improvements to scholars’ academic, social and emotional well-being.";"http://www.clevelandmetroschools.org/Stevenson";"https://www.facebook.com/pages/Adlai-Stevenson-School/1510840355832671";;"http://clevelandmetroschools.org/Page/395";"http://www.clevelandmetroschools.org/Page/12063";;;"x";"x";;;"http://www.clevelandmetroschools.org/cms/lib05/OH01915844/Centricity/Template/GlobalAssets/images///logos/StevensonSharkSM.png";"9:30AM - 4PM";"9:30AM - 4PM";"9:30AM - 4PM";"9:30AM - 4PM";"9:30AM - 4PM";"Closed";"Closed";
1177632;"ADAMSVILLE ELEMENTARY SCHOOL";"7950 EAST ST";"ADAMSVILLE";"OH";43802;"MUSKINGUM";7407962153;"http://www.tri-valley.k12.oh.us/";"dmsmith@tvschools.org";"The mission of the Tri-Valley Local School District, a progressive, responsive, caring educational leader, is to ensure a quality education for all students, encourage individual success, and stimulate lifelong learning through an innovative staff, a student-centered curriculum and a technologically enriched learning environment that involves parents and community.";"http://www.tri-valley.k12.oh.us/8/Home";"https://www.facebook.com/pages/Adamsville-Elementary-School/763865953661639";"http://www.tri-valley.k12.oh.us/Content2/employment";"http://www.tri-valley.k12.oh.us/Content2/enrollmentinformation";;;;"x";"x";;;;"9:15AM - 3:30PM";"9:15AM - 3:30PM";"9:15AM - 3:30PM";"9:15AM - 3:30PM";"9:15AM - 3:30PM";"Closed";"Closed";
1177633;"ADDAVILLE ELEMENTARY SCHOOL";"1333 BRICK SCHOOL RD";"GALLIPOLIS";"OH";45631;"GALLIA";"(740)367-7283";"http://www.gcls.k12.oh.us/";;"Our aim is to provide an excellent education for your child in a caring, positive atmosphere.  We want children to feel secure to develop self-confidence in a supportive, engaged and active environment where learning is central to all we do.";"http://www.gcls.k12.oh.us/4/home";"https://www.facebook.com/pages/Addaville-Elementary-School/897760790233929";"http://www.gcls.k12.oh.us/Employment";"http://www.gcls.k12.oh.us/AES/News/1221";"http://www.gcls.k12.oh.us/District/Links-Forms";;;"x";"x";;;;"8:45AM - 3:40PM";"8:45AM - 3:40PM";"8:45AM - 3:40PM";"8:45AM - 3:40PM";"8:45AM - 3:40PM";"Closed";"Closed";
1177642;"AKRON MONTESSORI";"3882 BYWOOD AVE";"FAIRLAWN";"OH";44333;"SUMMIT";3306664299;"http://www.akronmontessori.org/";"daylkirn@aol.com";"Akron Montessori School is a private school offering a comprehensive academic program based on the Montessori method for children ages 1 to 14 years. AMS is the only Montessori school in the Akron area that offers a complete infant-toddler, primary, and elementary school curriculum. ";"http://www.akronmontessori.org/";"https://www.facebook.com/pages/Akron-Montessori-School/733414526751051";"http://www.akronmontessori.org/contact/";"http://www.akronmontessori.org/admissions/";;"x";"x";"x";"x";;;"http://www.akronmontessori.org/edu/wp-content/uploads/2012/05/arkMont_logo.jpg";"7AM - 6PM";"7AM - 6PM";"7AM - 6PM";"7AM - 6PM";"7AM - 6PM";"Closed";"Closed";
1177643;"AL PI DARKO INITIATIVE";"6442 STOVER AVE";"CINCINNATI";"OH";45237;"HAMILTON";5138323599;"https://www.ou.org/communities/EbpVon8sID/cincinnati-oh-united-states/";;;"http://www.apdicincinnati.org/";;;;;;;;;;;;;;;;;;;
1177638;"AJ'S LEARNING CENTER";"1704 SCHROCK";"COLUMBUS";"OH";43229;"FRANKLIN";6148911900;;;;;;;;;;;;;;;;;;;;;;;
1177640;"AL IHSAN SCHOOL";"6055 W 130TH ST";"PARMA";"OH";44130;"CUYAHOGA";2166765006;"http://www.alihsanschool.net/";" info@alihsanschools.org";"Al Ihsan Education Foundation  is an organization that oversees the operations of the following programs: Al Ihsan School, and Al Ihsan Hifz School.  We are School serving grades Prek 3, Prek 4, Kindergarten - 11th, and Hifz Program.";"http://www.alihsanschool.net/";;"http://www.alihsanschool.net/Employment-Opportunities.html";"http://www.alihsanschool.net/Enrollment-Forms.html";"http://www.alihsanschool.net/Parent-Information.html";;;"x";"x";;;"http://www.alihsanschool.net/bg-1-388100.jpeg?u=2544077949";"8AM - 3:30PM";"8AM - 3:30PM";"8AM - 3:30PM";"8AM - 3:30PM";"8AM - 3:30PM";"Closed";"Closed";
1177637;"AELC SCHOOL";"3075 STONEY RIDGE RD";"AVON";"OH";44011;"LORAIN";"440-695-0561";"https://www.avonlocalschools.org/";"avonpreschool@avoneagles.org";"THE MISSION OF THE AVON LOCAL SCHOOL DISTRICT IS TO CREATE EXCELLENCE IN EDUCATION FOR ALL CHILDREN THROUGH A PARTNERSHIP OF HOME, SCHOOL AND COMMUNITY.";"https://www.avonlocalschools.org/buildings/early-learning-center";;"https://www.avonlocalschools.org/about-us/employment";;"https://www.avonlocalschools.org/images/students/handbooks/aelchandbook.pdf";;;"x";"x";;;"https://www.avonlocalschools.org/images/site/alsd-logo-main.png";"9AM - 3:45PM";"9AM - 3:45PM";"9AM - 3:45PM";"9AM - 3:45PM";"9AM - 3:45PM";"Closed";"Closed";
1177636;"ADVENTURE KIDS CHILD CARE CENTER";"7390 READING RD";"CINCINNATI";"OH";45237;"HAMILTON";5138412227;"http://www.adventurekidschildcare.com/";"roselawn@adventurekidschildcare.com";"Adventure Kids Child Care Corporation believes that there are several key elements to raising, training, and teaching children to become leaders of the future.  We feel that it’s critical that children learn at an early age to respect themselves as well as others, that they learn a sense of order, and self-control.  We believe in enhancing the child’s exposure to a wide range of topics and choices.  By doing so this will cause the child to grow and become well rounded in life.  Our ultimate goal is for every child to Grow feeling valued, feeling loved, feeling a sense of self- worth and importance, and to Grow knowing that they are special and Knowledge is Power.  ";"http://www.adventurekidschildcare.com/roselawn-homepage.html";;"http://www.adventurekidschildcare.com/careers.html";"https://www.myprocare.com/Login/EnterEmail";"http://www.adventurekidschildcare.com/documents.html";"x";"x";"x";"x";;;"http://www.adventurekidschildcare.com/uploads/1/7/9/1/17910739/published/ak-web0_1.png?1494282856";"6AM - 12AM";"6AM - 12AM";"6AM - 12AM";"6AM - 12AM";"6AM - 12AM";"6AM - 12AM";"6AM - 12AM";
1177647;"ALEXANDER ELEMENTARY SCHOOL";"6105 SCHOOL ROAD";"ALBANY";"OH";45710;"ATHENS";;;;;;;;;;;;;;;;;;;;;;;;"Closed"
1177648;"ALEXANDER JR. / SR. HIGH SCHOOL";"6125 SCHOOL RD";"ALBANY";"OH";45710;"ATHENS";"(740)698-8831 ";"http://www.alexanderschools.org/";;"Alexander Local School District embraces quality education as its highest priority and seeks to provide students with experiences that promote respect, responsibility and the necessary skills to become productive citizens who engage in life-long learning.";"http://www.alexanderschools.org/1/home";;"http://www.alexanderschools.org/Employment";;"http://www.alexanderschools.org/userfiles/3/my%20files/17-18%20student%20handbook%20rev8-17%20.pdf?id=2973";;;;;;;"http://www.alexanderschools.org/docs/_Thumb_/building/1/depts/10/alexanderhs_mascot.png?id=4370&thumbwidth=190&fullwidth=500";"3PM - 6PM";"3PM - 6PM";"3PM - 6PM";"3PM - 6PM";"3PM - 6PM";"Closed";"Closed";
1177649;"ALEXANDER SCHOOL";"6105 SCHOOL RD";"ALBANY";"OH";45710;"ATHENS";"(740)698-8831 ";"http://www.alexanderschools.org/";;"Alexander Local School District embraces quality education as its highest priority and seeks to provide students with experiences that promote respect, responsibility and the necessary skills to become productive citizens who engage in life-long learning.";"http://www.alexanderschools.org/";;"http://www.alexanderschools.org/Employment";;"http://www.alexanderschools.org/userfiles/3/my%20files/17-18%20student%20handbook%20rev8-17%20.pdf?id=2973";;;;;;;"http://www.alexanderschools.org/docs/_Thumb_/building/1/depts/10/alexanderhs_mascot.png?id=4370&thumbwidth=190&fullwidth=500";"7:45AM - 2:45PM";"7:45AM - 2:45PM";"Closed";"7:45AM - 2:45PM";"7:45AM - 2:45PM";"Closed";"Closed";
1177650;"ALEXANDRIA MONTESSORI";"175 E FRANKLIN ST";"CENTERVILLE";"OH";45459;"MONTGOMERY";9374355392;"https://www.alexandriamontessorischool.com/";"kfg3ams@gmail.com";"Our mission is to develop strong, independent learners for a lifetime, while our curriculum remains exclusively dedicated to the Montessori philosophy. ";"https://www.alexandriamontessorischool.com/";"https://www.facebook.com/pages/biz/45459%20/Alexandria-Montessori-School-403283582515/";"https://www.alexandriamontessorischool.com/join-team";"https://static1.squarespace.com/static/59a866c7cf81e01cc897cacb/t/5a71e6e8ec212dcf0f13b45e/1517414122222/SKM_22718012217570.pdf";;;;"x";"x";"x";;"https://static1.squarespace.com/static/59a866c7cf81e01cc897cacb/t/59de5cfa268b96c415ffc12a/1520254890539/?format=1500w";"7:30AM - 6PM";"7:30AM - 6PM";"7:30AM - 6PM";"7:30AM - 6PM";"7:30AM - 6PM";"Closed";"Closed";
1177645;"ALBERT CHAPMAN ELEMENTARY SCHOOL";"8450 SAWMILL RD";"POWELL";"OH";43065;"DELAWARE";6147615864;"https://www.dublinschools.net/";"info@dublinschools.net";"We believe that all students can and must learn at high levels of achievement";"https://www.dublinschools.net/chapmanelementary_home.aspx";"https://www.facebook.com/DublinSchools";"https://www.dublinschools.net/humanresources.aspx";"https://www.dublinschools.net/enrollmentpage.aspx";"https://www.dublinschools.net/StudentHandbooks.aspx";;;"x";"x";;;"http://www.dublinschools.net/PageImages/Chapman%20Banner%20Clean%20update.png";"9:10AM - 3:40PM";"9:10AM - 3:40PM";"9:10AM - 3:40PM";"9:10AM - 3:40PM";"9:10AM - 3:40PM";"Closed";"Closed";
1177652;"ALICE COGSWELL CENTER";"500 MORSE RD";"COLUMBUS";"OH";43214;"FRANKLIN";"(614) 728-6900";"http://www.ohioschoolforthedeaf.org/";"dwoods@osdb.oh.gov";"Children are the heart and soul of the programs we offer at the Ohio School for the Deaf. We cherish the opportunity to work with some of the state’s youngest deaf and hard-of-hearing children through our program at the Alice Cogswell Center (ACC). We offer a loving, language-rich environment that allows us to provide a personalized approach to educating infants and  toddlers.";"http://www.ohioschoolforthedeaf.org/en-us/ourschoolsamp;programs/acc.aspx";;;"http://www.ohioschoolforthedeaf.org/en-us/ourschoolsamp;programs/acc.aspx";;"x";"x";"x";;;;"http://www.ohioschoolforthedeaf.org/Portals/0/Banner_Pix/newwebbanner-logos_OsizeTHIN.png";"8AM - 3:15PM";"8AM - 3:15PM";"8AM - 3:15PM";"8AM - 3:15PM";"8AM - 2:30PM";"Closed";"Closed";
1177653;"ALL ABOUT KIDS CHILDCARE AND LEARNING CENTER";"6060 RADIO WAY";"MASON";"OH";45040;"WARREN";5134861870;"http://allaboutkidslcmason.com/";"mason@allaboutkidslc.com";"All About Kids' educated and experienced staff provides great Cincinnati childcare in a state of the art facility. Learn Spanish, dance, karate and more.";"http://allaboutkidslcmason.com/";"https://www.facebook.com/allaboutkidslcmason/";;"http://allaboutkidslcmason.com/forms/";;"x";"x";"x";"x";;"x";"http://www.allaboutkidslc.com/wp-content/uploads/2017/12/new-logo.jpg";"6:30AM - 6:30PM";"6:30AM - 6:30PM";"6:30AM - 6:30PM";"6:30AM - 6:30PM";"6:30AM - 6:30PM";"Closed";"Closed";
1177656;"ALL SAINTS ACADEMY";"2855 E LIVINGSTON AVE";"COLUMBUS";"OH";43209;"FRANKLIN";6142313391;"http://www.asacatholic.org/";"lmiller@cdeducation.org";"The mission at All Saints Academy is to provide a quality Catholic education in a faith-centered environment. We strive to empower each student with the ability to become active stewards and responsible citizens of our world.";"http://www.asacatholic.org/";;;"http://www.asacatholic.org/forms.html";"http://www.asacatholic.org/forms.html";;;"x";"x";;;;;;;;;;;
1177657;"ALL SAINTS CATHOLIC";"630 LIME CITY RD";"ROSSFORD";"OH";43460;"WOOD";4196612070;"http://www.allsaintscatholic.org/";"tfischer@allsaintscatholic.org";"At All Saints, we value each child and support his or her unique gifts and styles of learning. ";"http://www.allsaintscatholic.org/";"https://www.facebook.com/allsaintsrossford/";;"http://www.allsaintscatholic.org/preschool-xxbpp";"http://docs.wixstatic.com/ugd/901e43_5d8bd4bc2d2649729c7763e04f3da837.pdf";;;"x";"x";;;"https://static.wixstatic.com/media/901e43_c0849ec0c8d94f5d8b56990a6aca1fb2.jpg/v1/fill/w_381,h_120,al_c,q_80,usm_0.66_1.00_0.01/901e43_c0849ec0c8d94f5d8b56990a6aca1fb2.webp";"7:50AM - 2:30PM";"7:50AM - 2:30PM";"7:50AM - 2:30PM";"7:50AM - 2:30PM";"7:50AM - 2:30PM";"Closed";"Closed";
1177658;"ALL SAINTS OF ST JOHN VIANNEY";"28702 EUCLID AVE";"WICKLIFFE";"OH";44092;"LAKE";4409431395;"https://www.allsaintssjv.org/";"info@allsaintssjv.com";"All Saints truly is a special place thanks to the many wonderful people who are involved with it. Children who are excited to learn, professional caring teachers, families that are involved and a supportive parish comprise this great community. All Saints is successful because of the commitment of all those associated with the school to provide a quality Catholic education.";"https://www.allsaintssjv.org/";"https://www.facebook.com/All-Saints-of-St-John-Vianney-School-150976458272473/";;"https://www.allsaintssjv.org/steps-for-applying.html";"https://www.allsaintssjv.org/uploads/3/1/0/3/31036923/all_saints_family_handbook_17-18.pdf";;;"x";"x";;;"https://www.allsaintssjv.org/uploads/3/1/0/3/31036923/allsaintsnewlogo-copy_orig.jpg";"7:30AM - 2:05PM";"7:30AM - 2:05PM";"7:30AM - 2:05PM";"7:30AM - 2:05PM";"7:30AM - 2:05PM";"Closed";"Closed";
1177659;"ALL SPORTS CAMP";"4550 WYOGA LAKE ROAD";"CUYAHOGA FALLS";"OH";44224;"SUMMIT";3302091312;"https://www.allsportscamp.net/";"  info@allsportscamp.net";"All Sports Camp was established to provide child day camp solutions for children 5-13 years old. Children must be able to be supervised in the stated counselor to camper ratios.  The staff recognizes the importance of balanced growth so they provide opportunities for mental, physical and emotional growth through a variety of creative experiences. Children are encouraged to learn and explore at their own speed in areas that interest them. We are pleased that you have chosen to include us in the growth and development of your children. ";"https://www.allsportscamp.net/Locations/Locations.aspx";;;"https://registration.allsportscamp.net/Account/Login/";;;;;"x";;"x";"https://www.allsportscamp.net/includes/content/media/images/ACSLogo.png";"7AM - 6PM";"7AM - 6PM";"7AM - 6PM";"7AM - 6PM";"7AM - 6PM";"Closed";"Closed";
1177664;"ALLEN CO ESC PRESCHOOL@SLABTOWN";"1920 SLABTOWN RD";"LIMA";"OH";45801;"ALLEN";4192221836;"http://www.allencountyesc.org/";;;"http://www.allencountyesc.org/our-programs/preschool/";"https://www.facebook.com/pages/Allen-County-Educational-Service-Center-Pre-School/159749040712283";;;"http://www.allencountyesc.org/index.php/download_file/view/860/157/";;;;;;;;;;;;;;;
1177665;"ALLEN ELEMENTARY SCHOOL";"174 PLYLEYS LN";"CHILLICOTHE";"OH";45601;"ROSS";7407741119;"http://www.chillicothe.k12.oh.us/";;"The Chillicothe City School District empowers students to lead, to learn and to serve.";"http://www.chillicothe.k12.oh.us/3/Home";"https://www.facebook.com/Allen-Elementary-Chillicothe-City-Schools-259761567488541/?ref=page_internal";;"http://www.chillicothecityschs.oh.schools.bz/Content2/ParentsForms";"http://www.chillicothe.k12.oh.us/userfiles/312/my%20files/allen/student%20handbook/elementary%20student%20handbook%202015-2016%20bd%20approved%206-22-15.pdf?id=1768";;;"x";"x";;;"http://www.chillicothe.k12.oh.us/docs/_Thumb_/district/ccsd_district_header.jpg?id=466&thumbwidth=190&fullwidth=500";"8:40AM - 3PM";"8:40AM - 3PM";"8:40AM - 3PM";"8:40AM - 3PM";"8:40AM - 3PM";"Closed";"Closed";
1177661;"ALLEN COUNTY ESC PRESCHOOL";"600 SCHOOL ST";"SPENCERVILLE";"OH";45887;"ALLEN";4196474111;"http://www.allencountyesc.org/";;;"http://www.allencountyesc.org/our-programs/preschool/";"https://www.facebook.com/pages/Allen-County-Educational-Service-Center-Pre-School/159749040712283";;;"http://www.allencountyesc.org/index.php/download_file/view/860/157/";;;;;;;;;;;;;;;
1177662;"ALLEN EAST SCHOOL";"9105 HARDING HWY";"HARROD";"OH";45850;"ALLEN";"(419)648-3333";"http://www.ae.k12.oh.us/";"socialmedia@alleneastschools.org";"Allen East Local School District is a public school system located in Harrod, OH. Our mascot is the mustang.";"http://www.ae.k12.oh.us/";"https://www.facebook.com/AllenEastSchools";"http://www.ae.k12.oh.us/Employment";;;;;"x";"x";;;"https://scontent.fskp2-1.fna.fbcdn.net/v/t1.0-1/p200x200/18222083_1918395085062829_3846641651797984564_n.png?_nc_cat=0&oh=2a8aaee24bffd9353d51a4965f7d444b&oe=5BE14261";"7:30AM - 3:30PM";"7:30AM - 3:30PM";"7:30AM - 3:30PM";"7:30AM - 3:30PM";"7:30AM - 3:30PM";"Closed";"Closed";
1177663;"ALLEN ELEMENTARY SCHOOL";"1326 SHERRICK RD SE";"CANTON";"OH";44707;"STARK";3304532782;"http://www.ae.k12.oh.us/";"socialmedia@alleneastschools.org";"Allen East Local School District is a public school system located in Harrod, OH. Our mascot is the mustang.";"http://www.ae.k12.oh.us/administration/16";"https://www.facebook.com/AllenEastSchools";"http://www.ae.k12.oh.us/Employment";;;;;"x";"x";;;"https://scontent.fskp2-1.fna.fbcdn.net/v/t1.0-1/p200x200/18222083_1918395085062829_3846641651797984564_n.png?_nc_cat=0&oh=2a8aaee24bffd9353d51a4965f7d444b&oe=5BE14262";"7:30AM - 3:30PM";"7:30AM - 3:30PM";"7:30AM - 3:30PM";"7:30AM - 3:30PM";"7:30AM - 3:30PM";"Closed";"Closed";
1177660;"ALL THE CHILDREN OF THE WORLD ACADEMY";"6841 FREEMAN RD";"WESTERVILLE";"OH";43082;"DELAWARE";"(614) 890-8985";"http://northsidefellowship.org/";"atcoffice@atcacademy.org";"All the Children of the World Academy (ATC) is a Christian school dedicated to the social, emotional and academic growth of all students. We place importance on preparing a rich environment, which allows children to explore and make connections. Our preschool is play-based and incorporates the development of each child’s oral language, reading, writing, mathematics, science, health, social studies, and critical thinking skills. Our kindergarten uses age appropriate, integrated thematic instruction incorporating all areas of the school age curriculum. At ATC, children learn from specialists in the curricular areas of art, music, physical education, foreign language, and library.";"http://northsidefellowship.org/atc-academy";"https://www.facebook.com/atcacad/";"http://northsidefellowship.org/atc-academy/employment";"http://northsidefellowship.org/atc-academy/registration";;;;"x";"x";;"x";"https://s3.amazonaws.com/media.cloversites.com/f3/f3566781-811c-41e3-97ba-df47b686afd4/site-images/9bfe9c0a-29a2-4b3f-8770-fa4bfc655d58.jpg";"9AM - 11:45PM";"9AM - 11:45PM";"9AM - 11:45PM";"9AM - 11:45PM";"9AM - 11:45PM";"Closed";"Closed";
1177677;"ALTA HEAD START CAMP CHALLENGE";"939 WILKINSON AVE";"YOUNGSTOWN";"OH";44509;"MAHONING";"(330)736-0071";"http://www.altaheadstart.org/";;"Alta Head Start/ Early Head Start offers quality educational programs in a nurturing, secure and developmental appropriate setting for children birth to five. Qualified, credentialed teachers who are trained in best practice academic and social- emotional standards, as well as other trained support staff, provide children a preschool experience focused on school readiness skill development. Children qualify for services based on federal income guidelines";"http://www.altaheadstart.org/location/camp-challenge/";"https://www.facebook.com/AltaHeadStart";;"http://www.altaheadstart.org/en/apply-now/";;"x";"x";"x";"x";;"x";"http://www.altaheadstart.org/wp-content/themes/headstart2018/images/logo.png";"8:30AM - 4:30PM";"8:30AM - 4:30PM";"8:30AM - 4:30PM";"8:30AM - 4:30PM";"8:30AM - 4:30PM";"Closed";"Closed";
1177674;"ALMOST HOME CHILD CARE LLC";"6425  HAMILTON AVE";"CINCINNATI";"OH";45224;"HAMILTON";5134294988;;;;;;;;;;;;;;;;;;;;;;;
1177673;"ALMIRA";"3375 W 99TH ST";"CLEVELAND";"OH";44102;"CUYAHOGA";2168386150;"http://www.clevelandmetroschools.org/";;"Almira, Euclid Park preschools earn 5 stars The preschools at Almira and Euclid Park schools have earned the state's top rating for quality.";"http://www.clevelandmetroschools.org/almira";"https://www.facebook.com/pages/Almira/364765920371137";;"http://www.clevelandmetroschools.org/domain/168";;;;"x";"x";;;"http://www.clevelandmetroschools.org/cms/lib05/OH01915844/Centricity/Template/GlobalAssets/images///logos/AlmiraLogoSm.jpg";"9:10AM - 3:40PM";"9:10AM - 3:40PM";"9:10AM - 3:40PM";"9:10AM - 3:40PM";"9:10AM - 3:40PM";"Closed";"Closed";
1177671;"ALLIANCE EARLY LEARNING SCHOOL AT SOUTH LINCOLN";"285 W OXFORD ST";"ALLIANCE";"OH";44601;"STARK";3308292266;"http://www.alliancecityschools.org/";"goodwinal@alliancecityschools.org";"Our mission is for all students to reach their fullest potential and become productive citizens through teachers who establish high expectations; a safe, positive and engaging learning environment; and content that supports critical thinking, collaboration, communication and creativity.";"http://www.alliancecityschools.org/o/early-learning-school";"https://www.facebook.com/alliancecsd";"https://www.applitrack.com/alliance/onlineapp/";;"https://core-docs.s3.amazonaws.com/documents/asset/uploaded_file/85224/AELS_Parent_Handbook_2017-2018.pdf";;;"x";"x";"x";;"http://www.alliancecityschools.org/assets/apptegy_cms/themes/alliancecityoh_redesign/logo-1c2be432284ad08a94807b43aaeabb78.png";"7:30AM - 4PM";"7:30AM - 4PM";"7:30AM - 4PM";"7:30AM - 4PM";"7:30AM - 4PM";"Closed";"Closed";
1177672;"ALLIANCE MIDDLE SCHOOL";"3205 S UNION AVE";"ALLIANCE";"OH";44601;"STARK";3308292254;"http://www.alliancecityschools.org/";"hampuca@alliancecityschools.org";"Our mission isfor allstudentsto reach their fullest potential and become productive citizensthrough teachers who establish high expectations; a safe, positive, and engaging learning environment; and content thatsupportscritical thinking,collaboration,communication and creativity.";"http://www.alliancecityschools.org/o/middle-school";"https://www.facebook.com/alliancecsd";"https://www.applitrack.com/alliance/onlineapp/";;"https://core-docs.s3.amazonaws.com/documents/asset/uploaded_file/78159/2017-18_AMS_Student_Handbook_-_Final_Draft_.pdf";;;;;;"x";"http://www.alliancecityschools.org/assets/apptegy_cms/themes/alliancecityoh_redesign/logo-1c2be432284ad08a94807b43aaeabb78.png";"7:30AM - 4PM";"7:30AM - 4PM";"7:30AM - 4PM";"7:30AM - 4PM";"7:30AM - 4PM";"Closed";"Closed";
1177675;"ALPINE ELEMENTARY SCHOOL";"1590 ALPINE DR";"COLUMBUS";"OH";43229;"FRANKLIN";6143655359;"https://www.ccsoh.us/";"FACTLine@columbus.k12.oh.us";"Each student is highly educated, prepared for leadership and service, and empowered for success as a citizen of a global community. Learn. Dream. Succeed.";"https://www.ccsoh.us/AlpineES";"https://www.facebook.com/ColumbusCitySchools/";"https://www.ccsoh.us/jobs";"https://www.ccsoh.us/enroll";;;;;;;;"https://www.ccsoh.us/cms/lib/OH01913306/Centricity/Template/GlobalAssets/images///logos/Alpine%20ES-01.png";;;;;;;;
1177678;"ALTERNATE LEARNING CENTER";"3939 WRENWOOD RD";"TOLEDO";"OH";43623;"LUCAS";4194733442;"http://www.esclakeeriewest.org/";"mopsincs@esclakeeriewest.org";"Most students enrolled at the ALC are identified as having special needs entitling them to individualized accommodations designed to aid in their educational success. On the continuum of special education options defined by the Ohio Department of Education (ODE), students referred to the ALC have been identified as being best served in a separate educational facility. Our goal is to assist all students in acquiring the necessary emotional and behavioral skills to return to their home schools.";"http://www.esclakeeriewest.org/alternate-learning-center";;"http://www.esclakeeriewest.org/employment-opportunities";;"http://www.esclakeeriewest.org/files/Services/ALC/ALC%20West%20Handbook%202017-18%20FINAL.pdf";;;;;;;;;;;;;;;
1177679;"ALTON DARBY ELEMENTARY SCHOOL";"2730 ALTON DARBY CREEK RD";"HILLIARD";"OH";43026;"FRANKLIN";6149215000;"https://www.hilliardschools.org/";"joanne_clayton@hboe.org";"Our school is a safe and joyful place where children discover their full potential in a united community of reflective learners. In our cooperative and inspirational environment, we aspire to empower the whole child as each successfully continues on a journey of life-long learning in an everchanging world.";"https://www.hilliardschools.org/ade/";"https://www.facebook.com/AltonDarbyHCSD/";;"http://www.hilliardschools.org/welcomecenter/";"https://www.hilliardschools.org/pdf/Pre_Elem_Handbook.pdf";;;;;;;"http://www.hilliardschools.org/ade/wp-content/uploads/sites/38/altondarby-logo.png";"7:05AM - 3:45PM";"7:05AM - 3:45PM";"7:05AM - 3:45PM";"7:05AM - 3:45PM";"7:05AM - 3:45PM";"Closed";"Closed";
1177681;"AMANDA SCHOOL";"1300 OXFORD STATE RD";"MIDDLETOWN";"OH";45044;"BUTLER";5138873710;"http://www.middletowncityschools.com/";"bhendricks@middletowncityschools.com";"Engage each student with challenging and innovative experiences in a supportive environment, propelling them to lifelong success.";"https://www.middletowncityschools.com/amanda-elementary/home-1/";"https://www.facebook.com/MiddletownCitySchools/";;;"https://www.middletowncityschools.com/media/amandaelementary/Amanda%202017-18%20Handbook%20Revised2.pdf";;;;;;;"https://www.middletowncityschools.com/layout/images/logos/amandamustangs_logo.png";"9AM - 3:45PM";"9AM - 3:45PM";"9AM - 3:45PM";"9AM - 3:45PM";"9AM - 3:45PM";"Closed";"Closed";
1177680;"ALUM CREEK SCHOOL";"2515 PARKLAWN DR";"LEWIS CENTER";"OH";43035;"DELAWARE";7406574600;"https://www.olentangy.k12.oh.us/";"brandy_worth@olsd.us";"Olentangy Local Schools: Proudly facilitating maximum learning for every student.";"https://www.olentangy.k12.oh.us/Alum%20Creek";"https://www.facebook.com/olentangylocalschools";;"https://www.olentangy.k12.oh.us/domain/421";"https://www.olentangy.k12.oh.us/cms/lib/OH01914664/Centricity/shared/elementary%20files/Official%202018-19%20ES%20Handbook%206-11-18.pdf";;;"x";"x";;;"https://scontent.fskp2-1.fna.fbcdn.net/v/t1.0-1/p200x200/1902787_700101776714353_6599624662493830874_n.jpg?_nc_cat=0&oh=32359457f8e3aa21fb6c8f771eae87f5&oe=5BE86AE4";"7AM - 5PM";"7AM - 5PM";"7AM - 5PM";"7AM - 5PM";"7AM - 5PM";"Closed";"Closed";
1177683;"AMELIA ELEMENTARY SCHOOL";"5 E MAIN ST";"AMELIA";"OH";45102;"CLERMONT";5139433800;"http://www.westcler.k12.oh.us/";"riel_j@westcler.org";"Amelia has approximately 800 students enrolled in preschool through fifth grade and employs a staff of 37 full time teachers and health aide. Many families have chosen our school because of its moderate size, a growing parent support and involvement base, and the high quality education provided to our students by a highly qualified staff. Eighty-two (82%) of our teachers hold a Master’s Degree. Amelia is committed to a strong literacy and mathematics program. Specialized support in reading and math are provided in addition to regular classroom instruction. We realize that students learn in a variety of ways so we provide support in special education for qualifying students.";"http://www.westcler.k12.oh.us/5/Home";"https://www.facebook.com/amelia.tigers";"https://www.applitrack.com/greatercincinnati/onlineapp/default.aspx?choosedistrict=true&applitrackclient=37291";"http://www.westcler.k12.oh.us/content/CentralEnrollment";;;;"x";"x";;;"https://scontent.fskp2-1.fna.fbcdn.net/v/t1.0-1/p160x160/24177110_1532685453480401_1954118788965709590_n.jpg?_nc_cat=0&oh=2a5778746ba7be2b4b02babf661aede5&oe=5BE4A040";"8:20AM – 3PM";"8:20AM – 3PM";"8:20AM – 3PM";"8:20AM – 3PM";"8:20AM – 3PM";"Closed";"Closed";
1177684;"EAST LIVERPOOL CHRISTIAN SCHOOL";"46682 FLORENCE ST";"EAST LIVERPOOL";"OH";43920;"COLUMBIANA";3303855588;"http://www.elchristian.org/";" elcsoffice@elchristian.org";"The vision for East Liverpool Christian School is “Providing educational opportunities founded on Christian principles, enabling students to impact society for Christ by continuously learning, discerning, and advocating truth.” ELCS provides a distinctively Christian education with academic excellence that equips each student to choose a life completely obedient to God.";"http://www.elchristian.org/";"https://www.facebook.com/pages/American-Spirit-Academy/554715888005929";"http://www.elchristian.org/employment-opportunities.html";"http://www.elchristian.org/admissions.html";"http://www.elchristian.org/uploads/7/2/0/7/72075953/handbook17-18.pdf";;;"x";"x";;;"http://www.elchristian.org/uploads/7/2/0/7/72075953/letterheadlogo_orig.png";"8:10AM – 3:05PM";"8:10AM – 3:05PM";"8:10AM – 3:05PM";"8:10AM – 3:05PM";"8:10AM – 3:05PM";"Closed";"Closed";
1177685;"AMESVILLE ELEMENTARY SCHOOL";"ST. RTE. 329";"AMESVILLE";"OH";45711;"ATHENS";7404482501;"http://www.fedhock.com/";"cblower@fhlancers.com";"We are helping our young learners go on to big futures";"http://www.fedhock.com/3/home";;;"http://www.fedhock.com/docs/building/3/amesville%20elementary%20forms.pdf?id=1463";"http://www.fedhock.com/docs/2014-15%20Student%20Handbook1.pdf";;;"x";"x";;;;"9AM - 3:45PM";"9AM - 3:45PM";"9AM - 3:45PM";"9AM - 3:45PM";"9AM - 3:45PM";"Closed";"Closed";
1177682;"AMANDA-CLEARCREEK SCHOOL";"414 N SCHOOL ST";"AMANDA";"OH";43102;"FAIRFIELD";7406533193;"https://www.amanda.k12.oh.us/";;"The Amanda-Clearcreek School District’s vision is to prepare graduates to become productive community members and life-long learners. We strive to create";"https://www.amanda.k12.oh.us/amandaprimary/";;;"https://www.amanda.k12.oh.us/Forms.html";"https://www.amanda.k12.oh.us/pdf/Primary-and-Elementary-Handbook.pdf";;;"x";"x";;;"https://www.amanda.k12.oh.us/amandaprimary/images/aces-logo-cut.png";"8:50AM - 3:50PM";"8:50AM - 3:50PM";"8:50AM - 3:50PM";"8:50AM - 3:50PM";"8:50AM - 3:50PM";"Closed";"Closed";
1177689;"ANGELINE SCHOOL";"11028 COUNTY HIGHWAY 44";"UPPER";"OH";43351;"WYANDOT";" (419) 294-4901";"http://www.angeline.com/";"admin@angeline.com";"Our program providing services to children with developmental disabilities and their families is called the Angeline School.  It is our belief, based on sound research and evidence, that the earlier we are able to intervene with children and families experiencing a developmental disability the more positive the outcome.  We provide these services as efficiently and effectively as possible through such programs as Early Intervention, P.L.A.Y. Project (Play and Language for Autistic Youngsters), Responsive Teaching, and state licensed special education preschool and school-age services.";"http://www.angeline.com/";"https://www.facebook.com/pages/Angeline-School-of-Opportunity/167160636629351";;;"http://www.angeline.com/wp-content/uploads/2012/11/Early-Intervention-Parent-Handbook.pdf";;;"x";"x";;;"http://www.angeline.com/wp-content/themes/wp_yoghourt/images/logo.jpg";"Closed";"8:30AM - 2:30PM";"Closed";"8:30AM - 2:30PM";"Closed";"Closed";"Closed";
1177692;"ANNA MARIE AYERS ELEMENTARY SCHOOL";"5002 AYERS LIME STONE RD";"MARTINS";"OH";43935;"BELMONT";7406339352;"http://ayers.mfcsd.k12.oh.us/";;"We use the “Quality Change” process in our building. This is a goal oriented and data driven process that drives not only our instruction, but also our daily classroom and building routines. Our Mission Statement here at Ayers Elementary is: Ayers Elementary working together to be responsible, respectful, and successful. Our building goals are to improve: Reading, Writing, Math, and Behavior.";"http://ayers.mfcsd.k12.oh.us/";;;"http://ayers.mfcsd.k12.oh.us/district_forms";"http://ayers.mfcsd.k12.oh.us/district_forms";;;"x";"x";;;;"8:20AM – 3:10PM";"8:20AM – 3:10PM";"8:20AM – 3:10PM";"8:20AM – 3:10PM";"8:20AM – 3:10PM";"Closed";"Closed";
1177687;"ANDREW J RICKOFF";"3500 E 147TH ST";"CLEVELAND";"OH";44120;"CUYAHOGA";2168384150;"http://www.clevelandmetroschools.org/";;"The purpose of this page is to keep the Andrew J. Rickoff community informed about the news, events, and accomplishments of the school and our scholars!";"http://www.clevelandmetroschools.org/ajrickoff";"https://www.facebook.com/AndrewJRickoff/";"https://clevelandmetroschools.wd1.myworkdayjobs.com/jobs";"http://www.clevelandmetroschools.org/Page/395";;;;"x";"x";;;"http://www.clevelandmetroschools.org/cms/lib05/OH01915844/Centricity/Domain/179/CMSDLogoStackedBlue.jpg";"7:40AM - 2:10PM";"7:40AM - 2:10PM";"7:40AM - 2:10PM";"7:40AM - 2:10PM";"7:40AM - 2:10PM";"Closed";"Closed";
1177688;"ANDREWS OSBORNE ACADEMY";"38588 MENTOR AVE";"WILLOUGHBY";"OH";44094;"LAKE";4409423600;"https://www.andrewsosborne.org/page";"admissions@andrewsosborne.org";"Andrews Osborne Academy prepares students for higher education and empowers them to be successful leaders committed to serving in an international community.";"https://www.andrewsosborne.org/page";"https://www.facebook.com/AndrewsOsborneAcademy/";"https://www.andrewsosborne.org/page/about-aoa/employment";"https://andrewsosborne.myschoolapp.com/app#login/apply";;;;;"x";;"x";"https://bbk12e1-cdn.myschoolcdn.com/ftpimages/732/logo/AOA_logo_horizontal_white.png";"8AM - 11:30PM";"8AM - 11:30PM";"8AM - 11:30PM";"8AM - 11:30PM";"8AM - 11:30PM";"Closed";"Closed";
1177699;"APPLE CREEK ELEMENTARY SCHOOL";"173 W MAIN ST";"APPLE CREEK";"OH";44606;"WAYNE";3306983111;;;;"http://www.southeast.k12.oh.us/applecreek";"https://www.facebook.com/Apple-Creek-Elementary-PTO-1007012035996516/";;;;;;"x";"x";;;"https://scontent.fskp2-1.fna.fbcdn.net/v/t1.0-1/c3.0.200.200/p200x200/11990487_1007016379329415_4950176020301160925_n.jpg?_nc_cat=0&oh=db2ca9520d0347be97c655d36447e7a6&oe=5BE5B2F7";"9AM - 3PM";"9AM - 3PM";"9AM - 3PM";"9AM - 3PM";"9AM - 3PM";"Closed";"Closed";
1177697;"ANTON GRDINA";"2955 E 71ST ST";"CLEVELAND";"OH";44104;"CUYAHOGA";2168121543;"http://www.clevelandmetroschools.org/";;"Anton Grdina is a Pre-K to 8 Investment School";"http://www.clevelandmetroschools.org/Anton";"https://www.facebook.com/Anton-Grdina-Investment-School-396655700526312/";;;;;;"x";"x";"x";;"http://www.clevelandmetroschools.org/cms/lib05/OH01915844/Centricity/Template/GlobalAssets/images///logos/grdina.png";"7:40AM - 2:10PM";"7:40AM - 2:10PM";"7:40AM - 2:10PM";"7:40AM - 2:10PM";"7:40AM - 2:10PM";"Closed";"Closed";
1177698;"ANTWERP LOCAL ELEMENTARY SCHOOL";"303 S. HARRMANN RD";"ANTWERP";"OH";45813;"PAULDING";4192585421;"http://www.antwerpschools.org/";;"The mission of the Antwerp Local School District is to enable all students to become productive and resourceful members of an ever-changing world using a variety of strategies and technologies.";"http://www.antwerpschools.org/ElementarySchool.aspx";"https://www.facebook.com/antwerpschools/";;;"http://www.antwerpschools.org/Downloads/antwerp%20elementary%20handbook%202015-2016.pdf";;;"x";"x";;;"http://www.antwerpschools.org/sysimages/LOGO1.png";;;;;;;;
1177694;"ANSONIA ELEMENTARY SCHOOL";"600 E CANAL ST";"ANSONIA";"OH";45303;"DARKE";9373375141;"http://www.ansonia.k12.oh.us/";"ashlee.fourman@ansoniaschools.org ";"Our goal is for all children to become independent readers, writers and thinkers. Our academic areas cover reading, writing, math, science, and social studies. We offer physical education and music to all students";"http://www.ansonia.k12.oh.us/ansoniaelementary_home.aspx";"https://www.facebook.com/Ansonia-Local-Schools-107231592653889/";"https://www.applitrack.com/dayton/onlineapp/default.aspx?choosedistrict=true&applitrackclient=38800";"http://www.ansonia.k12.oh.us/Downloads/Open%20Enrollment%20Form.pdf";"http://www.ansonia.k12.oh.us/Downloads/Handbook%202017-2018.pdf";;;"x";"x";;;"http://www.ansonia.k12.oh.us/sysimages/header_logo.png";"8:45AM - 3:15PM";"8:45AM - 3:15PM";"8:45AM - 3:15PM";"8:45AM - 3:15PM";"8:45AM - 3:15PM";"Closed";"Closed";
1177695;"ANSONIA PRE-SCHOOL AT ANSONIA METHODIST";"200 WEST HIGH STREET";"ANSONIA";"OH";45303;"DARKE";9373374000;"http://ansoniaumc.com/";"rlemerson28@hotmail.com";"Our church family is warm, friendly, and welcoming. And best of all, you can come as you are: Jeans, shorts, or even dressed up if that’s what you like to do!";"http://ansoniaumc.com/";"https://www.facebook.com/AnsoniaUMC";;;;;;"x";;;;"https://scontent.fskp2-1.fna.fbcdn.net/v/t1.0-1/p200x200/22519257_1996774470645010_6068132526390969213_n.png?_nc_cat=0&oh=7f39eaed06eb29bd9ea674b9abf75461&oe=5BD1137D";;;;;;;;
1177696;"ANTHONY WAYNE EC CENTER";"4932 CHILDRENS HOME BRADFORD R";"GREENVILLE";"OH";45331;"DARKE";9375488585;;;;;;;;;;;;;;;;;;;;;;;
1177693;"ANNUNCIATION";"3545 CLIFTON AVE";"CINCINNATI";"OH";45220;"HAMILTON";5132211230;"http://www.school.annunciationbvmparish.org/";"aertel@abvmcincy.org";"Through a dynamic and collaborative relationship (in which we expect and promote respect, prompt communication, understanding, and accountability), we can better foster the mission of Annunciation School. At its heart, that mission is to prepare your child to “confidently meet life’s future challenges” by “enhancing… [his/her] spiritual, intellectual, emotional, and physical wellbeing.”";"http://www.school.annunciationbvmparish.org/";"https://www.facebook.com/annunciationbvmparish";;"http://www.school.annunciationbvmparish.org/admissions---enrollment.html";"http://www.school.annunciationbvmparish.org/2017-2018_ACS_Student-Family_Handbook.pdf";;;"x";"x";"x";;"http://www.school.annunciationbvmparish.org/publishImages/index~~element80.png";"7:20AM - 5:30PM";"7:20AM - 5:30PM";"7:20AM - 5:30PM";"7:20AM - 5:30PM";"7:20AM - 5:30PM";"Closed";"Closed";
1177707;"ARDENCY READING RAINBOW DAYCARE";"393 EAST 200TH STREET";"EUCLID";"OH";44119;"CUYAHOGA";2167955293;;;;;"https://www.facebook.com/Ardency-Reading-Rainbow-Daycare-1903854073233859/";;;;;;;;;;;;;;;;;;
1177704;"ARCHBOLD ELEMENTARY SCHOOL";"500 LAFAYETTE ST";"ARCHBOLD";"OH";43502;"FULTON";"(419) 446-2727";"http://archbold.k12.oh.us/";"dbernath@archboldschools.org";"Archbold Elementary houses grades K-4 along with our county run pre-school units.  We have four to five sections of each grade level with approximately 100 students per grade.  When staff and students walk through the doors of Archbold Elementary School, they automatically become members of the AES Club where Attitude + Effort =Success and we are Respectful, Responsible, and Safe!  It is our goal at Archbold Elementary to ensure every student finds SUCCESS!";"http://archbold.k12.oh.us/elementary";"https://www.facebook.com/Archbold-Area-Schools-177873139241/";"http://archbold.k12.oh.us/jobs";"http://archbold.k12.oh.us/files/2018_2019_OE_Application.pdf";"http://archbold.k12.oh.us/files/AES/AESHandbook.pdf";;;;;;;"https://www.facebook.com/177873139241/photos/a.432140429241.234380.177873139241/177873724241/?type=3&theater";"8AM - 3:05PM";"8AM - 3:05PM";"8AM - 3:05PM";"8AM - 3:05PM";"8AM - 3:05PM";"Closed";"Closed";
1177705;"ARCHBOLD HIGH SCHOOL";"600 LAFAYETTE ST";"ARCHBOLD";"OH";43502;"FULTON";"(419) 445-5579";"http://archbold.k12.oh.us/";"jgerken@archboldschools.org";"Archbold High School is a 9-12th grade school with a tremendous staff and an excellent student body!  AHS offers numerous elective courses in drama, music,  computer and technology, industrial arts, art, business, and vocational education, as well as rigorous core curriculum offerings.  AHS supports 18 varsity sports as well as several very active student and booster groups. Archbold High School student success is due to continual support from our community! ";"http://archbold.k12.oh.us/high";"https://www.facebook.com/Archbold-Area-Schools-177873139241/";"http://archbold.k12.oh.us/jobs";"http://archbold.k12.oh.us/files/2018_2019_OE_Application.pdf";"http://www.archbold.k12.oh.us/files//AHS/AHSHandbook.pdf";;;;;;;"https://www.facebook.com/177873139241/photos/a.432140429241.234380.177873139241/177873724241/?type=3&theater";"8AM - 11:15AM";"8AM - 11:15AM";"8AM - 11:15AM";"8AM - 11:15AM";"8AM - 11:15AM";"Closed";"Closed";
1177706;"ARCHBOLD MIDDLE SCHOOL";"306 STRYKER ST";"ARCHBOLD";"OH";43502;"FULTON";"(419) 446-2726";"http://archbold.k12.oh.us/";"rwyse@archboldschools.org";"AMS is a special place for students to learn and grow.  We have a strong COMMUNITY of students and staff for the 2017-2018 school year!  It is inspiring to visit the classrooms and be involved in the challenging and motivating lessons that our students are engaged in every day.  No matter the specific role a TEAM member plays; from cook, to teacher, to custodian, all are committed to providing every student with an extremely positive school experience.";"http://archbold.k12.oh.us/middle";"https://www.facebook.com/Archbold-Area-Schools-177873139241/";"http://archbold.k12.oh.us/jobs";"http://archbold.k12.oh.us/files/2018_2019_OE_Application.pdf";"http://archbold.k12.oh.us/files/AMS/AMSHandbook.pdf";;;;;;;"https://www.facebook.com/177873139241/photos/a.432140429241.234380.177873139241/177873724241/?type=3&theater";"8AM - 12PM";"8AM - 12PM";"8AM - 12PM";"8AM - 12PM";"8AM - 12PM";"Closed";"Closed";
