"id";"name";"address";"city";"state";"zip";"county";"phone";"main url";"email";"details";"location website";"facebook page";"career/employment url";"application/registration url";"parent handbook url";"infant (under 12 months)";"toddler (1-2yrs)";"preschools (2-3yrs)";"pre-kindergarden(4yr)";"before/afterschools";"camps";"logo url";"monday hour";"tuesday hour";"wednesday hour";"thursday hour";"friday hours";"saturday hour";"sunday hour";"notes"
1174289;"KINDERCARE LEARNING CENTERS 073048";"633 QUINCY AVE";"SCRANTON";"PA";18510;"LACKAWANNA";5703444397;;;;;;;;;;;;;;;;;;;;;;;"Closed"
1174290;"MID VALLEY EARLY HEAD START";"641 SIMPSON ST";"THROOP";"PA";18512;"Lackawanna";5703832774;"https://www.slhda.org/";"SFontana@slhda.org";"A comprehensive child development program that promotes school readiness by enhancing the social and cognitive development of children through the provision of educational, health, nutritional, social and other services to enrolled children and families. Head Start engages parents in their children's learning and helps parents in making progress toward their educational, literacy and employment goals.";"https://www.slhda.org/early-learning-program";"https://www.facebook.com/SLHDA321/";"https://www.slhda.org/job-postings";"https://www.slhda.org/enrollment-information";"https://www.slhda.org/parent-corner-page";"x";"x";"x";"x";;;"https://static.wixstatic.com/media/f5ab49_f89dd00fb08a44c0b7e8ef5229a72889~mv2.gif";;;;;;;;
1174288;"DUNMORE KIDS CREATIVE LEARNING CENTER";"111 N APPLE ST";"DUNMORE";"PA";18512;"Lackawanna";5709099610;"http://kidscreativelearningcenters.com/";"dunmorekidsclc@gmail.com";"Dunmore Kids Creative Learning Center is designed specifically for school age students to provide children with age appropriate activities in a safe and secure environment that allows children to be children";"http://kidscreativelearningcenters.com/";"https://www.facebook.com/Dunmore-Kids-Creative-Learning-Center-199696690387429/";;;;;;"x";"x";"x";"x";"http://kidscreativelearningcenters.com/wp-content/uploads/2016/02/PSLogo.png";"9AM - 5PM";"9AM - 5PM";"9AM - 5PM";"9AM - 5PM";"9AM - 5PM";"Closed";"Closed";
1174291;"EHS CHILDCARE ROOM";"706 N SHAVER ST";"MOUNT UNION";"PA";17066;"HUNTINGDON";8145422518;;;;;;;;;;;;;;;;;;;;;;;
1174292;"Discover The World Childrens Center Inc";"62 PITNEY ST";"SAYRE";"PA";18840;"BRADFORD";5708887529;"http://discovertheworldchildrenscenter.com/";"office@discovertheworldchildrenscenter.com";"We, at Discover the World Children’s Center, combine learning experiences and structured play in a fun, safe and nurturing environment – offering far more than just child care. Our program is the first introduction to a lifetime of learning. A journey that should start off on the right foot. We help children discover, explore and learn to their fullest potential.";"http://discovertheworldchildrenscenter.com/contact-us/";"https://www.facebook.com/pages/Discover-The-World-Learning-Center/134099129973232";;;"http://discovertheworldchildrenscenter.com/parent-resources/";"x";"x";"x";"x";"x";;"http://discovertheworldchildrenscenter.com/wp-content/uploads/2017/05/title.png";;;;;;;;
1174293;"SHINING STARS DAYCARE AND PRESCHOOL";"201 SPRINGBROOK DR";"CANTON";"PA";17724;"BRADFORD";"570-870-0518";;;"We are a child care center that provides quality care in a family-like setting with a lot of experience in childcare";;"https://www.facebook.com/Shining-Stars-Daycare-and-Preschool-1276087472408559/";;;;;;;;;;;"6:30AM - 6PM";"6:30AM - 6PM";"6:30AM - 6PM";"6:30AM - 6PM";"6:30AM - 6PM";"Closed";"Closed";
1174295;"LITTLE MINDS LEARNING ACADEMY LLC/SITE 2";"800 FAYETTE AVE";"BELLE VERNON";"PA";15012;"FAYETTE";7249298687;"http://littlemindslearning.com/";"racheldominick@comcast.net";"We offer innovative learning to enhance your child's unique gifts in a safe, loving, nurturing environment where every child is a star.";"http://littlemindslearning.com/belle-vernon/4962096";"https://www.facebook.com/Little-Minds-Learning-Academy-Daycare-and-Preschool-414370141985057/";;;;"x";"x";"x";"x";"x";;"http://littlemindslearning.com/communities/6/000/001/026/846//images/1796051_489x69.png";"6AM - 8PM";"6AM - 8PM";"6AM - 8PM";"6AM - 8PM";"6AM - 8PM";"6AM - 8PM";;
1174296;"LITTLE RASCALS LEARNING ACADEMY";"212 INDEPENDENCE ST";"PERRYOPOLIS";"PA";15473;"FAYETTE";7244331151;"http://littlemindslearning.com/";"racheldominick@comcast.net";"We offer innovative learning to enhance your child's unique gifts in a safe, loving, nurturing environment where every child is a star.";"http://littlemindslearning.com/perryopolis/1247447";"https://www.facebook.com/Little-Minds-Learning-Academy-Daycare-and-Preschool-414370141985057/";;;;"x";"x";"x";"x";"x";;"http://littlemindslearning.com/communities/6/000/001/026/846//images/1796051_489x69.png";"6AM - 8PM";"6AM - 8PM";"6AM - 8PM";"6AM - 8PM";"6AM - 8PM";"6AM - 8PM";;
1174301;"CHEDER MENACHEN PRESCHOOL";"970 WYOMING AVE REAR 970";"KINGSTON";"PA";18704;"LUZERNE";4127153018;;;;"https://jewishwilkes-barre.org/community-directory/cheder-menachem";;;;;;;;;;;;;;;;;;;
1174299;"HAZLETON INTEGRATION PROJECT";"225 E 4TH ST";"HAZLETON";"PA";18201;"LUZERNE";5708618081;"http://www.hazletonintegrationproject.org/";"hazletonintegrationproject@gmail.com";"Our mission is to provide a physical environment within the city of Hazleton, Pennsylvania, conducive to creating opportunities for economically challenged children to participate in a variety of no-cost or low-cost educational, cultural and athletic activities.";"http://www.hazletonintegrationproject.org/home/programs";"https://www.facebook.com/hazletonone/";;;;;;"x";"x";"x";"x";"https://scontent.fskp2-1.fna.fbcdn.net/v/t1.0-1/c23.23.287.287/s200x200/18244_183883228417734_345678875_n.jpg?_nc_cat=0&oh=c0ad07c757f31e45e200d4e7454578de&oe=5B7D8520";"8:30AM - 8PM";"8:30AM - 8PM";"8:30AM - 8PM";"8:30AM - 8PM";"8:30AM - 8PM";"10AM - 12PM";"Closed";
1174300;"IMAGINATION STATION CHILDCARE CENTER";"519 SUSQUEHANNA BLVD";"HAZLE TOWNSHIP";"PA";18202;"Luzerne";5704974764;;"imagination.station.190@gmail.com";"We are a locally owned daycare providing care for children ages 6 weeks to 12 years also providing transportation to Maple Manor, ELC and Valley Elementary";;"https://www.facebook.com/imaginationstationchildcarecenter/";;;;"x";"x";"x";"x";;;"https://scontent.fskp2-1.fna.fbcdn.net/v/t1.0-9/15965110_1912311862386451_1415182474712272109_n.jpg?_nc_cat=0&oh=e31ff9795c4c3d47416890d43047e664&oe=5B959B39";"6AM - 6PM";"6AM - 6PM";"6AM - 6PM";"6AM - 6PM";"6AM - 6PM";"Closed";"Closed";
1174302;"MMR JR PREP LLC";"3139 MEMORIAL HWY";"DALLAS";"PA";18612;"LUZERNE";5702554163;"http://www.themeadowsdallas.com/";"mmrjrprep@gmail.com";"M.M.R. Jr. Prep is dedicated to creating an exciting and stimulating day care atmosphere for your child. We provide high quality childcare as well as a learning setting to prepare your child not only for kindergarten but the rest of their life. We maintain a safe, secure, and healthy environment along with offering activities/schedules to meet the needs of each individual child and help them gain their independence";"http://www.themeadowsdallas.com/mmr-jr-prep-day-care/";;"http://www.themeadowsdallas.com/nursing-home-employment/";;;;"x";"x";"x";"x";"x";"http://www.themeadowsdallas.com/wp-content/uploads/2017/01/logo.jpg";;;;;;;;
1174305;"ONCE UPON A TIME EARLY LEARNING CTR";"925 Henderson Ave";"CANONSBURG";"PA";15301;"WASHINGTON";7242226180;"http://www.ridethedragonbus.com/";"office@ridethedragonbus.com";"Once Upon A Time offers quality care to children ages 2 weeks - 12 years. The program is certified through the Pennsylvania Department of Public Welfare, licensed by the Pennsylvania Department of Education, and STAR FOUR designated by the Office of Child Development Keystone STARS program. We are housed in a facility designed specifically for young children, fully renovated in 2007.";"http://www.ridethedragonbus.com/";;;"http://www.ridethedragonbus.com/tuition.html";;"x";"x";"x";"x";;;;"6AM - 6:30PM";"6AM - 6:30PM";"6AM - 6:30PM";"6AM - 6:30PM";"6AM - 6:30PM";"Closed";"Closed";
1174306;"MUNCHKINLAND LEARNING AND DAYCARE CENTER LLC";"448 B MIDDLE ST";"BROWNSVILLE";"PA";15417;"FAYETTE";"724-912-9124";;;"Munchkinland Learning and Daycare Center,Llc . We accept children ages 6 weeks-12 years old.";;"https://www.facebook.com/Munchkinland-Learning-and-Daycare-Center-LLC-667267119991271/";;;;"x";"x";"x";"x";;;;"6AM - 6PM";"6AM - 6PM";"6AM - 6PM";"6AM - 6PM";"6AM - 6PM";"Closed";"Closed";
1174308;"Green Trees Early Learning Center, Inc.";"102 STATE ROUTE 2001";"MILFORD";"PA";18337;"PIKE";5702969404;"https://www.greentreeselc.com/";"Director@GreenTreesELC.com";"Green Trees Early Learning Center, Inc., Pike County's oldest licensed day care center, is an independent, non-denominational, nonprofit center for early childhood education.";"https://www.greentreeselc.com/contact.html";"https://www.facebook.com/GreenTreesELC/";"https://www.greentreeselc.com/employment-opportunities.html";;"https://www.greentreeselc.com/rate-schedule.html";"x";"x";"x";"x";;;"https://www.greentreeselc.com/files/Logo%20Header-01%20(2).png";"6:30AM - 6PM";"6:30AM - 6PM";"6:30AM - 6PM";"6:30AM - 6PM";"6:30AM - 6PM";"Closed";"Closed";"Formerly Known as Good Shepherd Child Care Center, Inc"
1174309;"KINDERHAUS MONTESSORI OF PA";"117 MILFORD HILL LN";"MILFORD";"PA";18337;"PIKE";"570-296-6906";"http://www.kinderhausmontessoriofpa.com/";"montecoop@yahoo.com";"Kinderhaus Montessori of PA Preschool offers a unique environment that encourages children to become lifelong learners.";"http://www.kinderhausmontessoriofpa.com/";"https://www.facebook.com/Kinderhaus-Montessori-of-PA-289776267838154/";;;"http://www.kinderhausmontessoriofpa.com/for-parents/";;;"x";"x";;;"http://static1.squarespace.com/static/55c520a4e4b03f3ef2e10c8a/t/57ab65e459cc68ea5de4c9b7/1503493180522/?format=1500w";"9AM - 2:30PM";"9AM - 2:30PM";"9AM - 2:30PM";"9AM - 2:30PM";"9AM - 2:30PM";"Closed";"Closed";
1174313;"Leap Frog Learning and Daycare Center LLC";"45 FROG LN";"PUNXSUTAWNEY";"PA";15767;"JEFFERSON";8142497107;"http://leapfrogcenter.com/";"melissablose6@yahoo.com";"http://leapfrogcenter.com/templates/rt_interstellar/custom/images/logo/Leap-Frog-Learning-and-Daycare-Center.png";"http://leapfrogcenter.com/";"https://www.facebook.com/leapfroglearning/";;"http://leapfrogcenter.com/index.php/resources/forms-literature";"http://leapfrogcenter.com/index.php/resources/forms-literature";"x";"x";"x";"x";;;"http://leapfrogcenter.com/templates/rt_interstellar/custom/images/logo/Leap-Frog-Learning-and-Daycare-Center.png";"6:30AM - 5:30PM";"6:30AM - 5:30PM";"6:30AM - 5:30PM";"6:30AM - 5:30PM";"6:30AM - 5:30PM";"Closed";"Closed";
1174315;"EARLY BIRD DAY SCHOOL";"2853 NAZARETH RD";"EASTON";"PA";18045;"NORTHAMPTON";"610-438-1706";"http://www.earlybirddayschool.com/";"earlybirddayschool@gmail.com";"Early Bird Day School provides safe, affordable, high quality child care to benefit the child and parents. We cater to children from 6 weeks to 5 years.";"http://www.earlybirddayschool.com/";"https://www.facebook.com/EarlyBirdDaySchool1/";"http://www.earlybirddayschool.com/employment.html";;;"x";"x";"x";"x";;;;"6:30AM - 6PM";"6:30AM - 6PM";"6:30AM - 6PM";"6:30AM - 6PM";"6:30AM - 6PM";"Closed";"Closed";
1174316;"BANGOR PRE-SCHOOL INC";"420 S 1ST ST";"BANGOR";"PA";18013;"NORTHAMPTON";6105883333;"http://bangorchildcare.com/";"bangorchildcare@yahoo.com";"We believe in building childhood foundations. We do this by promoting positive attitudes for future school success. We offer childhood learning which emphasizes literacy, mathematics, critical thinking, and social interaction.";"http://bangorchildcare.com/our-facilities/";"https://www.facebook.com/BangorChildcare/";;;"http://bangorchildcare.com/blog/";"x";"x";"x";"x";;;"https://scontent.fskp2-1.fna.fbcdn.net/v/t1.0-1/13938624_548302665349443_8560673731297203908_n.png?_nc_cat=0&oh=d1b3c3503781a8e3c16d1818950c2eb4&oe=5B92E354";;;;;;;;
1174317;"ACTIVE LEARNING CENTERS PALMER";"3601 NAZARETH RD";"EASTON";"PA";18045;"NORTHAMPTON";6108291818;"http://www.alcchildcare.com/";"mpalmer@alcchildcare.com";"Our one-of-a-kind philosophy, honed over more than two decades in business, has given a great start to thousands of children in the Easton, PA area and its surroundings. Professional, active, and well-managed, we’d love to tell you more about how we can offer your family the best in child care in our area.";"http://www.alcchildcare.com/our-locations/palmer/";"https://www.facebook.com/ALCChildcare/";"http://www.alcchildcare.com/careers/";;;"x";"x";"x";"x";"x";"x";"http://www.alcchildcare.com/wp-content/uploads/2018/02/alc-logo.png";"6:30AM - 7PM";"6:30AM - 7PM";"6:30AM - 7PM";"6:30AM - 7PM";"6:30AM - 7PM";"Closed";"Closed";
1174319;"NAZARETH YMCA SACC PROGRAM";"33 S MAIN ST";"NAZARETH";"PA";18064;"NORTHAMPTON";6107593440;"http://www.gv-ymca.org/";;"Membership in the Y is a special thing. Be a part of a leading nonprofit organization for youth development, healthy living and social responsibility.";"http://www.gv-ymca.org/branches/nazareth/";;;;;;;;;"x";"x";"http://www.gv-ymca.org/wp-content/uploads/2013/08/logo.png";"5AM - 9PM";"5AM - 9PM";"5AM - 9PM";"5AM - 9PM";"5AM - 9PM";"8AM - 6PM";"12PM - 6PM";
1174318;"GREENWAY CREATIVE LEARNING CTR EAST LLC";"3508 GREENWAY ST";"EASTON";"PA";18045;"NORTHAMPTON";6108292729;"http://www.greenwayclc.com/";"gwyclceast@gmail.com";"GREENWAY Easton serves the Palmer Twp Elementary School, nearby St. Luke's Anderson Campus, Easton Hospital, Northampton County Courthouse as well as Palmer Township and is located just off of Freemansburg Ave at Mine Lane Road in the Old Orchard/Stone's Crossing area of Palmer Township.  ";"http://www.greenwayclc.com/Two-Locations.html";;;"http://www.greenwayclc.com/Programs---Enrollment.html";"https://docs.google.com/document/d/1pR1SiK39XPSEQm-hroQ43Pzaf81y7_fzsFUazFq1k24/edit";"x";"x";"x";"x";"x";;"http://www.greenwayclc.com/bg-1-141461.jpeg?u=2229441001";"6:30AM - 6PM";"6:30AM - 6PM";"6:30AM - 6PM";"6:30AM - 6PM";"6:30AM - 6PM";"Closed";"Closed";
1174321;"OUR LITTLE SCHOOL HOUSE INC";"338 DELAWARE AVE";"PALMERTON";"PA";18071;"CARBON";6105775047;;"ourlittleschoolhouse@yahoo.com";"Our goal is to provide a clean, safe, caring, loving environment in which children can grow and thrive. We strive to create a feeling of responsibility for actions and statements, and caring for others, in each child.";;"https://www.facebook.com/Our-Little-School-House-Inc-169996169772658/";;;;"x";"x";"x";;;;"https://scontent.fskp2-1.fna.fbcdn.net/v/t1.0-9/11751450_711149845657285_3962246861805655897_n.jpg?_nc_cat=0&oh=a7ae0f2f437420442eebb9d74948f6d7&oe=5B89E5A2";"5:30AM - 6PM";"5:30AM - 6PM";"5:30AM - 6PM";"5:30AM - 6PM";"5:30AM - 6PM";"Closed";"Closed";
1174322;"APPLE TREE CHRISTIAN DAY SCHOOL";"FROSTY MOUNTAIN PLZ";"ALBRIGHTSVILLE";"PA";18210;"CARBON";5707222000;;;;;;;;;;;;;;;;;;;;;;;
1174328;"ENDLESS MOUNTAIN LEARNING CENTER INC";"498 S MAIN ST";"MONTROSE";"PA";18801;"SUSQUEHANNA";5702784088;"http://www.emlcinc.com/";;"One of the things that makes our facility different is that we understand that for many parents choosing a quality day care facility for their child can be a difficult and at times very stressful task to take on and we want you to know that we are here to help";"http://www.emlcinc.com/montrose.html";;"http://www.emlcinc.com/careers.html";;;"x";"x";"x";"x";"x";"x";"http://www.emlcinc.com/uploads/2/4/6/7/24676648/5425942.png";"7AM - 6PM";"7AM - 6PM";"7AM - 6PM";"7AM - 6PM";"7AM - 6PM";"Closed";"Closed";
1174438;"Play Learn Grow";"15 E Parkside Terr";"Barre City";"VT";5641;"Washington";"(802)622-0050";;"elizasevery4@gmail.com";"*";;;;;;;;;;;;;;;;;;;;
1174440;"Bliss, Jennifer";"239 Beckley Hill Road";"Barre Town";"VT";5641;"Washington";"(802)793-0586";;"jpenny327@gmail.com";"I strive to provide a safe and nurturing environment for children to learn and grow. My daily schedule is posted upon entrance of my home. I participate in the food program and offer breakfast, lunch and snack. We spend lots of time outside as long as weather is appropriate. Daily Schedule: Open 7am Breakfast 8:00(Or before for school aged children) 9-9:30 diapers 9-11Free play/outdoor play/arts&crafts 11:00 diapers 11:30 Lunch 12-2 Nap/ quiet time 2-3:00 Diapers upon waking and then pm snack 3-5 free play/outdoor play/arts &crafts 4:30-5 Diapers 5:00 close (may switch closing to 5:30 depending on need of families)";;;;;;;;;;;;;;;;;;;;
1174441;"Kimberley, Jolin";"327 Hill Street";"Barre Town";"VT";5641;"Washington";"(802)461-6730";;"hastingsjojo@gmail.com";"4: Caregiver has read #4. Caregiver will comply with the requirements of this question. 5: Caregiver has read #5. Caregiver will comply with the requirements of this question. Children will have the opportunity to play freely so that caregiver is in compliance. 7:15-8:00 Arrival and Breakfast 10 to 15 min Circle Time/Music and Movement Bathroom time 8:??-9:00 Free Choice Time 9:30-9:45 Snack Bathroom time 10:00-10:30 Structured Learning Time and Art Time Bathroom time 11:00-11:30 Outside Time (weather permitting) 11:35-12:00 Lunch Time Bathroom time 12:30-2:30 Rest Time/or Departure Bathroom time 2:50-3:00 Snack Time 3:00-3:30 Outside Time Or Additional Activities 4:00 Departure";;;;;;;;;;;;;;;;;;;;
1174449;"Horizon Early Learning Program, LLC";"16 Bradley Ave";"Brattleboro";"VT";5301;"WINDHAM";"(802)257-1757";;"horizinnlearning@gmail.com";"We are a multi-age, mixed-group, play-based center. Children are successfully supported for their transitions to public/private kindergarten with a variety learning based on children's emerging interested and needs. We have a large paly yard and are also within walking distance of the retreat hiking trails & downtown Brattleboro where we would visit things like the library.";;;;;;;;;;;;;;;;;;;;
1174445;"Seed Sprout Bloom Childcare";"1075 Airport Road";"Berlin";"VT";5602;"Washington";"(802)223-5273";;"seedsproutbloom@gmail.com";"Our Program focuses on the emotional and social development of the child. This is a crucial, fundamental building block for children. The preschool group experience offers a tremendous opportunity for little ones to interact with each other while simultaneously learning about themselves. It is a wonderful environment in which to build self-esteem and offers them experiences that they can then take home and share with the family. The developmentally appropriate, hands-on activities expose the children to the following skills: 1. Pre-math 4. Fine motor skills 2. Pre-reading 5. Small & Large muscle development 3. Pre-writing 6. Language Development";;;;;;;;;;;;;;;;;;;;
1174447;"Bradford Elementary School After School Program";"Bradford Elementary School";"Bradford";"VT";5033;"ORANGE";"(802)222-4077";"http://www.bradfordareaschools.org/";"maldrich@beschool.org";"Our afterschool program is an extension of the school day. We offer recess, a healthy snack and a reading block each day. Additionally, we have opportunities for crafts, games and plenty of outdoor activities.";"https://yourymca.org/programs/afterschool-care/";;;;;;;"x";"x";"x";;;;;;;;;;
1174448;"Hayes, Brittany";"4 Goldspink Avenue";"Brandon";"VT";5733;"RUTLAND";"(802)282-6872";;"brittbritt8347@gmail.com";"From 7am-8am we will have free choices, free play time. 8-8:30 will be breakfast time and I will provide breakfast for children depending on drop off times. I will ensure that every child is fed if need be. After this the children will go back to free choices. 9-10:30 I will have a daily project for the day and skill work for the older children. I will do as many educational things as I can and will have weekly themes. I will do name practice with my preschoolers, shapes and colors, numbers and letters, etc. This is the time that I will do this. 10:30-10:45 we will have our morning snack. 10:45-11 this is the time that I will get the children ready to go outside or do a gross-motor activity inside. 11-12:20 Outside time or gross motor play!! 12:30-1 Lunch time. 1-3 nap time or quiet choices for those that don't nap. 3-5:30 Free play, more outside time, projects. Whatever the day brings!";;;;;;;;;;;;;;;;;;;;
1174451;"ANESU - Bristol";"57 Mountain Street";"Bristol";"VT";5443;"ADDISON";"(802)453-3227";"http://www.besvt.org/";"mchesleypark@anesu.org";"We are a K-6 school in the village of Bristol, VT, and part of the Addison Northeast Supervisory Union (ANESU).";"http://www.besvt.org/";"https://www.facebook.com/BristolBobcats/";;;"https://docs.google.com/document/d/1Z3RBDjCYRoDqL0u3rPtYi_Z5cQHbHdu1WhoxP1ntpA0/edit";;;"x";"x";"x";;"http://www.google.com/a/cpanel/besvt.org/images/logo.gif?service=google_default";"7:45AM - 2:55PM";"7:45AM - 2:55PM";"7:45AM - 2:55PM";"7:45AM - 2:55PM";"7:45AM - 2:55PM";"Closed";"Closed";
1174452;"Marcelle, Nicole";"2012 Hardscrabble Rd";"Bristol";"VT";5443;"ADDISON";"(802)752-9878";;"nmarcelle85@yahoo.com";"I offer play and learning based. We have learning projects, circle time and activity time but also outside time in the am and pm as to get their energy out, as long as weather permitted.";;;;;;;;;;;;;;;;;;;;
1174453;"Davis, Amber";"1632 Bugbee Crossing";"Burke";"VT";5871;"Caledonia";"802-535-2989";;"amshatney@yahoo.com";"A Step Above Child Care is a registered, home based, child care,free play in the am, 10ish-projects/outdoor play, lunch 12, down time, reading, naps, etc. outdoor/free play, snack at 3, free play";;"https://www.facebook.com/A-Step-Above-Child-Care-356491878072332/";;;;;;;;;;;;;;;;;;
1174455;"Amir, Lul";"22 Franklin Square";"Burlington";"VT";5408;"CHITTENDEN";"(802)489-0528";;"bak.musa@hotmail.com";;;;;;;;;;;;;;;;;;;;;
1174462;"McGee, Margaret";"73 Lathe Street";"Derby";"VT";5830;"ORLEANS";"(802)766-2566";;"kmgvnana@gmail.com";"I have a daily schedule that will include circle time, free play, outdoor play and arts and crafts. Rest time will be offered at a specific time. Every child will have their own mat upon which to rest. Children who do not want to rest may engage in quiet activities. Children will be supervised at all times.";;;;;;;;;;;;;;;;;;;;
1174463;"Slade, Billie";"565 Green Mt Camp Rd";"Dummerston";"VT";5301;"Windham";"(414)333-4163";"http://www.greenmountainteacherscamp.com/";" greenmtteacherscamp@gmail.com";"GMC nurtures friendships, creates memories, and strengthens confidence while empowering girls to believe in themselves and their ability to make a difference in the world! Nestled in the hills of Vermont, GMC provides a timeless setting for girls to play and learn while building appreciation of each other and the land around them";"http://www.greenmountainteacherscamp.com/";"https://www.facebook.com/Green-Mountain-Camp-for-Girls-52992383693/";;"http://www.greenmountainteacherscamp.com/registration";;;;;;;;;;;;;;;;
1174465;"Charron, Kristi";"1404 West Hill Rd";"Enosburg";"VT";5450;"Franklin";"(802)370-4357";;"kristi.charron@yahoo.com";;;;;;;;;;;;;;;;;;;;;
1174466;"Luther, Cailyn";"997 Greene Rd";"Fair Haven";"VT";5743;"RUTLAND";"(802)345-5292";"http://fhgs.arsu.org/home/forms-resources-for-parents/fhgs-daycare-information";"luthercailyn@gmail.com";"Daily schedule provided with contract. Very structured schedule to help kids with transitioning. Art,circle, outdoor play, music and movement every day.";;;;;;;;;;;;;;;;;;;;
1174470;"Hamilton, Beverly";"3013 Pikes Falls Road";"Jamaica";"VT";5343;"WINDHAM";"(802)874-4250";;"Kayehamilton64@yahoo.com";"I am a registered in home childcare provider. I recently opened in August. I worked for Stratton Childcare for 1 year before opening my own childcare. I can care for 6 children per day. I am open Monday-Friday, 7:30 to 5:00. I also keep children at night and on weekends by appointment. I am pediatric certified in AED, First Aid and CPR. I keep resort guests at my childcare center as well as local children. I also keep children in their homes while parents are out dining, skiing, shopping, etc. I am located 5 miles from Stratton Mountain Ski Resort in Jamaica.";;;;;;;;;;;;;"7:30AM - 5PM";"7:30AM - 5PM";"7:30AM - 5PM";"7:30AM - 5PM";"7:30AM - 5PM";"Closed";"Closed";
1174471;"Underhill I.D";"10 River rd";"Jericho";"VT";5465;"CHITTENDEN";"(802)899-4680";"https://underhillid.cesuvt.org/";"uidoffice@cesuvt.org";"Underhill ID Elementary School is a warm and welcoming PK-4 school nestled in the valley of Mount Mansfield where we take advantage of open fields and a local park for play and exploration. We are a small school of approximately 105 students. Our small size fosters a homey environment and strong sense of community where all of the children and staff know of and care for each other. We follow the practices of Responsive Classroom to develop strong social, emotional and academic growth among our students. We are fortunate to have engaged families and an active and supportive PTO who take part in our many school traditions such as a fall hike, holiday adopt-a-family project and plantings at our neighboring community garden.";"https://underhillid.cesuvt.org/";"https://www.facebook.com/Underhill-ID-School-182405058563939/";;"https://www.cesuvt.org/parents/registration";"https://docs.google.com/document/d/16yJM9yFlpFMRHUZjn-JOHCbzAmgdZF5rLa67Gdhnq8k/edit?ts=599b1959";;;"x";"x";"x";;"https://underhillid.cesuvt.org/uploaded/themes/build_2016/images/UIDlogo74x74.svg";"7:50AM - 2:35PM";"7:50AM - 2:35PM";"7:50AM - 2:35PM";"7:50AM - 2:35PM";"7:50AM - 2:35PM";"Closed";"Closed";
1174472;"Cook, Nicole";"7 Kali Lane #4";"Johnson";"VT";5656;"LAMOILLE";"(802)279-0085";;"nickypicky30@yahoo.com";"I am in hopes of starting to work with the food program. the children will have free time to explore on their own to start the day. Breakfast at 7 school drop off at 730, yoga or a nature walk at 815, free time again every other day and then exercising the other days, 10 is snack time! Then off to play outside weather permitting, if we need to stay inside we will work on counting and the alphabet, lunch is at 12, nap or rest time from 1-230, school pick up at 245, snack at 315, then back outside to learn about trees and different plants, supper is at 6 if there are children needing to stay, 630-8pm (closing)movie time and quiet play time.";;;;;;;;;;;;;;;;;;;;
1174473;"Wiley, Jacqueline";"3198 Rte 100";"Londonderry";"VT";5155;"WINDHAM";"(802)824-5282";;"jacquelinewiley2@gmail.com";"children arriving before 9:00am - free play 9:00 - books for the week or season - songs 10:00 snack - outdoor play as weather permits 12:00 lunch 1:00 nap - 2:30 free play - coloring, songs, books to closing possible outdoor play";;;;;;;;;;;;;;;;;;;;
1174474;"Switser, Meghan";"73 Wilson Circle";"Lyndon";"VT";5851;"Caledonia";"(802)473-6709";;"auntiems84@gmail.com";;;;;;;;;;;;;;;;;;;;;
1174477;"Bickford, Ashley";"385 Vail Drive";"Lyndon";"VT";5851;"Caledonia";"(802)427-3530";;"ashley.l.bickford@gmail.com";"I will do activities each day to help children learn in fun ways. We will do developmentally appropriate activities for each child based on their age and learning ability. All of the activities will be opened ended and based on each child's interests. I will open at 7:00 am and close at 5:30 pm. Throughout the day I will feed 3 meals; breakfast, lunch and a pm snack. We will play outside at least once a day or more depending on weather and the children's needs. Our schedule will be flexible throughout the day to fit each child's needs.";;;;;;;;;;;;;;;;;;;;
1174478;"Mobbs, Sandra";"27 Kim Lane";"Milton";"VT";5465;"CHITTENDEN";"(802)233-1277";;"smobbs092201@yahoo.com";"We are play based and learn through play. Children are taught their letters and numbers and colors and etc but it's through play. We do art activities and creative play.";;;;;;;;;;;;;;;;;;;;
1174479;"Fogg, Carolyn";"545 Monkton Rd";"Monkton";"VT";5469;"Addison";"(802)377-5326";;"cfogg1979@gmail.com";"It's important to me that kids of all age groups are engaged. They are encouraged to explore and learn through free play and in a structured setting. Giving kids some responsibility is also important. They will get this by helping do things like set the table, pick up toys, line leader, etc";;;;;;;;;;;;;;;;;;;;
1174486;"The Big Red Barn Daycare";"2649 Laporte Rd";"Morrisville";"VT";5661;"LAMOILLE";"(802)760-9771";;"thebigredbarnvt@gmail.com";"The Big Red Barn Daycare is a Licensed In-Home Daycare for a small number of children located in Morrisville, Vermont.";;"https://www.facebook.com/thebigredbarndaycarevt/";;;;;;;;;;"https://scontent.fskp2-1.fna.fbcdn.net/v/t1.0-1/p200x200/12112275_397680807098148_1985883077590479435_n.jpg?_nc_cat=0&oh=1e1e343d69f374de323db516e4468e45&oe=5B87512F";"8AM - 5PM";"8AM - 5PM";"8AM - 5PM";"8AM - 5PM";"8AM - 5PM";"Closed";"Closed";
1174487;"Bright Beginnings Children's Center";"2284 US Rte 302";"Newbury";"VT";5081;"ORANGE";"(802)429-2131";;"jj_0719@yahoo.com";;;"https://www.facebook.com/Bright-Beginnings-Childrens-Center-562519357206693/";;;;;;;;;;"https://scontent.fskp2-1.fna.fbcdn.net/v/t1.0-1/p200x200/13626562_570781563047139_6121491487395751661_n.jpg?_nc_cat=0&oh=2235eb79a30e43df74e05cb4cf4acbfa&oe=5B795029";;;;;;;;
1174488;"Town of Newbury After School Program";"214 Palaski Street";"Newbury";"VT";5051;"ORANGE";"(802)866-5621";"http://www.nesvt.org/";;"Newbury Elementary School is located on the Newbury Village Common in the lovely Cohase region of Vermont along the Connecticut River. Our talented staff is dedicated to a humanistic approach to teaching and learning. We view ourselves as a community of learners and our teachers see themselves as active participants in the learning process.";"http://www.nesvt.org/";;;;"https://docs.google.com/document/d/1osc8tuxSNVeZLArTM9v9qcdJuDk8kMxzS_-SkkWCssw/edit";;;"x";"x";;;"http://www.nesvt.org/uploads/2/6/4/9/26493068/published/checkerberrylowres.jpeg?1487445562";"7:45AM - 2:40PM";"7:45AM - 2:40PM";"7:45AM - 2:40PM";"7:45AM - 2:40PM";"7:45AM - 2:40PM";"Closed";"Closed";
1174489;"Newport Town School Early Education Program";"4212 Rte. 105";"Newport";"VT";5857;"ORLEANS";"(802)334-5201";"https://nts.ncsuvt.org/";"karla.graham@ncsuvt.org";"Our vision is to educate and empower all students to be life long learners, productive citizens, effective communicators, problem solvers, and creative and critical thinkers.";"https://nts.ncsuvt.org/";"https://www.facebook.com/NewportTownSchool/";;;"https://drive.google.com/file/d/0B2eakUGktHMxN1lEYXlFdDJxVnc/view";;;"x";"x";;;"https://scontent.fskp2-1.fna.fbcdn.net/v/t1.0-9/12118641_406107492913249_4226522942174491094_n.jpg?_nc_cat=0&oh=1f329bc0d5e1f42e651692b866e9f5b2&oe=5B7D3298";"7:30AM - 2:45PM";"7:30AM - 2:45PM";"7:30AM - 2:45PM";"7:30AM - 2:45PM";"7:30AM - 2:45PM";"Closed";"Closed";
1174491;"Mandigo, Constance";"135 Pleasant Street";"Newport";"VT";5855;"ORLEANS";"(802)673-5107";;"Ittakesavillagechildcare@yahoo.com";"I will be participating in the Food Program once Registered and am interested in Head Start. Daily Schedule / Routines - This is only a guide and will vary based on age, need, outings, etc. I LOVE routines, however each day is a different combination of kids with different ages, skills, likes, dislikes and personalities, making a very structured day impossible. Activities are usually based on a weekly or bi-weekly theme and vary, to allow different age groups to participate. I have included a schedule of what an average day may look like. 6:00-8:00 Welcome, breakfast and free play 8:00 Wash up, diapering, toileting, brush teeth 8:30 Music and dance time 9:45 Calendar and circle time 10:15 / 10:30 Snack 10:30-12:00 Toddler curriculum, Pre-K centers/ Pre-K curriculum, Toddler centers 12:00-2:30 Lunch and Quiet time 2:30-4:00 Outdoor time (weather permitting) 4:00-4:30 Snack 4:30-6:00 Free choice";;;;;;;;;;;;;;;;;;;;
1174492;"Burroughs, Kathleen";"646 Turkey Hill Road";"Northfield";"VT";5663;"WASHINGTON";"(802)272-6750";;"naturalwonders@trans-video.net";"Natural Wonders Childcare is a nature-based program and we spend a lot of time outdoors. I want children to explore their natural environment in a safe yet unstructured way. We take nature walks in the woods, field, do gardening, explore in my fairy garden, and take care of my two sheep, two goats, and chickens into our daily routine. The children love feeding the animals and collecting the eggs! I run my program as a center within a home environment. We have weekly themes, art projects, circle-time activities consisting of singing, puppets, finger plays, stories, yoga, etc. As children get older, we incorporate shapes, colors, numbers, letters, etc. into the curriculum.";;;;;;;;;;;;;;;;;;;;
1174493;"Orwell Early Education Program";"494 Main St";"Orwell";"VT";5760;"ADDISON";"(802)948-2871";"http://orwell.arsu.org/";"eleenman@arsu.org";"We are a quaint PreK-8 public school reflecting the serenity of a classic Vermont hamlet and fostering mutual support for people of all ages. Orwell Village School is the centerpiece of our community and prides itself on being small and intimate; a setting where teachers, staff, and administration truly do respect the importance of educating the whole child: academically, socially, and emotionally.";"http://orwell.arsu.org/";"https://www.facebook.com/OrwellVillage/";;;"https://docs.google.com/document/d/1GReoMTjOK_NKKJ8Q_vnbhTG32ioRYYhe6vb2CE8epFY/edit?usp=sharing";;;"x";"x";;;"http://orwell.arsu.org/wp-content/uploads/Website_Normal-Logo.png";"7:30AM - 3:25PM";"7:30AM - 3:25PM";"7:30AM - 3:25PM";"7:30AM - 3:25PM";"7:30AM - 3:25PM";"Closed";"Closed";
1174494;"LaFond, Carrie";"193 York St Extension";"Poultney";"VT";5764;"RUTLAND";"(802)770-0598";;;"Vermont state registered home daycare and preschool. I incorporate preschool curriculum into our daily activities to prepare the older children for school. I will concentrate on different themes. Many of our activities will revolve around the theme (stories, crafts, music, games, puzzles, etc.).As part of this curriculum we have a daily ""circle time"" for the older children. The younger children are free to sit in, just observe, or to free play. During circle time we discuss something relating to our unit, talk about the days of the week (put numbers on a calendar) and the weather for the day. Activities that promote the children's social/emotional growth and development will occur daily.";;"https://www.facebook.com/misscarriesdaycarevt/";;;;"x";"x";"x";;;;"https://scontent.fskp2-1.fna.fbcdn.net/v/t1.0-1/c0.0.200.200/p200x200/13615465_665097093648211_4755264950220264602_n.jpg?_nc_cat=0&oh=45f387413b98a37f353175e75cf5fdbd&oe=5B85CD0F";;;;;;;;
1174495;"Katie's Educational Center";"197 York Street";"Poultney";"VT";5764;"RUTLAND";"(802)287-1404";;"katiescenter@gmail.com";"Katie’s Educational Center promises to provide a safe, affordable, and educational experience for children from infants to school aged. At Katie’s Educational Center, children, parents and teachers work together on developing an individual curriculum that will provide kindergarten readiness based on each family’s personal concentration. This provides an empowering and an engaging learning environment for children. Katie’s Educational Center knows how important it is to set children up with a passion for lifelong learning.";;"https://www.facebook.com/katiescenter/";;;;"x";"x";"x";"x";;;"https://scontent.fskp2-1.fna.fbcdn.net/v/t1.0-9/10173666_261443097396501_8615107027171734488_n.jpg?_nc_cat=0&oh=c0e0a50781ec7a2389345c834b5fffbd&oe=5B7D674B";;;;;;;;
1174496;"Rochester Afterschool Program";"222 S Main Street";"Rochester";"VT";5767;"WINDSOR";"(802)747-3161";"https://www.rochesterschoolvt.org/";"jturk@wrvsu.org";"Rochester School will provide students with the opportunity to discover, inquire, and develop the skills necessary to pursue lifelong learning in an ever-changing, environmentally and globally-aware society.";"http://rochesterafterschool.blogspot.mk/";"https://www.facebook.com/Rochester-K-12-School-VT-930432030418929/";;;"http://www.rochesterschoolvt.org/wp-content/uploads/2016/09/Handbook-Rochester-2017-2018-2.pdf";;;"x";"x";;;"https://www.rochesterschoolvt.org/wp-content/uploads/2016/09/logo4.png";"7:25AM - 2:25PM";"7:25AM - 2:25PM";"7:25AM - 2:25PM";"7:25AM - 2:25PM";"7:25AM - 2:25PM";"Closed";"Closed";
1174499;"Rekaroos Childcare LLC";"41 East Center Street";"Rutland";"VT";5701;"RUTLAND";"(802)558-3687";;"sunflowergirltrh@gmail.com";"Our mission at Rekaroo's Childcare is to provide the best and most convenient family focused childcare for infants to school age children in the City of Rutland year round. Rekaroo's Childcare is dedicated to being ""family focused."" In doing so our mission is to make sure that our families feel respected and appreciated, that we have a good relationship with any family member with whom we come in contact with, and that our environment offers a sense of family in our activities as well as our presentation. Our goal is to work with families and their unique schedules to provide childcare for all of the children in their family. With longer hours and childcare for all of the children in their family, we provide childcare that fulfills all of the family's childcare needs. We strive to have an environment that is homey and private with a commercial appearance. With clean industry standard equipment and materials and staff members that welcome you and your children like you are family we hope to have children in our facility until their families no longer need childcare. Rekaroo's Childcare was established to offer parents a childcare facility that provides safe, caring, educational and wholesome childcare for the entire family. Our promise to parents is to care for their little ones like they are our own.";;"https://www.facebook.com/rekarooschildcarevt/";;;;;"x";"x";"x";;;"https://scontent.fskp2-1.fna.fbcdn.net/v/t1.0-1/c7.0.200.200/p200x200/26112461_332699863881375_7804625075603433069_n.jpg?_nc_cat=0&oh=090c26049970ae973130d3505aefaecc&oe=5B86FCE6";"7AM - 6PM";"7AM - 6PM";"7AM - 6PM";"7AM - 6PM";"7AM - 6PM";"Closed";"Closed";
1174500;"NeverLand LLC";"297 Barrett Hill Rd";"Rutland";"VT";5736;"RUTLAND";"(802)772-7528";;"neverlandchildcare2017@gmail.com";"Our program is open Monday thru Friday from 7:00 a.m until 5:30 p.m. We care for children ages 6 weeks thru 12 years old. We are on the bus route for Rutland Northwest School. Currently we have 2 STARS. We use the Mother Goose time curriculum from September to May each year.";;"https://www.facebook.com/Neverland-Childcare-Center-1814454538771434/";;;;"x";"x";"x";"x";;;;"7AM - 5:30PM";"7AM - 5:30PM";"7AM - 5:30PM";"7AM - 5:30PM";"7AM - 5:30PM";"Closed";"Closed";
1174503;"Davis Studio, LLC";"916 Shelburne Rd";"South Burlington";"VT";5403;"CHITTENDEN";"(802)425-2700";"https://davisstudiovt.com/";"info@davisstudiovt.com";"Arts Rich & Play-Based: Children are natural artists, scientists and explorers; curious about the world around them. Davis Studio Preschool offers a unique arts-rich, play-based program designed for joyful, authentic, and meaningful experience......Fostering Creativity: Arts-based learning stimulates imagination, encourages active participation, and fosters creativity. Your child will try new things, increase in competence, and gain confidence as they grow and develop......Purposeful Environment: Our space is light-filled and inviting. The classroom is designed to encourage your child's independence, while facilitating and challenging their thinking. Carefully planned centers are provided for developmentally appropriate exploration......Cultivating Curiosity: We support children as inquisitive learners who are deeply curious and capable. Experiences are planned to spark creativity, thinking, and reflecting. Instructors develop emergent curriculum, responding to and encouraging the ever-changing interests of the students. This approach engages your child's sense of wonder about the world and their place within it......Building a Community: Social skill development is of utmost importance during the preschool years. Clear communication, listening and cooperation are modeled, encouraged and supported. Social skills developed during early childhood will sustain and enrich your child throughout their life and support them in developing heart-felt values, such as empathy and respect for one another......Partnering with Parents: We strive to establish strong connections and clear communication with parents in a number of ways including: a parent communication board at the preschool, twice annual parent teacher conferences, regular classroom blog posts, social events and parent workshops, as well as opportunities to include parents in the classroom.";"https://davisstudiovt.com/";"https://www.facebook.com/davisstudio/";;"https://davisstudiovt.com/pages/preschool-enrollment-2017-2018";"https://davisstudiovt.com/pages/forms";;;"x";"x";"x";"x";"https://cdn.shopify.com/s/files/1/0697/7257/t/5/assets/logo.png?8515909848829662042";"8AM - 5PM";"8AM - 5PM";"8AM - 5PM";"8AM - 5PM";"8AM - 5PM";"10AM - 12PM";"8AM - 1PM";
1174507;"Barber, Kristina";"17 Russell Street";"St Albans";"VT";5478;"FRANKLIN";"(802)379-7115";;"littlefawns17@gmail.com";"Scheduled activities are not limited to specific times. Our schedule will remain flexible to allow for each child's needs. The schedule is meant as a guideline and will likely vary to fit the weekly/daily activities. Infants will set his/her own schedule. Time for fine/gross motor, floor play, reading, music, interacting with other children and cuddling will be incorporated daily. Feeding/changing/naps will be based on individual needs. A daily information sheet will be given to parents each day.";;;;;;;;;;;;;;;;;;;;
1174508;"CVOEO - St Albans";"First Congregational Church";"St Albans";"VT";5478;"FRANKLIN";"(802)528-5718";"https://champlainvalleyheadstart.org/";"sovitt@cvoeo.org";"St. Albans Early Learning Center";"https://champlainvalleyheadstart.org/program/st-albans-early-learning-center/";"https://www.facebook.com/champlainvalleyheadstart/";;;;;;"x";"x";;;"https://champlainvalleyheadstart.org/wp-content/uploads/2016/02/CVHS_logo_RGB_no-tag_800trans.png";"8:30AM - 2:30PM";"8:30AM - 2:30PM";"8:30AM - 2:30PM";"8:30AM - 2:30PM";"8:30AM - 2:30PM";"Closed";"Closed";
1174511;"Cahoon, Nicole";"1008 Breezy Hill Rd";"St Johnsbury";"VT";5819;"CALEDONIA";"(603)348-7702";;"nicole_cahoon@yahoo.com";"8:00am-8:30am---Breakfast 8:30am-9:00am---Free Play 9:00am-9:30am---Circle Time (This is where we will practice our numbers, letters, colors, shapes and opposites. We will conclude our ""circle time"" with reading a story) 9:30am-10:15am---Arts and crafts 10:15am-10:30am---Arts and crafts clean up 10:30am-11:15am---Outdoor Play (weather permitting) 11:15am-11:30am---Inside to wash hands and clean up 11:30am-12:00pm---Lunch 12:00pm-12:30pm---Free Play 12:30pm-12:45pm---Story Time 12:45pm-2:30pm---Nap Time 2:30pm-3:00pm---Snack Time 3:00pm-4:00pm---Outdoor Play (weather permitting) 4:00pm-4:15pm---Inside to wash hands and clean up 4:15pm-4:45pm---TV time 4:45pm-5:30pm---Free Play";;;;;;;;;;;;;;;;;;;;
1174512;"Kids of the Kingdom on the Hill";"71 Depot Hill Rd";"St Johnsbury";"VT";5819;"CALEDONIA";"(802)748-0818";;"lytleh@ymail.com";"A licsenced child care center that offers exceptional, quality care for children aged 6 weeks-12 years old, in a home like environment,";;"https://www.facebook.com/kidsofthekingdomonthehill/";;;;"x";"x";"x";"x";;;;;;;;;;;
1174513;"ABC & LOL Child Care Center & Preschool";"1448 Memorial Drive";"St Johnsbury";"VT";5819;"CALEDONIA";"(802)473-2772";;"hhudsonabc@yahoo.com";"We offer exceptional staff,a curriculum that focuses on exploration,creative expression,exciting adventures and endless laughter with love,respect &support";;"https://www.facebook.com/ABC-LOL-Child-Care-Center-340842342601614/";;;;"x";"x";"x";;;;"https://scontent.fskp2-1.fna.fbcdn.net/v/t1.0-1/p200x200/26229732_1749597145059453_1720446005162331403_n.png?_nc_cat=0&oh=a1a4ddcfe69764b7e0a1d7dea99f5862&oe=5BC3E506";"6:30AM - 5:30PM";"6:30AM - 5:30PM";"6:30AM - 5:30PM";"6:30AM - 5:30PM";"6:30AM - 5:30PM";"Closed";"Closed";
1174514;"ANESU- Starksboro";"41 Parsonage Road";"Starksboro";"VT";5487;"ADDISON";"(802)453-2949";"http://www.anesu.org/";;"Professional Learning Communities serving the schools of Bristol, Lincoln, Monkton, New Haven, Starksboro and Mt. Abraham Union Middle/High School";"http://www.anesu.org/school-boards/starksboro-agendas-and-minutes";"https://www.facebook.com/anesuVT";"http://www.anesu.org/human-resources/employment-opportunities";;;;;"x";"x";;;"http://www.anesu.org/_/rsrc/1473961643148/home/ANESU%20Eagle%20Logo.jpg?height=180&width=320";;;;;;;;
1174515;"Stockbridge Afterschool Program";"2933 VT 107";"Stockbridge";"VT";5772;"WINDSOR";"(802)763-3237";"https://stockbridgeschoolvt.us/";"creiboldt@wrvsu.org";"It is the mission of the Stockbridge Central School to provide the opportunities and environment that will enable each child to investigate, master and apply the knowledge, skills, values and behaviors necessary for lifelong learning and meaningful participation in a global society.";"https://stockbridgeschoolvt.us/programs-services/after-school-program/";"https://www.facebook.com/stockbridgecentralschool/";;;"http://wrvsu.org/wp-content/uploads/2014/08/Handbook-17-18.doc.docx";;;"x";"x";;;"https://stockbridgeschoolvt.us/wp-content/uploads/2016/02/School-logo.jpg";"7:45AM - 3:15PM";"7:45AM - 3:15PM";"7:45AM - 3:15PM";"7:45AM - 3:15PM";"7:45AM - 3:15PM";"Closed";"Closed";
1174517;"CVOEO - Swanton";"45 Church Street";"Swanton";"VT";5488;"FRANKLIN";"(802)868-6383";"https://champlainvalleyheadstart.org";"jbenoit@cvoeo.org";"Swanton Early Learning Center";"https://champlainvalleyheadstart.org/program/swanton-early-learning-center/";;;;;;"x";"x";"x";"x";;"https://champlainvalleyheadstart.org/wp-content/uploads/2016/02/CVHS_logo_RGB_no-tag_800trans.png";"8:30AM - 2:30PM";"8:30AM - 2:30PM";"8:30AM - 2:30PM";"8:30AM - 2:30PM";"8:30AM - 2:30PM";"Closed";"Closed";
1174518;"Troy School Early Education Program";"178 Main Street";"Troy";"VT";5859;"ORLEANS";"(802)988-2565";"https://troy.ncsuvt.org/";"denise.grahn@ncsuvt.org";"Our Mission is to provide a safe and positive learning environment where all students reach their highest potential. ";"https://troy.ncsuvt.org/";"https://www.facebook.com/Troy-School-NCSU-121177498071786/";;"https://troy.ncsuvt.org/registration";"https://drive.google.com/file/d/135Frlh8YxLKxj2Aq0odf33ZiDzB9loSY/view";;;"x";"x";;;"https://lh5.googleusercontent.com/b2_JhtCaxyMLDunpKJ9zw1VWWsxUWfO0wkpmDSq9XybEBA0D0M_EYpFu4rmQ8z9bKMWgaZACKdIFRWSXs4ZTnUh--V8P61ZNo_bvT7M5iR2GFofFbe8=w170";"7:35AM - 3:35PM";"7:35AM - 3:35PM";"7:35AM - 3:35PM";"7:35AM - 3:35PM";"7:35AM - 3:35PM";"Closed";"Closed";
1174525;"Wolcott Town School District Preschool";"28 Railroad Street";"Wolcott";"VT";5680;"LAMOILLE";"(802)888-1770";"http://www.wolcottps.org/?DivisionID=17343&DepartmentID=18586&SubDepartmentID=8650&ToggleSideNav=";"bstrong@ossu.org";"Wolcott Public Schools' preschool is an inclusive and interdisciplinary early childhood education program. It offers learning experiences, which foster personal/social, creative, physical, and cognitive development through multi-sensory activities.";"https://wolcott.ossu.org/";"https://www.facebook.com/wolcottps.org/";"http://www.wolcottps.org/?DivisionID=17591";"https://wolcott.ossu.org/resources/forms";;;;"x";"x";;;"http://images.pcmac.org/Websites/WolcottPS/WolcottPS/images/spacer.gif";;;;;;;;
1174521;"World of Discovery, Inc";"7303 Route 131";"Perkinsville";"VT";5151;"Windsor";"(802)795-0079";"https://www.worldofdiscoveryinc.com/";"darci.worldofdiscovery@gmail.com";"Childhood is the foundation for our children’s physical, emotional and psychological health. World of Discovery is an educational community and through parent and staff involvement child-care is an opportunity for children to grow.";"https://www.worldofdiscoveryinc.com/wod-i-perkinsville";"https://www.facebook.com/worldofdiscoveryii";;;"https://docs.wixstatic.com/ugd/cd61f7_7bddce9d6cc64d9cb0e61deb650eda09.pdf";"x";"x";"x";"x";;;"https://scontent.fskp2-1.fna.fbcdn.net/v/t1.0-1/c202.0.173.173/10350621_562613900537607_504658014967955949_n.png?_nc_cat=0&oh=6817a95c68ab90c5cad546af1c66bf5f&oe=5B8EF38F";"7AM - 5:30PM";"7AM - 5:30PM";"7AM - 5:30PM";"7AM - 5:30PM";"7AM - 5:30PM";"Closed";"Closed";
1174524;"Edwards, Anne Marie";"183 Stirrup Circle";"Williston";"VT";5495;"CHITTENDEN";"(802)879-5068";;"sdeame2005@yahoo.com";"AME has a mission, to let child/ren be little, to have fun, to have compassion for others, and to make some really great memories, while in a safe, secure and loving atmosphere.";;"https://www.facebook.com/AMEs-Childrens-Center-920960841360194/";;;;"x";"x";"x";"x";;;;;;;;;;;
1174650;"AFTERSCHOOL ACADEMICS AND ARTS PROGRAM";"123 S. Main Street";"Petal";"MS";39465;"FORREST";"(601) 909-6064";"https://www.asaap.us/";"info@asaap.us";"We are an After School and Summer  Program for  working families, where God comes first and students are able to explore their academic and artistic gifts";"https://www.asaap.us/";"https://www.facebook.com/ASAAP106";"https://www.asaap.us/join-our-team.html";"https://www.asaap.us/new-student-registration.html";"https://www.asaap.us/tuition--fees.html";;;;;"x";"x";"https://www.asaap.us/uploads/8/9/6/1/8961940/1404001235.png";"2PM - 6PM";"2PM - 6PM";"2PM - 6PM";"2PM - 6PM";"2PM - 6PM";"Closed";"Closed";
1174651;"ALL GOD'S CHILDREN";"4927 A Raymond Ave";"Verona";"MS";38879;"Lee";"(662) 566-1799";;;;;;;;;;;;;;;;;;;;;;;"Licence not renewed"
1174652;"ALL STARS LEARNING CENTER";"148 Wesenberger Road";"Madison";"MS";39110;"MADISON";"(601) 500-0210";;;;;;;;;;;;;;;;;;;;;;;
1174653;"ANOINTED WORD LEARNING CENTER";"748 W 4th Street";"Hattiesburg";"MS";39401;"FORREST";"(601) 450-4524";;;;;;;;;;;;;;;;;;;;;;;"License not renewed"
1174655;"AWAKENED ACADEMY-EARLY LEARNING CTR.";"3645 US HWY 80 West, Suite 1315";"Jackson";"MS";39209;"HINDS";"(601) 345-1228";;"awakenedacademy.ms@gmail.com";"Awakened Academy-Early Learning Center is a not-for-profit Preschool Academy opening July 2016. Our corporate mission is to use the best methods in early childhood learning and development to lay the foundation for the production of responsible citizens of our communities.";;"https://www.facebook.com/awakenedms/";;;;"x";"x";"x";"x";;;"https://scontent.fskp2-1.fna.fbcdn.net/v/t1.0-1/p200x200/22365379_1722373867834807_3512689567395711757_n.jpg?_nc_cat=0&oh=73d737c1cb3510996f87e51ab37f1034&oe=5B784461";"6:30AM - 5:30PM";"6:30AM - 5:30PM";"6:30AM - 5:30PM";"6:30AM - 5:30PM";"6:30AM - 5:30PM";"Closed";"Closed";
1174656;"BABY EINSTEIN ACADEMY";"618 Gaines Hwy 61";"Boyle";"MS";38730;"BOLIVAR";"(662) 588-0852";;;;;;;;;;;;;;;;;;;;;;;"License not renewed"
1174657;"BLESSED BEGINNINGS 2";"2460 Terry Road";"Jackson";"MS";39204;"HINDS";"(601) 906-0931";;;;;;;;;;;;;;;;;;;;;;;"License not renewed"
1174658;"BOUNTIFUL BLESSINGS";"511 Wheeler Street";"Itta Bena";"MS";38941;"LEFLORE";"(662) 458-1249";;;;;;;;;;;;;;;;;;;;;;;"License not renewed"
1174659;"BRIGHT BEGINNINGS DAYCARE II";"2204 Portwood St";"Greenwood";"MS";38930;"LEFLORE";"(662) 299-2929";;;;;"https://www.facebook.com/pages/Bright-Beginnings-Daycare/423719631150223";;;;;;;;;;;;;;;;;;
1174660;"BRILLIANT CHILD CARE AND LEARNING CENTER";"4320 W. Railroad Street";"Gulfport";"MS";39501;"HARRISON";"(228) 697-1911";;"brilliantchildcare123@gmail.com";"In home care and preschool";;"https://www.facebook.com/Brilliant-Childcare-and-Learning-Center-586369204881779/";;;;"x";"x";"x";;;;"https://scontent.fskp2-1.fna.fbcdn.net/v/t31.0-8/14976746_586371288214904_3125886583629509638_o.jpg?_nc_cat=0&oh=dc64dc84b6845ca1ddf662f01a7c4b64&oe=5B7C835D";;;;;;;;
1174661;"BUCK-A-ROO LEARNING CENTER";"805 Hoover St";"Indianola";"MS";38751;"SUNFLOWER";"(662) 207-2351";;;;;;;;;;;;;;;;;;;;;;;
1174662;"CHAPEL OF THE CROSS, PDO";"674 Mannsdale Road";"Madison";"MS";39110;"MADISON";"(601) 842-8001";;;;;;;;;;;;;;;;;;;;;;;"License not renewed"
1174664;"CHILDRENS EDUCATION STATION DAYCARE & LEARNING CENTER";"2362 Grove St";"Vicksburg";"MS";39180;"WARREN";"(769) 203-1325";;;;;;;;;;;;;;;;;;;;;;;"License not renewed"
1174665;"CHRIST TABERNACLE CHURCH";"1201 Cooper Road";"Jackson";"MS";39212;"HINDS";"(601) 373-1711";"http://www.christtabernaclechurch.org/";;"Assists our children in experiencing the presence of God in their lives and to learn who Jesus Christ is by the guidance of the Holy Spirit. Through Christian teaching it is building tomorrow’s Christian leaders today in a loving and nurturing environment.";"http://www.christtabernaclechurch.org/ministries";"https://www.facebook.com/pages/Christ%20Tabernacle%20Church/292885417407598/";;;;;;;;;;"http://www.christtabernaclechurch.org/_assets/img/CTC-logo-graphic-2.png";;;;;;;;
1174666;"COAST EPISCOPAL SCHOOL TODDLER PROGRAM";"5065 Espy Avenue";"Long Beach";"MS";39560;"HARRISON";"(228) 452-9126";"http://coastepiscopalschool.org/";"toddlers@myces.org";"We believe that play is the primary occupation of children at this age and that through play, young children learn more about themselves, their peers, and their world in general. During supervised play, children gather information while feelings of fear, anger, and frustration are minimized. Through language, poetry, stories, music, art, and games, we encourage and stimulate our young children to discover and express themselves. ";"http://www.coastepiscopalschool.org/programs/toddlertown.html#.WwPCLDSFMdU";"https://www.facebook.com/CoastEpiscopalSchool";;"http://www.coastepiscopalschool.org/admissions/toddlertowntuition.html";"http://www.coastepiscopalschool.org/admissions/toddlertowntuition.html";;"x";;;;;"https://scontent.fskp2-1.fna.fbcdn.net/v/t1.0-1/c47.0.160.160/527251_324928027570883_1587925436_n.jpg?_nc_cat=0&oh=7ba5e2e37177c899592744865f1da460&oe=5B7EADA1";"8AM - 3PM";"8AM - 3PM";"8AM - 3PM";"8AM - 3PM";"8AM - 3PM";"Closed";"Closed";
1174667;"COI HEAD START/CCC BABY TIGER";"3240 Friars Point RD";"Clarksdale";"MS";38614;"COAHOMA";"(661) 254-3577";"http://www.coahomacc.edu/";"Brittany.d.green@mvsu.edu";"With the yearly expense of childcare exceeding the cost of tuition and fees at many public colleges, Coahoma Community College (CCC) is breaking the mold by providing its campus and community with an affordable, on-campus childcare option.";"http://www.coahomacc.edu/news/News-Articles/Spring-2017/ccc-coahoma-opportunities-offers-convenient-childcare-option-with-baby-tigers-den-";"https://www.facebook.com/CCCTigers";;"http://www.coahomacc.edu/admissions-financial-aid/admissions/registration/index";"http://www.coahomacc.edu/news/News-Articles/Spring-2017/ccc-coahoma-opportunities-offers-convenient-childcare-option-with-baby-tigers-den-#";;;"x";"x";"x";"x";"http://www.coahomacc.edu/Assets/uploads/CoahomaCC/images/nameplate.png";"8AM - 4:30PM";"8AM - 4:30PM";"8AM - 4:30PM";"8AM - 4:30PM";"8AM - 4:30PM";"Closed";"Closed";
1174668;"CREATIVE KIDS ACADEMY";"1531 Raymond Rd.";"Jackson";"MS";39204;"HINDS";"(601) 383-3139";;;;;;;;;;;;;;;;;;;;;;;"License not renewed"
1174669;"CRIBS TO CRAYONS DAYCARE CENTER";"1275 Hambrick Road";"Robinsonville";"MS";38664;"TUNICA";"(662) 363-1044";;;;;;;;;;;;;;;;;;;;;;;"License not renewed"
1174670;"DCCC-YMCA OAK GROVE CENTRAL ELEMENTARY";"893 Oak Grove Road";"Hernando";"MS";38632;"DE SOTO";"(662) 562-2071";"http://oge.desotocountyschools.org/";;"Oak Grove Central Elementary School is dedicated to ensuring world-class academic excellence within a safe learning environment, while providing a variety of exceptional extra-curricular programs that foster the physical, social, and emotional growth of all students.";"http://oge.desotocountyschools.org/?PageName=ParentInfo";;;;"http://images.pcmac.org/SiSFiles/Schools/MS/DeSotoCounty/OakGroveCentralElem/Uploads/Forms/parent_handbook_2016-2017-1.pdf";;;"x";"x";"x";;"http://images.pcmac.org///images/Users/Whitney.Taylor@dcsms.org//OGCE.jpg";"7:25AM - 2:25PM";"7:25AM - 2:25PM";"7:25AM - 2:25PM";"7:25AM - 2:25PM";"7:25AM - 2:25PM";"Closed";"Closed";
1174671;"DOMINICARE LEARNING CENTER";"3780 I-55 North";"Jackson";"MS";39216;"HINDS";"(601) 200-4100";;;;;;;;;;;;;;;;;;;;;;;"License not renewed"
1174672;"DREAM KID DAYCARE";"2957 Bienville Blvd. Suita A";"Ocean Springs";"MS";39564;"JACKSON";"228-875-9494";;;"Dream Kids Daycare is located in the rear of the same retail space occupied by Dreamworks Gymnastics Studio 2957 Hwy 90 Ocean Springs. The two businesses are have the same owners. The main entry to the daycare is found in the rear of the building.";;"https://www.facebook.com/DreamKidsDaycare/";;;;;;;;;;"https://scontent.fskp2-1.fna.fbcdn.net/v/t1.0-1/c52.0.109.109/13407044_1735472346698161_2995866768652284423_n.jpg?_nc_cat=0&oh=597b5702982e01d39e78c14c10f2494b&oe=5B771510";"6AM - 6PM";"6AM - 6PM";"6AM - 6PM";"6AM - 6PM";"6AM - 6PM";"Closed";"Closed";
1174673;"DUCK HILL HEAD START/EARLY HEAD START";"620 Carrollton Street";"Duck Hill";"MS";38925;"MONTGOMERY";"(662) 565-2868";"http://www.headstartprogram.us/";;;"http://www.headstartprogram.us/program/MS-duck-hill-head-start-center";;;;;;;;;;;;;;;;;;;
1174674;"ELISE'S PLACE";"924 BROADMOOR ST";"Indianola";"MS";38751;"SUNFLOWER";"(662) 452-5165";;;;;;;;;;;;;;;;;;;;;;;
1174675;"FIRST BAPTIST PRESCHOOL";"154 Main Street";"Raleigh";"MS";39153;"SMITH";"(601) 782-4580";"http://www.fbcraleighms.com/";"raleighbaptist@bellsouth.net";"First Baptist Church is happy to announce that we will be adding a Daycare Program in addition to our Preschool Program.  Daycare will begin Monday, July 31st, 6:30 am - 6:30 pm for children 6 weeks up. ";"http://www.fbcraleighms.com/preschool--daycare.html";"https://www.facebook.com/firstbaptistraleighms/";;;;;;"x";;;;;"8AM - 11:30PM";"8AM - 11:30PM";"8AM - 11:30PM";"8AM - 11:30PM";"8AM - 11:30PM";"Closed";"Closed";
1174676;"FLORENCE FIRST DAYCARE LLC";"120 East Main Street";"Florence";"MS";39073;"RANKIN";"(601) 845-0486";;;;;;;;;;;;;;;;;;;;;;;
1174677;"GHOLARS CHILD CARE FACILITY";"2003 Main Street";"Columbus";"MS";39701;"LOWNDES";"(662) 329-2849";;;;;;;;;;;;;;;;;;;;;;;
1174678;"GOD'S CREATION LEARNING CENTER";"811 Canal Street";"Tupelo";"MS";38804;"LEE";"(662) 566-8500";;;;;;;;;;;;;;;;;;;;;;;"License not renewed"
1174679;"GOD'S HELPING HANDS LEARNING ACADEMY";"107 Dionyse Street";"Greenwood";"MS";38930;"LEFLORE";"(662) 644-5160";"https://godshelpinghandsacademy.weebly.com/";;"God's Helping Hands is designed to help nuture, cultivate, enlighten motor skills, life skills, & biblical teachings to our future (children)";"https://godshelpinghandsacademy.weebly.com/";"https://www.facebook.com/ghhla2013/";;;;;;"x";;;;"https://scontent.fskp2-1.fna.fbcdn.net/v/t1.0-1/p200x200/1476048_582401448481510_504428554_n.jpg?_nc_cat=0&oh=50d667f3a76766002b4f7a8f37b2fe7e&oe=5B86D613";"6:30AM - 5:30PM";"6:30AM - 5:30PM";"6:30AM - 5:30PM";"6:30AM - 5:30PM";"6:30AM - 5:30PM";"Closed";"Closed";
1174680;"HEAVENLY HEARTS LEARNING CENTER";"1710 Tchulahoma Road";"Nesbit";"MS";38651;"DE SOTO";"(901) 482-7200";;;"Child care and learning center";;"https://www.facebook.com/Heavenly-Hearts-Learning-Center-156268628338917/";;;;;"x";"x";"x";;;;"7AM - 5:30PM";"7AM - 5:30PM";"7AM - 5:30PM";"7AM - 5:30PM";"7AM - 5:30PM";"Closed";"Closed";
1174681;"HOPE'S PLAYHOUSE";"152 Hwy. 492";"Sebastopol";"MS";39359;;"(601) 625-8229";;;;;;;;;;;;;;;;;;;;;;;
1174682;"JACK & JILL DAYCARE AND LEARNING CENTER";"1091 Highway 1 South";"Greenville";"MS";38701;"WASHINGTON";"(662) 334-1613";;;"It is the aim, and purpose of Jack&Jill to provide experiences that will contribute to your child's physical, intellectual,social and emotional development";;"https://www.facebook.com/CareIsOurBusiness/";;;;;"x";"x";"x";;;"https://scontent.fskp2-1.fna.fbcdn.net/v/t1.0-9/21751592_116821072363233_8782868301761557660_n.jpg?_nc_cat=0&oh=34aed75e569cec1f3656dbbb8ac42667&oe=5B9740AE";"7AM - 11PM";"7AM - 11PM";"7AM - 11PM";"7AM - 11PM";"7AM - 11PM";"Closed";"Closed";
1174683;"JACK AND JILL-MOSS POINT";"3910 Jamestown Road";"Moss Point";"MS";39563;"JACKSON";"(228 ) 474-1355";;;"Jack and Jill's has been in operation since 1974. It began as a home child care facility and has grown into a very reputable preschool/full time daycare!";;"https://www.facebook.com/www.jackandjillmp1/";;;;;;;;;;"https://scontent.fskp2-1.fna.fbcdn.net/v/t31.0-8/16487252_1274986872582134_8339326475492102020_o.jpg?_nc_cat=0&oh=b7dbf1235e1291cfca9690150f109ae2&oe=5B7EABCF";;;;;;;;
1174685;"KID'S WORLD OF MANTACHIE";"187 Mustang Drive";"Mantachie";"MS";38855;"ITAWAMBA";"(662) 790-3665";;;;;;;;;;;;;;;;;;;;;;;
1174686;"KIDDIE KASTLE PRESCHOOL, INC";"122 South Madison St.";"Tupelo";"MS";38804;"LEE";"(662) 841-1709";;;;;;;;;;;;;;;;;;;;;;;"License not renewed"
1174687;"KIDS CLUB HOUSE";"8775 Old Spanish Trail";"Ocean Springs";"MS";39564;"JACKSON";"( )";;;;;;;;;;;;;;;;;;;;;;;"License not renewed"
1174688;"KIDS EXPRESS CHILD CARE & LEARNING CTR";"1219 Ellis Avenue";"Jackson";"MS";39209;"HINDS";"(601) 352-3882";"https://www.kidzexpresschildcare.com/";" kidzexpresschildcare@yahoo.com";"Kidz Express Childcare and Learning Center is here to partner with the parents to provide a solid education. We promote intellectual and personal growth in our students. Through God's word our children can impact & strengthen their community and the world.";"https://www.kidzexpresschildcare.com/location";;;;;;"x";"x";"x";;;;;;;;;;;
1174689;"KIDZ KINGDOM";"61 CR 770";"Walnut";"MS";38834;"ALCORN";"(662) 223-4279";"http://www.jncconline.com/";;"Childcare & Preschool";;"https://www.facebook.com/KidzKingdomChildcare/";;;;;"x";"x";;;;"https://scontent.fskp2-1.fna.fbcdn.net/v/t1.0-1/c173.49.614.614/s200x200/560620_360872434000089_180683624_n.jpg?_nc_cat=0&oh=2a539b43ed6e9c4bf6e36ea27cc3ca58&oe=5B89AF6A";;;;;;;;
1174690;"KIDZ WORLD LEARNING CENTER";"530 Edgar St.";"McComb";"MS";39648;"PIKE";"(601) 551-3633";;;;;;;;;;;;;;;;;;;;;;;
1174691;"KINDERLEARN";"10391 Lamey Bridge Road";"D'Iberville";"MS";39540;"HARRISON";"(228) 388-4872";"http://www.kinderlearnbiloxi.com/";"kinderlearnchildcare@gmail.com";"Kinderlearn has educated the Coast's preschool children for over 30 years. Now with two locations, Kinderlearn Preschool & After School Care welcomes all children from the ages of six weeks to 12 years at our Biloxi location and from six weeks to five years at our D'Iberville location. ";"http://www.kinderlearnbiloxi.com/contactus/";"https://www.facebook.com/kinderlearndiberville";;;;"x";"x";"x";"x";;;"https://scontent.fskp2-1.fna.fbcdn.net/v/t1.0-1/p200x200/14691024_185696255167672_669545905439351489_n.jpg?_nc_cat=0&oh=dc75f3a9d7aba5b5502f3ee0b4715a51&oe=5B89A5B3";"6:30AM - 5:30PM";"6:30AM - 5:30PM";"6:30AM - 5:30PM";"6:30AM - 5:30PM";"6:30AM - 5:30PM";"Closed";"Closed";
1174692;"KING JAMES BIBLE BAPTIST ACADEMY AFTERSCHOOL PROGRAM";"101 Gamari Road";"Greenville";"MS";38701;"WASHINGTON";"(662) 537-4931";;;;;;;;;;;;;;;;;;;;;;;"License not renewed"
1174693;"KING STAR HEAD START";"1025 West 6th Street";"Laurel";"MS";39440;"JONES";"(601) 425-1715";;;;;;;;;;;;;;;;;;;;;;;"License not renewed"
1174694;"KREATIVE KIDS LEARNING CENTER";"417 East Countiss Street";"Bruce";"MS";38915;"CALHOUN";"(662) 414-6432";;;;;;;;;;;;;;;;;;;;;;;"License not renewed"
1174695;"Tattle Tales learning Center";"568 South Pine Street";"Lucedale";"MS";39452;"GEORGE";"(601) 947-6982";;"tattletales24@yahoo.com";"Tattle Tales is lucedale's Newest childcare center. We provide care for children 6wks-12years of age, transportation to/from local schools, tutoring & summer camp.";;"https://www.facebook.com/Tattle-Tales-learning-Center-447096965341327/";;;;"x";"x";"x";"x";;;"https://scontent.fskp2-1.fna.fbcdn.net/v/t1.0-1/c170.50.621.621/s200x200/535996_449358845115139_491937362_n.jpg?_nc_cat=0&oh=8e8558a83ddb96cf148778eddd81deb8&oe=5B8321FF";;;;;;;;
1174697;"LIL LEAP ACADEMY TOO";"780 Poplarville Street";"Tupelo";"MS";38801;"LEE";"(662) 690-9123";;;;;;;;;;;;;;;;;;;;;;;
1174698;"LIL RASCALS, LLC";"281 B Hwy 72";"Burnsville";"MS";38833;"TISHOMINGO";"(662) 802-5025";;;"Ages 6 weeks to 12 years old";;"https://www.facebook.com/Lil-Rascals-Daycare-1228206060532315/";;;;"x";"x";"x";"x";;;"https://scontent.fskp2-1.fna.fbcdn.net/v/t1.0-1/p200x200/18581793_1516300218389563_3371450760547163587_n.jpg?_nc_cat=0&oh=651d93c1df1f5688e52fd8781bad2785&oe=5B83667F";"6AM - 6PM";"6AM - 6PM";"6AM - 6PM";"6AM - 6PM";"6AM - 6PM";"Closed";"Closed";
1174699;"LITTLE CRUMB SNATCHERS #2";"211 East Port Street";"Iuka";"MS";38852;"TISHOMINGO";"(662) 423-9503";;;;;"https://www.facebook.com/pages/Little-Crumb-Snatchers-Daycare-Center/133763720026945";;;;;;;;;;;;;;;;;;
1174700;"LITTLE EAGLES 2 WEES & TOTS, INC";"21 CR 5110";"Booneville";"MS";38829;"PRENTISS";"( )";;;;;;;;;;;;;;;;;;;;;;;"License not renewed"
1174701;"LITTLE FOXWORTH'S PRESCHOOL";"2216 HWY 586";"Foxworth";"MS";39483;"MARION";"(601) 441-1195";;;;;;;;;;;;;;;;;;;;;;;"License not renewed"
1174702;"LITTLE KIDS UNIVERSITY EXT.";"602 Horton Drive";"Port Gibson";"MS";39150;"CLAIBORNE";"(601) 437-8576";;;;;;;;;;;;;;;;;;;;;;;"License not renewed"
1174703;"LITTLE STARTERS UNIVERIST-PASCAGOULA";"5511 Telephone Road";"Pascagoula";"MS";39581;"JACKSON";"( )";;;;;;;;;;;;;;;;;;;;;;;
1174704;"M & M WHISTLE STOP AFTERSCHOOL";"300 Decatur Street";"Newton";"MS";39345;"NEWTON";"(601) 934-3090";;;;;;;;;;;;;;;;;;;;;;;"License not renewed"
1174705;"M & M WHISTLE TOP PRESCHOOL";"112 South Frontage Road";"Newton";"MS";39345;"NEWTON";"(601) 683-9401";;;;;;;;;;;;;;;;;;;;;;;
1174706;"MIGHTY OAKS CHILD DEVELOPMENT CENTER";"732 Whitfield Street";"Starkville";"MS";39759;"OKTIBBEHA";"(662) 617-8303";;;"Day care and education";;"https://www.facebook.com/mightyoaks.cdc.ms/";;;;;"x";"x";"x";;;;"6:30AM - 6PM";"6:30AM - 6PM";"6:30AM - 6PM";"6:30AM - 6PM";"6:30AM - 6PM";"Closed";"Closed";
1174707;"MINE'S AND YOURS";"726 Pickett Street";"Greenville";"MS";38701;"WASHINGTON";"(662) 390-3200";;;;;;;;;;;;;;;;;;;;;;;
1174708;"MINI R CHOSEN LEARNING CENTER";"214 South Martin Luther King";"Greenville";"MS";38701;"WASHINGTON";"(662) 334-6214";;;;;;;;;;;;;;;;;;;;;;;
1174709;"MITI KIDS CHILDCARE & LEARNING CENTER INTERNATIONAL INC.";"6285 Ridgewood Drive";"Horn Lake";"MS";38637;"DE SOTO";"(662) 280-3007";"http://mitikids.com/";;"Our mission is to promote the physical, emotional and social development of children. We fulfill our mission by Equip, Empower,Excel, and Enrich children.";"http://mitikids.com/";"https://www.facebook.com/MITI-Kids-Childcare-and-Learning-Center-International-Inc-404913719907719/";;"http://mitikids.com/enroll/";"http://mitikids.com/parents/";"x";"x";"x";"x";;;"https://scontent.fskp2-1.fna.fbcdn.net/v/t1.0-1/p200x200/18447174_404913889907702_6004432511315070996_n.png?_nc_cat=0&oh=e4f36592d0881c3f03feadfcf2ae8eba&oe=5B762229";"6AM - 6PM";"6AM - 6PM";"6AM - 6PM";"6AM - 6PM";"6AM - 6PM";"Closed";"Closed";
1174710;"NEW BEGINNINGS DAY CARE";"449 S. Sixth Street";"Greenville";"MS";38701;"WASHINGTON";"(662) 347-3222";;;;;;;;;;;;;;;;;;;;;;;"License not renewed"
1174711;"NEW JERUSALEM-FLOWERS DRIVE";"1950 Flower Drive";"Jackson";"MS";39204;"HINDS";"(601) 371-6772";;;;;;;;;;;;;;;;;;;;;;;"License not renewed"
1174712;"NEXT GENERATION ACADEMY II";"4755 McWillie Drive";"Jackson";"MS";39206;"HINDS";"(601) 454-6838";"http://www.nextgenerationacademy123.net/home-1.html";"nextgenerationacademy123@yahoo.com";"Next Generation Academy objective is to help children become independent, confident, enthusiastic, and great learners.  The children are provided the opportunity to think for themselves, make decisions, develop problem-solving skills and express themselves through communication.";"http://www.nextgenerationacademy123.net/contact.html";;"http://www.nextgenerationacademy123.net/careers.html";"http://www.nextgenerationacademy123.net/application-1.html";"http://nebula.wsimg.com/a087eb324744156989cdb7468ed6b66a?AccessKeyId=A5992E58F7C52FE5937F&disposition=0&alloworigin=1";"x";"x";"x";"x";"x";"x";"http://nebula.wsimg.com/6b10c5b419ab209547c85a2fabc2bb35?AccessKeyId=A5992E58F7C52FE5937F&disposition=0&alloworigin=1";"6AM - 6PM";"6AM - 6PM";"6AM - 6PM";"6AM - 6PM";"6AM - 6PM";"Closed";"Closed";
1174713;"NOAH'S ARK DAYCARE & LEARNING";"794 East Main Street";"Tupelo";"MS";38804;"LEE";"(662) 840-7888";;;;;"https://www.facebook.com/pages/Noahs-Ark-Daycare-Learning-Center/160246077331723";;;;;;;;;;;;;;;;;;
1174714;"OVER THE RAINBOW CHILDCARE CETNER";"212 S. Union Street";"Canton";"MS";39046;"MADISON";"(601) 859-7224";;;;;;;;;;;;;;;;;;;;;;;"License not renewed"
1174715;"PIPPIS LITTLE PEOPLE DAYCARE AND PRESCHOOL LLC";"601 Allen Street";"Charleston";"MS";38921;"TALLAHATCHIE";"(662) 647-1688";;;;;;;;;;;;;;;;;;;;;;;
1174716;"PREPARATORY LEARNING ACADEMY";"1313 Harrison Ave";"McComb";"MS";39648;"PIKE";"601-730-9739";;"preplearningacademy@gmail.com";"We are a Learning Academy where we protect, educate, and nurture infants, preschool and school age children.";;"https://www.facebook.com/Preparatory-Learning-Academy-1032576900147737/";;;;"x";"x";"x";"x";;;"https://scontent.fskp2-1.fna.fbcdn.net/v/t1.0-1/p200x200/21231596_1647671605304927_6334136467071005839_n.jpg?_nc_cat=0&oh=7a7c19314b858cccf1eb9e2312b3df2e&oe=5B902F8F";"6AM - 5:30PM";"6AM - 5:30PM";"6AM - 5:30PM";"6AM - 5:30PM";"6AM - 5:30PM";"Closed";"Closed";
1174717;"REDBUD LITTLE LEARNERS";"620 Deaton Street";"Greenville";"MS";38701;"WASHINGTON";"(501) 422-1331";;;"Redbud's Little Learners is ""Where Education, Care, and Play go Hand in Hand""";;"https://www.facebook.com/redbudslittlelearners/?rf=203680940108859";;;;"x";"x";"x";"x";;;"https://scontent.fskp2-1.fna.fbcdn.net/v/t1.0-1/p200x200/20638579_488050348207123_4116822063938560521_n.jpg?_nc_cat=0&oh=1aa760d5e5bc3404e258cfb33393c31f&oe=5BC2E51A";"7:30AM - 5:30PM";"7:30AM - 5:30PM";"7:30AM - 5:30PM";"7:30AM - 5:30PM";"7:30AM - 5:30PM";"Closed";"Closed";
1174718;"RENE'S ALL IN ONE RESOURCE CENTER";"126 Jefferson St";"Clarksdale";"MS";38614;"COAHOMA";"(662) 902-5389";;;"Our mission at ALL IN ONE Resource & Activity Center is to educate our children by providing a loving and caring environment in which children can grow.";;"https://www.facebook.com/IRenes-All-In-One-Resource-Activity-Center-1348567458571687/";;;;"x";"x";"x";"x";"x";;"https://scontent.fskp2-1.fna.fbcdn.net/v/t1.0-9/15327328_1348568185238281_6311906808219258543_n.jpg?_nc_cat=0&oh=885271407470cfbc761ea3ca47586e1b&oe=5BC1233D";;;;;;;;
1174719;"SAFE PLACE DAYCARE AND LEARNING CENTER";"15075 Monticello Road";"Hazlehurst";"MS";39083;"COPIAH";"(601) 623-9210";;;"SAFE PLACE Day Care & Learning Center is an equal opportunity employer and provider. SAFE PLACE does not discriminate based on race, color, sex, age, national origin, or disability";;"https://www.facebook.com/safeplacelearningcenter/";;;;"x";"x";"x";"x";;;"https://scontent.fskp2-1.fna.fbcdn.net/v/t1.0-1/p200x200/26000903_1909788449338003_735518067302283058_n.jpg?_nc_cat=0&oh=8041cd2408bb1e1cf06dc7e3d3e01d3d&oe=5B92F8DE";;;;;;;;
1174720;"SECOND BAPTIST CHURCH";"3913 Machelah Road";"Moss Point";"MS";39563;"JACKSON";"(224) 759-395";;;;;;;;;;;;;;;;;;;;;;;"Licence not renewed"
1174721;"SERVING OUR CHILDREN & COMMUNITIES CHILDCARE FACILITY";"4700 Robinson Road Ext.";"Jackson";"MS";39204;"HINDS";"(601) 923-3630";;;;;;;;;;;;;;;;;;;;;;;"Licence not renewed"
1174722;"SHILOH BAPTIST CHURCH";"5425 Grierson Street";"Moss Point";"MS";39563;"JACKSON";"(228) 474-2800";;"info@shilohmosspoint.org";"We improving the organization by improving ourselves. Capitalizing on our strength of ethnic diversity and teamwork. Leaving a legacy of hope and promises.";;"https://www.facebook.com/shilohmissionarybaptistchurchMP/";;;;;;;;;;"https://scontent.fskp2-1.fna.fbcdn.net/v/t1.0-1/23622418_333163537157317_8968703447352212840_n.png?_nc_cat=0&oh=e9f29b208ac51002273467ba2a087595&oe=5B7D1773";;;;;;;;
1174723;"SHINY STAR LEARNING CENTER";"615 Hwy 51 N.";"Brookhaven";"MS";39601;"LINCOLN";"(601) 248-9341";;;"This center is designed to bring better quality care for Lower Rate with extended hours ";;"https://www.facebook.com/shinystarlc/";;;;;"x";"x";"x";;;;"6:30AM - 11PM";"6:30AM - 11PM";"6:30AM - 11PM";"6:30AM - 11PM";"6:30AM - 11PM";"6:30AM - 11PM";"Closed";
1174724;"SKATE ODYSSEY";"4560 Goodman Road";"Horn Lake";"MS";38637;"DE SOTO";"(662) 253-0061";"https://www.skateodyssey.com/";"skateodyssey@hotmail.com";"We have been offering wholesome family fun to the local area since 1989. Our family owned business has grown over the years to include 6 locations, and we are proud to offer a clean and enjoyable environment for patrons of all ages. In addition to our skating rink, we also offer a variety of redemption games. Kids win tickets to cash in at our Stuff Shop for excellent prizes! Our staff is here to assist you and we strive to exceed your expectations with every visit. ";"https://www.skateodyssey.com/horn-lake";"https://www.facebook.com/skatehornlake/";"https://partywirks.com/store/skate_odyssey_of_horn_lake/inquiry/6706";;;;;;;"x";"x";"https://static.wixstatic.com/media/a895fd_fb8f555faf4b4566b2d8b9ba40dae526~mv2.png/v1/fill/w_126,h_93,al_c,usm_0.66_1.00_0.01/a895fd_fb8f555faf4b4566b2d8b9ba40dae526~mv2.png";"10AM - 6AM";"10AM - 6AM";"10AM - 6AM";"10AM - 6AM";"10AM - 6AM";"Closed";"Closed";
1174725;"SKATE ZONE AFTER SCHOOL CARE";"910 Lehmberg Road";"Columbus";"MS";39702;"LOWNDES";"(662) 729-1881";;;;;;;;;;;;;;;;;;;;;;;"License not renewed"
1174726;"SKIPPY'S LEARNING CENTER";"6 Crossland Road";"Sumrall";"MS";39482;"LAMAR";"(601) 758-0010";;"skippyslearningcenter@gmail.com";"Skippy's Learning Center LLC provides full-time & part-time childcare for ages 6 weeks thru 4 yr olds.";;"https://www.facebook.com/Skippyslearningcenter/";;;;"x";"x";"x";"x";;;"https://scontent.fskp2-1.fna.fbcdn.net/v/t1.0-1/p200x200/31394835_1962374520759009_4040569553740861159_n.jpg?_nc_cat=0&oh=1d6c7349bf0b0c1e413bddc1b2036b09&oe=5B93535B";"6:45AM - 5:45PM";"6:45AM - 5:45PM";"6:45AM - 5:45PM";"6:45AM - 5:45PM";"6:45AM - 5:45PM";"Closed";"Closed";
1174727;"ST. MARK'S EPISCOPAL CHURCH PRESCOOL";"11322 West Taylor Road";"Gulfport";"MS";39503;"HARRISON";"(228) 206-5881";"http://www.stmarksgulfport.com/";"stmarks@cableone.net";"St. Mark's Episcopal Preschool began as our congregation's response to the lack of pre-k offerings on the Gulf Coast in the mid-1960's. In the decades since, it has earned a reputation as one of the finest early education institutions on the Coast. Teachers in our area often comment how well prepared our graduates are when they arrive in their classrooms for kindergarten.​​";"http://www.stmarksgulfport.com/preschool";"https://www.facebook.com/stmarksgulfport/";;;;;;"x";"x";;;"https://static.wixstatic.com/media/1ffe63_3bdd4028e3c940de964e66a443d75c50~mv2_d_1800_1200_s_2.jpg/v1/fill/w_329,h_219,al_c,q_80,usm_0.66_1.00_0.01/1ffe63_3bdd4028e3c940de964e66a443d75c50~mv2_d_1800_1200_s_2.webp";;;;;;;;
1174728;"STEP BY STEP";"261 CDF Boulevard";"Verona";"MS";38879;"Lee";"(662) 213-5892";;;"Step By Step Childcare Learning Center offers curriculum for 1 year old to Preschool. We will work with Excel 5 to do training with surrounding elementary schools to ensure that students will be primary school ready. ";;"https://www.facebook.com/Stepbystepchildcsreandlearningcenter/";;;;;"x";"x";"x";;;"https://scontent.fskp2-1.fna.fbcdn.net/v/t1.0-1/p200x200/21105614_686514288213933_7777726692696715940_n.jpg?_nc_cat=0&oh=322cfa3ddaae8096aa4721d385111b70&oe=5B7C97CE";"5:30AM - 5:30PM";"5:30AM - 5:30PM";"5:30AM - 5:30PM";"5:30AM - 5:30PM";"5:30AM - 5:30PM";"Closed";"Closed";
1174729;"TCHULA HEAD START";"229 Mercer St.";"Tchula";"MS";39169;"HOLMES";"(662) 235-5986";"http://www.headstartprogram.us/";;"We provide a nationwide directory of Head Start and Early Head Start Programs in your area. We also provide information and reviews on the programs displayed.";"http://www.headstartprogram.us/city/ms-tchula";"https://www.facebook.com/Head-Start-Programs-105313829615555/";;;;;;"x";"x";;;"http://www.headstartprogram.us/images/logo.png";;;;;;;;
1174730;"TENDER AGES LEARNING CENTER ACADEMY";"646 Lester St";"Greenville";"MS";38703;"WASHINGTON";"(662) 537-4923";"https://www.tenderages.com/";;"We believe each child has something to give.  We, as parents and educators, can help them to achieve in giving.  We feel that if a child is given tender, loving care he or she will have an open mind to learning where we grow in knowledge";"https://www.tenderages.com/";;;"https://www.tenderages.com/enrollment.html";;;;;"x";;;"https://www.tenderages.com/uploads/2/3/0/3/23031518/published/school-sign.jpeg?1484079038";"Open 24/7";"Open 24/7";"Open 24/7";"Open 24/7";"Open 24/7";"Open 24/7";"Open 24/7";
1174731;"TENDER MOMENTS LEARNING CENTER";"14501 Lemoyne Blvd.";"Biloxi";"MS";39532;"HARRISON";"(228) 392-9578";;;;;;;;;;;;;;;;;;;;;;;"License not renewed"
1174732;"THE CHILDREN'S DEPOT, LLC";"224 Lower Myrick Road";"Laurel";"MS";39443;"JONES";"(601) 342-5240";;;"Childcare & preschool for ages 13 months - 4yrs. We use a Christian-based curriculum. Licensed by MSDH";;"https://www.facebook.com/thechildrensdepotlaurel/";;;;;"x";"x";"x";;;"https://scontent.fskp2-1.fna.fbcdn.net/v/t1.0-1/p200x200/24232111_522026501481843_5853449347095245870_n.jpg?_nc_cat=0&oh=fd18ecd686c12ef75b65bebf171fcf36&oe=5B8B800D";"7AM - 5:45PM";"7AM - 5:45PM";"7AM - 5:45PM";"7AM - 5:45PM";"7AM - 5:45PM";"Closed";"Closed";
1174733;"THE GROWING PATCH";"122 Hwy 35 North Walnut Grove";"Walnut Grove";"MS";39189;"LEAKE";"(601) 900-9017";;;;;;;;;;;;;;;;;;;;;;;
1174734;"THE GROWING TREE AFTERSCHOOL CARE";"1637 Morson Road";"Jackson";"MS";39209;"HINDS";"(601) 922-9280";;"thegrowingtreeafterschool@gmail.com";"If you are looking for a loving family oriented place to place your children this summer, look no farther than the Growing Tree, stop by take a look around, meet me, interview me and I interview you see what I have to offer and I’m pretty sure you will be pleased.";;"https://www.facebook.com/thegrowingtreeafterschool/";;;;;;"x";"x";"x";;"https://scontent.fskp2-1.fna.fbcdn.net/v/t1.0-1/p200x200/14705620_191722731237034_1861787645116263635_n.jpg?_nc_cat=0&oh=7252e2538c59afdc3f9f63dce40d0708&oe=5B7F0BE3";"1PM - 8PM";"1PM - 8PM";"1PM - 8PM";"1PM - 8PM";"1PM - 8PM";"Closed";"Closed";
1174735;"THE LEARNING TREE";"10151 Hwy 178 East";"Tremont";"MS";38876;"ITAWAMBA";"(205) 495-8284";;;;;;;;;;;;;;;;;;;;;;;"License not renewed"
1174736;"THE LEARNING TREE CHILDREN'S ACADEMY";"147 S. Brooks St.";"Pontotoc";"MS";38863;"PONTOTOC";"(662) 489-4050";;"thelearningtreechild@gmail.com";"A place in our community where your children can learn and grow";;"https://www.facebook.com/thelearningtreechild/";;;;;;"x";"x";;;;;;;;;;;
1174737;"THE VINEYARD PRESCHOOL";"200 Hwy 45 North";"Booneville";"MS";38829;"PRENTISS";"(662) 210-3323";;;"The Vineyard Preschool is definitely a place where learning is fun";;"https://www.facebook.com/The-Vineyard-Preschool-1622508838079834/";;;;;;"x";"x";;;"https://scontent.fskp2-1.fna.fbcdn.net/v/t1.0-1/c159.0.200.200/p200x200/14034703_1622509228079795_1749197463309136261_n.jpg?_nc_cat=0&oh=95b400df2d05e825764176d11d877bce&oe=5B8387B6";;;;;;;;
1174738;"TLC ACADEMY & LEARNING CENTER, LLC";"1600 E. Reed Road";"Greenville";"MS";38703;"WASHINGTON";"(662) 332-0070";"http://www.tlcacademyms.com/";"queenebell@hotmail.com";"TLC Academy is a well established child care center in Greenville, MS, that has been serving the community for several years. We are a licensed day care and preschool that provides a wide range of supervised activities that are geared toward developing positive relationships and giving children the assets they need. ";"http://www.tlcacademyms.com/";;;;;"x";"x";"x";"x";"x";;"http://www.tlcacademyms.com/pictures/ChildCare1.jpeg";"6:30AM - 11PM";"6:30AM - 11PM";"6:30AM - 11PM";"6:30AM - 11PM";"6:30AM - 11PM";"Closed";"Closed";
1174739;"TODDLER TOWN";"11090 Amber Drive";"D'Iberville";"MS";39540;"HARRISON";"(228) 348-1884";;"toddlertown16@cableone.net";"We offer several different attendance options to suit your needs.";;"https://www.facebook.com/toddlertowneducationalcenter/";;;;;"x";"x";"x";;;"https://scontent.fskp2-1.fna.fbcdn.net/v/t1.0-9/13620946_258253271223762_8385018810464908579_n.jpg?_nc_cat=0&oh=c7133b17a814184ea0401e663eb9a17e&oe=5BC27B17";"6:30AM - 6PM";"6:30AM - 6PM";"6:30AM - 6PM";"6:30AM - 6PM";"6:30AM - 6PM";"Closed";"Closed";
1174740;"TRUE WORSHIP MINISTRY ENRICHMENT PROGRAM";"5019 Clinton Blvd";"Jackson";"MS";39209;"HINDS";"(601) 923-1981";;;;;"https://www.facebook.com/Revelation379/";;;;;;;;;;;;;;;;;;
1174741;"TUCKER'S AFTER SCHOOL";"528 Alabama Street";"Columbus";"MS";39702;"LOWNDES";"(662) 364-1999";;;;;"https://www.facebook.com/pages/Tuckers-Play-Learn-Too/163664810327191";;;;;;;;;;;;;;;;;;
1174742;"V'S PEACE, LOVE & HAPPY FACES";"1241 Veterans Memorial Blvd.";"Eupora";"MS";39744;"WEBSTER";"(662) 258-7008";;;;;;;;;;;;;;;;;;;;;;;"License not renewed"
1174743;"VICKSBURG YMCA";"1000 Lee Street";"Vicksburg";"MS";39180;"WARREN";"(601) 638-1071";"http://www.vicksburgymca.com/";"phillipd@vicksburgymca.com";"The Vicksburg YMCA has offers a place to work out, a place to swim, and a safe place to take care of your children, along with much more.";"http://www.vicksburgymca.com/";"https://www.facebook.com/VicksburgYMCA/";;"https://ops3.operations.daxko.com/Online/3068/Programs/Search.mvc/categories";;;;;;"x";"x";"https://scontent.fskp2-1.fna.fbcdn.net/v/t1.0-1/11215195_1011427412209563_1281586405259806836_n.png?_nc_cat=0&oh=c364f10422fb9187827e2f985d33fc95&oe=5B8D937C";"5AM - 9PM";"5AM - 9PM";"5AM - 9PM";"5AM - 9PM";"5AM - 9PM";"8AM - 5PM";"1AM - 5PM";
1174744;"WEEPING WONDER DAY CARE";"219 South Willow Drive";"Yazoo City";"MS";39194;"YAZOO";"(662) 763-3665";;;;;;;;;;;;;;;;;;;;;;;"License not renewed"
1174745;"WILD WOOD DAYCARE";"2224 West Jackson St.";"Tupelo";"MS";38801;"LEE";"(662) 844-9040";;;"Day care services";;"https://www.facebook.com/Wildwood-Daycare-Learning-Center-LLC-1632822773441590/";;;;;;"x";"x";"x";;;"5:30AM - 6PM";"5:30AM - 6PM";"5:30AM - 6PM";"5:30AM - 6PM";"5:30AM - 6PM";"Closed";"Closed";
1174746;"WILDWOOD CHILD CARE CENTER";"101 Auburn Drive";"Clinton";"MS";39056;"HINDS";"(601) 922-1429";"https://wildwoodchildcarecenter.com/";"wildwood_childcare@yahoo.com";"We believe our mission is to provide a safe and secure learning environment; as well as, provide quality child care for all families.";"https://wildwoodchildcarecenter.com/";"https://www.facebook.com/WWCCenter/";;;"https://websites.godaddy.com/blob/ef621946-adb3-4a50-9050-f1fc154b2b0b/downloads/1bkn2kgja_671381.pdf?a5ffde87";"x";"x";"x";"x";;;"https://img1.wsimg.com/isteam/ip/ef621946-adb3-4a50-9050-f1fc154b2b0b/logo/65e34d9a-26a7-4b24-a80b-867186623e75.JPG/:/rs=h:100";"6:30AM - 6PM";"6:30AM - 6PM";"6:30AM - 6PM";"6:30AM - 6PM";"6:30AM - 6PM";"Closed";"Closed";
1174747;"WISHING WELLS CHILD CARE";"105 Mary Ann Street";"Tupelo";"MS";38801;"LEE";"(662) 566-0036";;;;;;;;;;;;;;;;;;;;;;;
1174748;"YALOBUSHA GENERAL HOSP. D/B/A COTTEN CANDY KIDS";"219 Frostland Drive";"Water Valley";"MS";38965;"YALOBUSHA";"(662) 473-0340";"https://yalobushageneral.com/Locations.aspx";;"Yalobusha General Hospital originally opened its doors on January 2, 1962 with a construction cost of $500,000.  Initially offering 30 acute beds, surgery, a delivery room and emergency services.";"https://yalobushageneral.com/Locations/CottonCandyKidsDaycare.aspx";;"https://yalobushageneral.com/EmploymentOpportunities.aspx";;"https://portal.yourcarecommunity.com/";;;;;;;"https://yalobushageneral.com/Portals/0/Skins/01/images/header.jpg";;;;;;;;
1174758;"ANGELS OF FAITH CHURCH, INC.";"3805 HUNTSVILLE AVENUE";"BRIGHTON";"AL";35020;"Jefferson ";"(205)218-8108";;;;;;;;;;;;;;;;;;;;;;;
1174757;"ABUNDANT LIFE WORSHIP CENTER";"5904 - 8TH STREET SOUTH";"BESSEMER";"AL";35020;"JEFFERSON";"(205)426-7177";;"alwc03@att.net";;;"https://www.facebook.com/Abundant-Life-Worship-Center-754436781317643/";;;;;;;;;;"https://scontent.fskp2-1.fna.fbcdn.net/v/t31.0-8/10547129_754472127980775_118032404495544730_o.jpg?_nc_cat=0&oh=7399999128e38c4c68787e66a17a41eb&oe=5B8DF1C6";;;;;;;;
1174756;"GARRETT DRIVE OUTREACH CHURCH MINISTRIES";"258 GARRETT LANE";"ALPINE";"AL";35014;"TALLADEGA";"(256)268-0921";;;;;;;;;;;;;;;;;;;;;;;"Licence not renewed"
1174754;"SOLDIERS OF THE CROSS MINISTRIES";"719 - 4TH PLACE S.W.";"ALABASTER";"AL";35007;"SHELBY";"(205)663-4101";;;;;"https://www.facebook.com/SOTCSoldiers/";;;;;;;;;;"https://scontent.fskp2-1.fna.fbcdn.net/v/t31.0-8/12768390_1566872290270351_5567315353899833450_o.jpg?_nc_cat=0&oh=bb4af606107f78f43fdfe7ca835b0734&oe=5B7A0121";;;;;;;;
1174755;"FIRST BAPTIST CHURCH - ALEXANDER CITY";"64 COURT SQUARE";"ALEXANDER CI";"AL";35011;;"(256)234-6351";"http://fbc-ac.org/";"andi@fbc-ac.org";"It is our mission to provide quality child care while helping the children grow spiritually, academically, and emotionally.";"http://fbc-ac.org/ministries/early-learning-center";"https://www.facebook.com/firstbaptistchurchearlylearningcenter/";"http://fbc-ac.org/elc-forms";"http://fbc-ac.org/elc-forms";"http://fbc-ac.org/elc-hours-tuition";"x";"x";"x";"x";"x";"x";"https://scontent.fskp2-1.fna.fbcdn.net/v/t31.0-8/13122902_471707373027790_1566648194413580794_o.jpg?_nc_cat=0&oh=862bc08367cd434581804c531c80fc18&oe=5B8166DF";"6:30AM - 5:30PM";"6:30AM - 5:30PM";"6:30AM - 5:30PM";"6:30AM - 5:30PM";"6:30AM - 5:30PM";"Closed";"Closed";
1174753;"RIVER & CAPE MONTESSORI SCHOOL.,LLC";"534 INDUSTRIAL ROAD";"ALABASTER";"AL";35007;"SHELBY";"(205)572-6834";"http://www.riverandcape.com/";"riverandcapemontessori@gmail.com";"The Montessori environment creates a haven for children to feel valued, inspired, and challenged. Because of this, each child has the opportunity to develop a healthy self esteem, possess a vast array of knowledge, and experience a deep connection to the world around them. ";"http://www.riverandcape.com/";"https://www.facebook.com/riverandcapemontessori/";"http://www.riverandcape.com/employment-opportunities";"http://www.riverandcape.com/enrollment";;"x";"x";"x";"x";;;"https://scontent.fskp2-1.fna.fbcdn.net/v/t1.0-1/c29.0.200.200/p200x200/13332928_1013604382058274_8128120863561813093_n.jpg?_nc_cat=0&oh=f533aa325c06272380aed4ea991438a8&oe=5B7C9A90";"6:30AM - 5:30PM";"6:30AM - 5:30PM";"6:30AM - 5:30PM";"6:30AM - 5:30PM";"6:30AM - 5:30PM";"Closed";"Closed";
1174752;"FIRST UMC OF ALABASTER";"10903 HIGHWAY 119";"ALABASTER";"AL";35007;"SHELBY";"205-621-9636";"http://www.alabasterfumc.org/";"Preschool@alabasterfumc.org ";"Dedicated to fostering a lifelong love of learning in a challenging and caring environment. Our curriculum is distinguished by its successful formula for guiding students along the important journey of early learning. Throughout every area of the curriculum, students are given opportunities to develop and refine critical thinking and problem-solving skills as they work independently and as groups. During their learning process they are exposed to music, language arts, math, social skills and weekly chapel.";"http://www.alabasterfumc.org/ministries/preschool/";"https://www.facebook.com/FirstMethodist/";;;;"x";"x";"x";"x";;;"http://2c56da39be457bde855b-082c340a8088892befd45026db84f149.r97.cf2.rackcdn.com/uploaded/a/0e4957010_1458000772_afumc-church-template-logo.png";"9AM - 2PM";"9AM - 2PM";"9AM - 2PM";"9AM - 2PM";"9AM - 2PM";"Closed";"Closed";
1174751;"FIRST BAPTIST CHURCH OF ALABASTER";"903 3RD AVENUE NW";"ALABASTER";"AL";35007;"SHELBY";"(205)663-3634";"http://www.fbcalabaster.org/";;"Our mission is to provide worship experiences, educational processes, and opportunities of fellowship that advance God’s Kingdom by empowering believers in Christ to impact communities around them by serving as witnesses for our Lord and Savior Jesus Christ.";"http://www.fbcalabaster.org/weekday-childhood-ministries";;;;;;;"x";"x";"x";;"http://www.fbcalabaster.org/images/logo.png";;;;;;;;
1174750;"TRUE WORSHIPPERS CHRISTIAN CHURCH, INC.";"200 MOUNTAIN STREET";"ADAMSVILLE";"AL";35005;"JEFFERSON";"(205)390-9236";;;;;"https://www.facebook.com/trueworshipperschristianchurchinternational/";;;;;;;;;;;;;;;;;;
1174763;"GAIL HINES";"420 SURREY CIR";"BESSEMER";"AL";35022;"JEFFERSON";"(205)261-3529";;;;;;;;;;;;;;;;;;;;;;;"License not renewed"
1174762;"EINSTEIN'S PLAYGROUND";"7555 DICKEY SPRINGS ROAD";"BESSEMER";"AL";35022;"JEFFERSON";"(205)434-2066";"http://www.einsteins-playground.org/";"info@einsteins-playground.org";"A high quality program for children ages 6 weeks- Pre-K. We also have two campuses! We have a Birmingham (Derby) campus and a Bessemer Campus ";"http://www.einsteins-playground.org/mdo-bessemer/";"https://www.facebook.com/EinsteinsPlayground1/";"http://www.einsteins-playground.org/employment/";"http://www.einsteins-playground.org/enrollment/";"http://www.einsteins-playground.org/parent-handbook/";"x";"x";"x";"x";"x";"x";"http://www.einsteins-playground.org/wp-content/uploads/2015/12/Einsteins-Logo-copy.png";"6:30AM - 6PM";"6:30AM - 6PM";"6:30AM - 6PM";"6:30AM - 6PM";"6:30AM - 6PM";"Closed";"Closed";
1174761;"MT. OLIVE BAPTIST CHURCH";"5029 EDWARDS STREET";"BRIGHTON";"AL";35020;"Jefferson ";"(205)434-3982";"http://www.mtolivembcbrighton.com/home.html";;"Take your burdens to the Lord and let the scripture comfort your soul. Whenever you need help, our church is ready to give you spiritual guidance and enlightenment. ";"http://www.mtolivembcbrighton.com/home.html";"https://www.facebook.com/pages/Mt-Olive-Baptist-Church/115564148473286";;;;;;;;;;"https://0201.nccdn.net/1_2/000/000/0dd/5d6/slide2.jpg#RDAMDAID6053860";;;;;;;;
1174759;"HUMBLE BEGINNINGS MINISTRY";"213 ELRIE BLVD,";"BESSEMER";"AL";35020;"JEFFERSON";"(205)447-6208";;;;;;;;;;;;;;;;;;;;;;;
1174760;"KIDZ AROUND THE CLOCK INC.";"2705 9TH AVENUE N";"BESSEMER";"AL";35020;"JEFFERSON";"(205)436-2662";;;;;;;;;;;;;;;;;;;;;;;
1174766;"WE CARE DAY CARE AND LEARNING CENTER";"501 LITTLE JOHN ROAD";"CLANTON";"AL";35045;"CHILTON";"(205)755-5065";;;"State licensed center, We have video and audio monitoring for safety and piece of mind for parents.Teaching through play with a Montessori Style Program.";;"https://www.facebook.com/Wecaredaycarealabama/";;;;"x";"x";"x";"x";;;"https://scontent.fskp2-1.fna.fbcdn.net/v/t1.0-1/p200x200/13406740_184692225266386_3729481892960271773_n.jpg?_nc_cat=0&oh=e8bad67094f7c5154da557e6cc88d6df&oe=5B95E9EF";"6AM - 6PM";"6AM - 6PM";"6AM - 6PM";"6AM - 6PM";"6AM - 6PM";"Closed";"Closed";
1174767;"FAITH LUTHERAN CHURCH";"6704 DEERFOOT PARKWAY P.O";"CLAY";"AL";35048;"Jefferson ";"(205)680-2144";"http://flc-al.org/";"flcoffice1@gmail.com";"Our preschool ministry has been serving families with young children in Clay and the surrounding communities since 2006. The goal of our ministry is to offer quality childcare with affordable tuition so all God’s children can attend preschool. Our school year program is offered for children ages 2-4 and meets Monday, Wednesday, and Friday from 9am-1pm.";"http://flc-al.org/preschool";"https://www.facebook.com/faithlutheranclay/";;"http://flc-al.org/images/Resources/FLCPregistrationform.pdf";"http://flc-al.org/images/Resources/Faith%20Lutheran%20Preschoolhandbookrevised%202016.pdf";;"x";"x";"x";;;;"9AM - 1PM";"Closed";"9AM - 1PM";"Closed";"9AM - 1PM";"Closed";"Closed";
1174768;"KIDZ ZONE CHRISTIAN MINISTRIES, INC.";"750 ALLISON BONNETT M. DR";"HUEYTOWN";"AL";35061;"Jefferson ";"(205)744-0100";;;;;;;;;;;;;;;;;;;;;;;"License not renewed"
1174765;"REDEMPTION CHURCH @ K-SPRINGS";"4176 HIGHWAY 39";"CHELSEA";"AL";35043;"SHELBY";"(205)678-9565";"http://www.redemptionchurchks.org/index.html";;"K springs Church, now known as Redemption Church is a life giving church in the community of Chelsea, AL. We have been serving this community for generations and look forward to continuing to serve for many more generations. The heart of who we are is found in ""Connecting People With Jesus"" and making disciples that will mature into our future church leaders who serve this community.  Our heart is to multiply through service and loving people like Jesus always remembering that this is His church and we are just stewards. ";"http://www.redemptionchurchks.org/index.html";"https://www.facebook.com/pages/Redemption-Church-at-K-Springs/594163017407405";;;;;;;;;;"http://www.redemptionchurchks.org/uploads/8/4/1/6/84163474/published/rclogobigtrans.png?1500516538";;;;;;;;
1174764;"CHUNKEY MONKEY LEARNING CENTER,LLC";"1040 14TH STREET SUITE A";"CALERA";"AL";35040;"SHELBY";"(205)492-3554";;;"We are a daycare center in calera located behind the post office. Our mission is to provide a stimulating, christian learning environment for children while providing and encouraging a safe environment and allowing for grow physically, emotionally, and socially.";;"https://www.facebook.com/ChunkeyMonkeyLearningCenter/?ref=aymt_homepage_panel";;;;;;;;;;;"6AM - 6:30PM";"6AM - 6:30PM";"6AM - 6:30PM";"6AM - 6:30PM";"6AM - 6:30PM";"Closed";"Closed";
1174775;"SOUTHSIDE BAPTIST CHURCH";"340 HICKS STREET";"MONTEVALLO";"AL";35115;"SHELBY";"(205)476-8083";;;;;;;;;;;;;;;;;;;;;;;
1174774;"DESTINY BY FAITH MINISTRIES";"366 REED WAY";"KIMBERLY";"AL";35091;"JEFFERSON";"(205)201-6123";;;;;;;;;;;;;;;;;;;;;;;"License not renewed"
1174773;"LIBERTY CHRISTIAN CHURCH";"357 RANCH ROAD";"HARPERSVILLE";"AL";35078;"SHELBY";"(205)672-8686";;;;;"https://www.facebook.com/pages/Liberty-Christian-Church/234046593291528";;;;;;;;;;;;;;;;;;
1174772;"GOODWATER HEAD START/ EARLY HEAD START";"725 NEBO STREET";"GOODWATER";"AL";35072;"COOSA";"(256)839-5759";;;;;"https://www.facebook.com/pages/Goodwater-Head-Start/1030413277001522";;;;;;;;;;;;;;;;;;
1174771;"PREMIERE CHRISTIAN ACADEMY";"4411 LLOYD NOLAND PARKWAY";"FAIRFIELD";"AL";35064;"JEFFERSON";"(205)924-5223";"https://www.premiereacademy.org/";"Academymail@aol.com";"Premiere Christian Academy of Excellence focuses on the academic, spiritual, social, emotional, and physical development of each child.  Children engage in a variety of experiences designed to foster their continual growth.";"https://www.premiereacademy.org/";;;;;"x";"x";"x";"x";"x";;"https://www.premiereacademy.org/share/entity-logo-1340588634.png";;;;;;;;
1174770;"LOVEJOY MINISTRIES, INC. - SITE III";"6532 AARON ARONOV DRIVE";"FAIEFIELD";"AL";35064;;"(205)788-6111";;;;;;;;;;;;;;;;;;;;;;;
1174769;"FOREST HILLS COMMUNITY DEVELOPMENT CTR.";"7000 GRASSELLI ROAD";"FAIRFIELD";"AL";35064;"JEFFERSON";"(205)588-5454";"http://www.foundationselfc.org/";"INFO@FOUNDATIONSEARLYLEARNING.ORG";" At Foundations Early Learning & Family Center we believe that all children should have access to a quality preschool education";"http://www.foundationselfc.org/";;"http://www.foundationselfc.org/employment/";"http://www.foundationselfc.org/enrollment/";;;;;"x";"x";;"http://www.foundationselfc.org/wordpress/wp-content/themes/Foundationsnewbt/images/ef569a3dfbc42d2729e65ce0a8871f11_Horizontal.FoundationsLogo.jpg";"8AM - 4PM";"8AM - 4PM";"8AM - 4PM";"8AM - 4PM";"8AM - 4PM";"Closed";"Closed";
1174776;"GRACE DIVINE CHURCH";"705 - 1ST TERRANCE";"PLEASANT GRO";"AL";35127;;"(205)260-8325";;;;;;;;;;;;;;;;;;;;;;;
1174778;"MT. OLIVE BAPTIST CHURCH";"320 Mount Olive Dr";"PELL CITY";"AL";35128;"SAINT CLAIR";"205-405-3855";;"mtobc@icloud.com";"Mt. Olive Baptist Church where everyone is welcome!! A place to call home, bring your family! ";;"https://www.facebook.com/Mt-Olive-Baptist-Church-Chula-Vista-Al-942361289119237/";;;;;;;;;;"https://scontent.fskp2-1.fna.fbcdn.net/v/t1.0-9/13102777_1129861320369232_514528620967291605_n.jpg?_nc_cat=0&oh=4a16321a095ce58ed6357f007c5a0648&oe=5B89DAC1";;;;;;;;
1174777;"KIDS CONNECT LEARNING CENTER LLC";"705 1ST TERRACE";"PLEASANT GRO";"AL";35127;;"(205)530-8519";;;;;;;;;;;;;;;;;;;;;;;"License not renewed"
1174779;"THE WORD CENTER MINISTRIES";"86 SEASONS WAY";"TALLADEGA";"AL";35160;"TALLADEGA";"(256)315-2014";"http://www.thewordcenterministries.net/";"bridgetmerritt@outlook.com";"A non-denominational church whose mission is to produce disciples who BELIEVE, OBEY, and APPLY God's word daily in order to fulfill God's will";"http://www.thewordcenterministries.net/childs-world-christian-daycare/";"https://www.facebook.com/TheWordCenterMinistries/";"http://www.thewordcenterministries.net/job-opportunities/";;;"x";"x";"x";"x";"x";"x";;;;;;;;;
1174780;"COVENANT COMMUNITY CHURCH-SITE VII";"6590 HUSKY PARKWAY";"TRUSSVILLE";"AL";35173;"JEFFERSON";"(205)508-7044 ";"https://covenantclassical.com/";"trussville@ccslion.com";"Covenant Classical School & Daycare is proud to announce our newest campus in Trussville which opened in January 2016! This new building is situated just off the Deerfoot Parkway exit in Trussville. We’re excited to serve families in the Chalkville, Pinson and Clay areas. We are currently taking new enrollment applications for this campus. ";"https://covenantclassical.com/locations/trussville-daycare/";"https://www.facebook.com/ccstrussville";"https://covenantclassical.com/careers/";;"https://covenantclassical.com/parent-resources/";"x";"x";"x";"x";;;"https://covenantclassical.com/wp-content/themes/covenant-classical-schools-and-daycare/images/ccs-logo-mark.svg";;;;;;;;
1174782;"ST. JOHN AME CHURCH";"708 - 15TH STREET NORTH";"BIRMINGHAM";"AL";35203;"JEFFERSON";"(205)251-3764";"http://www.stjohnbirmingham.com/";"sjamec@bellsouth.net";"Saint John is a Word–teaching, life–building church with many vibrant ministries, boards, and auxiliaries to serve you, your family, and our community. We are serious about ministry that helps you meet God, grow closer to Him, and serve Him.";"http://www.stjohnbirmingham.com/";"https://www.facebook.com/Saint-John-AME-Church-Birmingham-Alabama-416219735066116/";;;;;;;;;;"http://www.stjohnbirmingham.com/wp-content/uploads/2017/07/darkredlogofull.png";;;;;;;;
1174781;"WCB FAITH MINISTRIES";"459 MAINT ST STE 101-354";"TRUSSVILLE";"AL";35173;"JEFFERSON";"(205)655-7915";;;;;;;;;;;;;;;;;;;;;;;
1174784;"FIRST MISSIONARY BAPT CH OF EAST THOMAS";"419 - 11TH COURT WEST";"BIRMINGHAM";"AL";35204;"JEFFERSON";"(205)252-2633";"http://fmbcet.org/";" contactus@fmbcet.org";"We are a Bible Believing, Bible Teaching Ministry of Growth and Development that is led by God the Father, God the Son-Jesus Christ and God the Holy Spirit";"http://fmbcet.org/ministries.html";"https://www.facebook.com/First-Baptist-of-East-Thomas-121169611233954/";;;;;;;;;;"http://fmbcet.org/sitebuilder/images/LoveCross-91x77.png";;;;;;;;
1174785;"MILESTONE CHRISTIAN OUTREACH MINISTRY";"2529 - 16TH STREET NORTH";"BIRMINGHAM";"AL";35204;"JEFFERSON";"(205)821-0186";;"mcadaycare@yahoo.com";"Milestone Christian Academy (MCA) provides childcare for ages 6 weeks until 5 years old. We also offer Summer Camp and After-school care";;"https://www.facebook.com/MilestoneChristianAcademy/";;;;"x";"x";"x";"x";"x";"x";"https://scontent.fskp2-1.fna.fbcdn.net/v/t1.0-1/c46.0.200.200/p200x200/17309801_623415187864002_2639898260819323962_n.jpg?_nc_cat=0&oh=639a6b48b89251c5c81dbb3964a759a7&oe=5B8402BD";"6:30AM - 6PM";"6:30AM - 6PM";"6:30AM - 6PM";"6:30AM - 6PM";"6:30AM - 6PM";"Closed";"Closed";
1174783;"BISHOP A. ISAIAH SR. WORSHIP CENTER, INC";"413 - 8TH AVENUE NORTH";"BIRMINGHAM";"AL";35204;"JEFFERSON";"(205)965-3764";;;;;"https://www.facebook.com/Bishop-Isaiah-Jackson-Worship-Center-Inc-108419355851166/";;;;;;;;;;;;;;;;;;
1174791;"THE EXPRESS MINISTRY OF GOD";"9084 PARKWAY EAST";"BIRMINGHAM";"AL";35206;"JEFFERSON";"(205)538-7008";;;;;;;;;;;;;;;;;;;;;;;
1174788;"HOPE MINISTRY CHURCH";"7300 1ST AVENUE NORTH";"BIRMINGHAM";"AL";35206;"JEFFERSON";"(205)593-4737";;;;;;;;;;;;;;;;;;;;;;;"License not renewed"
1174789;"PROJECT SUCCESS CHRISTIAN CHURCH - II";"7604 DIVISION AVENUE";"BIRMINGHAM";"AL";35206;"JEFFERSON";"(205)518-6955";;;;;;;;;;;;;;;;;;;;;;;"License not renewed"
1174790;"SANDY HUNTER";"8108 2ND AVENUE SOUTH";"BIRMINGHAM";"AL";35206;"JEFFERSON";"(205)410-9726";;;;;;;;;;;;;;;;;;;;;;;"License not renewed"
1174786;"TEMPLE EMANU-EL";"2100 HIGHLAND AVENUE";"BIRMINGHAM";"AL";35205;"JEFFERSON";"(205)933-5907";"http://ourtemple.org/";" discoveryschool@ourtemple.org";"The Discovery School is a nurturing and engaging preschool for all children to learn, discover, and imagine.";"http://ourtemple.org/youth-education/discovery-school/";;;"http://ourtemple.org/youth-education/discovery-school/registration/";"http://ourtemple.org/wp-content/uploads/2018/01/2017-2018-School-Year-PacketHandbook.pdf";"x";"x";"x";"x";;;"http://ourtemple.org/wp-content/uploads/2014/09/LOGO-NEWEST-CLEAREST-BEST.jpg";"7AM - 6PM";"7AM - 6PM";"7AM - 6PM";"7AM - 6PM";"7AM - 6PM";"Closed";"Closed";
1174787;"HAPPY KIDS LEARNING CENTER";"8429 8TH AVENUE SOUTH";"BIRMINGHAM";"AL";35206;"JEFFERSON";"(205)838-0803";;;;;"https://www.facebook.com/happykidslearningcenter/";;;;;;;;;;;;;;;;;;
1174795;"NOW FAITH MINISTRY";"1901 WOODLAND AVENUE SW";"BIRMINGHAM";"AL";35211;"JEFFERSON";"(205)202-4157";;;;;;;;;;;;;;;;;;;;;;;
1174794;"NEW FELLOWSHIP MISSIONARY BAPTIST CHURCH";"1901 WOODLAND AVENUE S.W.";"BIRMINGHAM";"AL";35211;"JEFFERSON";"(205)983-7771";;;;;;;;;;;;;;;;;;;;;;;"License not renewed"
1174792;"WALKING ON WATER CHRISTIAN CHURCH";"501 MOUNTAIN DRIVE";"BIRMINGHAM";"AL";35206;"JEFFERSON";"(205)381-3541";;;;;"https://www.facebook.com/pages/Walking-On-Water-Christian-Church/117260951627048";;;;;;;;;;;;;;;;;;
1174793;"LAMBS OF GOD DEVELOPMENT CENTER";"2149 47TH STREET ENSLEY";"BIRMINGHAM";"AL";35208;"JEFFERSON";"(205)781-6919";;;;;;;;;;;;;;;;;;;;;;;
1174802;"FELLOWSHIP BIBLE CHURCH";"341 ROEBUCK DRIVE";"BIRMINGHAM";"AL";35215;"JEFFERSON";"(205)281-2997";"http://fbcbirmingham.com/";"info@fbcbirmingham.com";"Fellowship Bible Church is dedicated to correctly teaching the Word of God so disciples of Jesus Christ can grow in knowledge and understanding and be transformed by the renewing of their minds.";"http://fbcbirmingham.com/index.html";"https://www.facebook.com/pages/biz/Fellowship-Bible-Church-765826573443319/";;;;;;;;;;"http://fbcbirmingham.com/images/new_logo_draft2_whtclrfw.png?crc=26110125";;;;;;;;
1174803;"OASIS PRAYER CENTER CHURCH";"2129 CENTERPOINT PARKWAY";"BIRMINGHAM";"AL";35215;"JEFFERSON";"(205)517-3108";;;;;;;;;;;;;;;;;;;;;;;
1174800;"CAREGIVING INTERNATIONAL CHURCH-SITE II";"1129 SPRINGVILLE ROAD";"BIRMINGHAM";"AL";35215;"JEFFERSON";"(205)201-4096";;;;;;;;;;;;;;;;;;;;;;;
1174801;"ERWIN HEAD START";"532 23RD AVENUE NW";"CENTER POINT";"AL";35215;"Jefferson ";"(205)222-1748";"http://www.headstartprogram.us/";"lwilliams@jcceo.org";"Jefferson County Committee for Economic Opportunity's Head Start Program has sites in Birmingham, Bessemer, Fairfield, Homewood, Jefferson County, Leeds, Midfield, Tarrant, and Warrior, including nine public schools. ";"http://www.headstartprogram.us/program/erwin-head-start-center-jcceo";;;;;;;"x";"x";;;"http://www.headstartprogram.us/images/logo.png";;;;;;;;
1174797;"ANGEL'S OF GOD CHURCH, INC.";"1720 CHERRY AVENUE";"BIRMINGHAM";"AL";35214;"JEFFERSON";"(205)585-5182";;;;;;;;;;;;;;;;;;;;;;;
1174798;"AGAPE WORSHIP MINISTRIES CHURCH";"328 ROBISON DRIVE";"BIRMINGHAM";"AL";35215;"JEFFERSON";"(205)838-5474";"http://www.agapeworshipministries.org/";;"Agape Worship Ministries-Founded by Pastor Eric D. Harris and Miranda Harris. Living to Love People, Living to Worship God, and Living to make a difference";"http://www.agapeworshipministries.org/";"https://www.facebook.com/AgapeWorshipMinistries/";;;;;;;;;;"https://scontent.fskp2-1.fna.fbcdn.net/v/t1.0-1/c21.18.231.231/s200x200/227645_470648609661618_805569600_n.png?_nc_cat=0&oh=333b2230aab7accbf1c7287b1feeac00&oe=5B831306";;;;;;;;
1174799;"BLOOM, GROW, BLOSSOM CHURCH OF GOD, INC.";"374 SUN VALLEY CIRCLE";"BIRMINGHAM";"AL";35215;"JEFFERSON";"(205)856-6269";;;;;;;;;;;;;;;;;;;;;;;
1174796;"PRESCHOOL PARTNERS";"4447 MONTEVALLO ROAD";"BIRMINGHAM";"AL";35213;"JEFFERSON";"(205)951-5151";"https://www.preschool-partners.org/";"preschoolpartners.birmingham@gmail.com";"PreSchool Partners is dedicated to preparing inner-city 3 and 4 year old children and their parents for kindergarten in the Birmingham Public Schools.";"https://www.preschool-partners.org/";"https://www.facebook.com/PreSchoolPartnersBham/";;"https://www.preschool-partners.org/about/registration";;;;"x";"x";;;"https://scontent.fskp2-1.fna.fbcdn.net/v/t1.0-1/c29.0.200.200/p200x200/11988434_856913691073712_643580825857267778_n.jpg?_nc_cat=0&oh=85ddc0bbe582e097dec9e2733bba1a2a&oe=5B7CF91C";"8:15AM - 2:30PM";"8:15AM - 2:30PM";"8:15AM - 2:30PM";"8:15AM - 2:30PM";"8:15AM - 2:30PM";"Closed";"Closed";
1174807;"FAME MINISTRY";"910 - 20TH STREET ENS.";"BIRMINGHAM";"AL";35218;"JEFFERSON";"(205)786-1213";;;;;;;;;;;;;;;;;;;;;;;
1174805;"TRUE LIFE MINISTRY CHURCH, INC.";"1400 - 1ST PLACE N.E.";"BIRMINGHAM";"AL";35215;"JEFFERSON";"(205)283-0870";;;;;;;;;;;;;;;;;;;;;;;"Licence not renewed"
1174806;"SAINT MARK EARLY LEARNING CENTER AND 5K";"2901 COLUMBIANA ROAD";"BIRMINGHAM";"AL";35216;"JEFFERSON";"(205)822-1312";"http://www.saintmarkumc.org/?view=mobile";"asimpson@saintmarkumc.org";"Saint Mark Early Learning Center and 5K is a ministry of Saint Mark United Methodist Church. We serve children ages 3 months to 5 years.";"http://www.saintmarkumc.org/?view=mobile";"https://www.facebook.com/SaintMarkELC/";;;;"x";"x";"x";"x";;;"http://storage.cloversites.com/saintmarkunitedmethodistchurch/site_images/logo_55b7d4f72a385.png";"7:30AM - 4:30PM";"7:30AM - 4:30PM";"7:30AM - 4:30PM";"7:30AM - 4:30PM";"7:30AM - 4:30PM";"Closed";"Closed";
1174804;"SONS OF SALVATION CHURCH, INC";"1627 CENTERPOINT ROAD";"BIRMINGHAM";"AL";35215;"JEFFERSON";"(205)767-3385";;;;;;;;;;;;;;;;;;;;;;;"License not renewed"
1174808;"THE CHURCH OF LOVE - SITE III";"519 - 24TH STREET ENS.";"BIRMINGHAM";"AL";35218;"JEFFERSON";"(205)427-8899";;;;;;;;;;;;;;;;;;;;;;;
1174809;"PRIMROSE SCHOOL OF MEADOWBROOK";"4855 MEADOWBROOK ROAD";"BIRMINGHAM";"AL";35242;"JEFFERSON";"(205)991-3020";"https://www.primroseschools.com/";"kathy@primrosemeadowbrook.com";"Primrose provides the right foundation to build active minds, healthy bodies and happy hearts.";"https://www.primroseschools.com/schools/meadowbrook/";"https://www.facebook.com/primrosemeadowbrook/";"https://www.primroseschools.com/schools/meadowbrook/careers/";;;"x";"x";"x";"x";;;"https://scontent.fskp2-1.fna.fbcdn.net/v/t1.0-1/p200x200/19059069_860815084072835_145707510682762607_n.png?_nc_cat=0&oh=5dabc8202458ded6cf6f859df69b6f13&oe=5B875552";"6:30AM - 6PM";"6:30AM - 6PM";"6:30AM - 6PM";"6:30AM - 6PM";"6:30AM - 6PM";"Closed";"Closed";
1174811;"JERRELL HENDON MINISTRIES";"4521 STERLING GLENN CIR.";"PINSON";"AL";35261;"JEFFERSON";"(205)540-5030";;;;;;;;;;;;;;;;;;;;;;;
1174812;"WEEPING MARY BAPTIST CHURCH";"POST OFFICE BOX 2249 2701";"TUSCALOOSA";"AL";35403;"TUSCALOOSA";"(205)391-0009";"http://www.weepingmarybaptistchurch.com/";"weepingmarybaptistchurch@gmail.com";"We at Weeping Mary would like to thank you for visiting our website and we invite you to come and join us in worship, in fellowship, and in the work that God is doing here in Tuscaloosa.";"http://weepingmarybaptistchurch.com/about.shtml";"https://www.facebook.com/WeepingMaryBaptistChurch/";;;;;;;;;;"https://scontent.fskp2-1.fna.fbcdn.net/v/t1.0-1/c16.0.199.199/p200x200/10917856_416994985122141_2434004982749199000_n.jpg?_nc_cat=0&oh=dd819a15203e471e62586b6f3546a623&oe=5B94D2C2";;;;;;;;
1174810;"CHILDREN'S LIGHTHOUSE";"4731 CHACE CIRCLE";"HOOVER";"AL";35244;"Jefferson ";"(205)224-5437";"https://www.childrenslighthouse.com/";"hoover@childrenslighthouse.com";"Children's Lighthouse provides educational childcare to children ages 6 weeks to 12 years old.";"https://www.childrenslighthouse.com/hooverAL";"https://www.facebook.com/HooverAL1/";"https://www.childrenslighthouse.com/hooverAL/childcare-career-openings";;;"x";"x";"x";"x";;;"https://scontent.fskp2-1.fna.fbcdn.net/v/t1.0-1/p200x200/14051774_1088620227898175_6729612626257072734_n.png?_nc_cat=0&oh=fc3bb0586656209e4428caf099916250&oe=5B7EC3E9";"6:30AM - 6:30PM";"6:30AM - 6:30PM";"6:30AM - 6:30PM";"6:30AM - 6:30PM";"6:30AM - 6:30PM";"Closed";"Closed";
1174815;"LITTLE STEPS CHILD DEVELOPMENT CTR., LLC";"15566 HWY 216";"BROOKWOOD";"AL";35444;"TUSCALOOSA";"(205)632-5980";;"Littlestepscdc@gmail.com";"Our mission at Little Steps is to teach your little ones in a loving environment. And to provide each child with a positive introduction to formal education. We know that children are a special gift from God and we recognize that each child develops at his or her own rate. We provide an environment that is safe, loving and rich in opportunities for learning and growing through age appropriate, hands on activities. We teach from Abeka Christian Curriculum.";;"https://www.facebook.com/Little-Steps-Child-Development-Center-1166116300118769/";;;;"x";"x";"x";"x";;;"https://scontent.fskp2-1.fna.fbcdn.net/v/t1.0-1/p200x200/18341671_1457288221001574_6548656551438385685_n.jpg?_nc_cat=0&oh=b837d2f3d3a27adf4cac93caf4a08176&oe=5B8E45AB";;;;;;;;
1174816;"PURPOSE DRIVEN MINISTRIES";"10719 LANDMARK LANE";"COALING";"AL";35453;;"(205)765-1083";;;"Early Learning & Child Development Center";;"https://www.facebook.com/Purpose-Driven-Childcare-Center-1297988020266502/";;;;"x";"x";"x";"x";"x";"x";"https://scontent.fskp2-1.fna.fbcdn.net/v/t1.0-1/p200x200/17264544_1306881449377159_8120197776800228168_n.jpg?_nc_cat=0&oh=912587c403b97e4c914f2c24398d7c5a&oe=5B894C03";"4:30AM - 12PM";"4:30AM - 12PM";"4:30AM - 12PM";"4:30AM - 12PM";"4:30AM - 12PM";"Closed";"Closed";
1174813;"LITTLE CHAMPS LEARNING ACADEMY";"2928 HARGROVE ROAD E";"TUSCALOOSA";"AL";35405;"TUSCALOOSA";"(205)764-9590";"https://www.littlechampslearningacademy.com/";;"Little Champs Learning Center provides a loving, supportive, safe and educational environment for families who need Daycare and pre-school care for their children. It is our goal to offer a program that meets the intellectual, moral, social, emotional, and physical needs of each child. It is also our mission for each child to know that they are loved by God.";"https://www.littlechampslearningacademy.com/";"https://www.facebook.com/littlechampsinc/";;;;"x";"x";"x";"x";;;"https://scontent.fskp2-1.fna.fbcdn.net/v/t1.0-1/p200x200/14370020_184262115334007_1848739405585291913_n.jpg?_nc_cat=0&oh=a70115cd2893d17df34e00cd7f737a86&oe=5BC276CE";"5AM - 11:30PM";"5AM - 11:30PM";"5AM - 11:30PM";"5AM - 11:30PM";"5AM - 11:30PM";"Closed";"Closed";
1174814;"NORTH RIVER CHRISTIAN ACADEMY";"1785 MCFARLAND BLVD NORTH";"TUSCALOOSA";"AL";35406;"TUSCALOOSA";"(205)330-7923";"http://www.northriverchristian.com/_index.php";"soulfishersx2@gmail.com";"At North River Christian Academy we believe that God is the source of all knowledge. Our aim is to instill moral standards in each child while guiding them in spiritual, mental, physical, and social development. It is our goal that as the home, church, and school work together in unison, students will become self-disciplined and highly motivated young people who will be ready to handle any challenge presented to them. In the pursuit of this goal, we are dedicated to providing the highest educational standards while encouraging each student to develop their own personal relationship with Jesus Christ";"http://www.northriverchristian.com/_index.php";"https://www.facebook.com/NorthRiverChristianAcademy/";"http://www.northriverchristian.com/aboutnrca/careeropportunities.html";"http://www.northriverchristian.com/admissions.html";"http://www.northriverchristian.com/images/Student_Handbook_2017-2018.pdf";;;"x";"x";;"x";"https://scontent.fskp2-1.fna.fbcdn.net/v/t1.0-1/c3.0.200.200/p200x200/402745_475968922437989_885356140_n.jpg?_nc_cat=0&oh=185f40815f315c3592b537ca77905c4c&oe=5BC189B4";"7:30AM - 4PM";"7:30AM - 4PM";"7:30AM - 4PM";"7:30AM - 4PM";"7:30AM - 4PM";"Closed";"Closed";
1174824;"NEW FIRE MINISTRIES CHURCH";"6131 County Hwy 34";"HALEYVILLE";"AL";35565;"WINSTON";"256-244-1575";;"daniel_nfm@yahoo.com";"New Fire Ministries is a group of people coming together to spread the gospel!";;"https://www.facebook.com/New-Fire-Ministries-785784494850990/";;;;;;;;;;"https://scontent.fskp2-1.fna.fbcdn.net/v/t1.0-1/p200x200/14100367_1027803453982425_3262831283920411272_n.jpg?_nc_cat=0&oh=40d02025cb0479dfb2d0592e468e9310&oe=5BC4604E";;;;;;;;
1174825;"CAMP MCDOWELL MAGNOLIA NATURE PRESCHOOL";"105 DELONG ROAD";"NAUVOO";"AL";35578;"WALKER";"(205)792-1969";"https://campmcdowell.com";"mcdowellpreschool@campmcdowell.com";"The mission of the Magnolia Nature Preschool is to provide a kindergarten readiness program allowing children to explore the natural world thereby creating good stewards of God’s earth.";"https://campmcdowell.com/educational-programs/magnolia-nature-school";"https://www.facebook.com/magnolianatureschool/";"https://campmcdowell.com/summer-camps-retreats/work-at-camp";"https://campmcdowell.com/summer-camps-retreats/registrationlogin";;;;"x";"x";;;"https://scontent.fskp2-1.fna.fbcdn.net/v/t1.0-1/13006645_1739734279605667_7208305914228442376_n.png?_nc_cat=0&oh=4b188dac60bdd86034b7c0a1f0359def&oe=5B8A989B";"8AM - 5PM";"8AM - 5PM";"8AM - 5PM";"8AM - 5PM";"8AM - 5PM";"Closed";"Closed";
1174822;"IMAGINATION STATION CHILD DEV. CENTER";"400 MCFARLAND BLVD STE-B";"NORTHPORT";"AL";35476;"TUSCALOOSA";"(205)333-3291";"https://www.imaginationstationcdc.com/";;"Imagination Station is a co-educational Christian preschool which serves children ages 6 weeks through 4 years of age.";"https://www.imaginationstationcdc.com/";"https://www.facebook.com/ImaginationStationCDC";"https://www.imaginationstationcdc.com/employment-applications";"https://www.imaginationstationcdc.com/forms";;"x";"x";"x";"x";;;;"6:30AM - 5:30PM";"6:30AM - 5:30PM";"6:30AM - 5:30PM";"6:30AM - 5:30PM";"6:30AM - 5:30PM";"Closed";"Closed";
1174823;"LITTLE FEET CHRISTIAN PRESCHOOL";"400 THIRD AVENUE S";"JASPER";"AL";35501;"WALKER";"(205)295-5535";;;"Little Feet Christian Preschool is now open in Jasper behind Hardee's. We are currently accepting children from 6 weeks to 5 years.";;"https://www.facebook.com/Little-Feet-Christian-Preschool-1900729383532137/";;;;"x";"x";"x";"x";;;"https://scontent.fskp2-1.fna.fbcdn.net/v/t1.0-1/p200x200/18119583_1903561979915544_8139174116408444582_n.jpg?_nc_cat=0&oh=ec662081fd0c3c2f417735286808ac93&oe=5B7C90D9";"6:30AM - 5:30PM";"6:30AM - 5:30PM";"6:30AM - 5:30PM";"6:30AM - 5:30PM";"6:30AM - 5:30PM";"Closed";"Closed";
1174820;"MOUNDVILLE HEAD START R. B. LAKE CENTER";"39760 HIGHWAY 69";"MOUNDVILLE";"AL";35474;"HALE";"(205)371-4255";"https://www.cspwal.com/";" bwiley@cspwal.com";"The agency's mission is to provide resources and services, which resolve immediate needs and lead to long term self-sufficiency in low-income and vulnerable populations.";"https://www.cspwal.com/location/locationDetail/moundville-head-start-robert-b-lake-center.html";;;;;;;"x";"x";;;"https://www.cspwal.com/images/design/main/cspwal-logo.png";"8AM - 4PM";"8AM - 4PM";"8AM - 4PM";"8AM - 4PM";"8AM - 4PM";"Closed";"Closed";
1174821;"EDUCATION STATION CHILD DEVELOPMENT CTR.";"231 MCFARLAND BLVD.";"NORTHPORT";"AL";35476;"TUSCALOOSA";"(205)345-2837";;;"We are one of the areas premiere Child Development Centers! Bring your infant to 5 year old for an education, fun, and most importantly safe day! We offer hot meals and snacks INCLUDED in our tuition. We have TWO outside playgrounds!";;"https://www.facebook.com/The-Education-Station-Child-Development-Center-141731623176568/";;;;"x";"x";"x";"x";;;"https://scontent.fskp2-1.fna.fbcdn.net/v/t1.0-9/26907475_141733499843047_4989513278095855190_n.jpg?_nc_cat=0&oh=d2ef5d4e46c07827aeff75c7aba0683e&oe=5B7DBB94";"6AM - 6PM";"6AM - 6PM";"6AM - 6PM";"6AM - 6PM";"6AM - 6PM";"Closed";"Closed";
1174817;"LITTLE WAVES ACADEMY";"271 MAIN STREET, SOUTH";"GORDO";"AL";35466;"PICKENS";"(205)354-2045";;;;;;;;;;;;;;;;;;;;;;;
1174818;"LIL ACHIEVER'S ACADEMY LLC";"601 ENERGY CENTER BLVD. S";"NORTHPORT";"AL";35473;"TUSCALOOSA";"(205)632-5801";;;;;;;;;;;;;;;;;;;;;;;"License not renewed"
1174819;"TUMBLEBUS STATION";"902 UNION CHAPEL ROAD";"NORTHPORT";"AL";35473;"TUSCALOOSA";"(205)758-7655";"http://www.tuscaloosatumblebus.com/";"tuscaloosatumblebus@yahoo.com";"TUMBLEBUS is a national program offered in many states and teaches thousands of kids each week. Our goal is to raise each child’s self confidence level by encouraging them to go beyond their own expectations and perceived limitations. TUMBLEBUS helps develop each child’s physical ability and coordination which will carry over into any other sports activity.";"http://www.tuscaloosatumblebus.com/";"https://www.facebook.com/TumblebusStation/";;;;;;"x";"x";;;"https://scontent.fskp2-1.fna.fbcdn.net/v/t1.0-1/p200x200/26239281_1577657769008391_6073984897400519606_n.jpg?_nc_cat=0&oh=20f4abb2ca1638ff98ba58bba8adb4b2&oe=5B82522D";"Closed";"10AM - 12PM";"Closed";"10AM - 12PM";"10AM - 12PM";"10AM - 12PM";"10AM - 12PM";
1174830;"NEW DESTINY MINISTRIES";"27022 US HIGHWAY 72";"ATHENS";"AL";35611;"LIMESTONE";"(256)383-2498";;;;;;;;;;;;;;;;;;;;;;;"License not renewed"
1174828;"EULA FINLEY EARLY LEARNING CENTER";"801 FRETWELL AVENUE";"DECATUR";"AL";35601;"MORGAN";"(256)432-2807";;;;;;;;;;;;;;;;;;;;;;;"License not renewed"
1174829;"LOVE AND JOY MINISTRIES";"1913 OLD MOULTON ROAD S W";"DECATUR";"AL";35601;"MORGAN";"(256)945-1723";;;;;;;;;;;;;;;;;;;;;;;
1174826;"LAMAR COUNTY HEAD/EARLY HEAD START";"9655 HIGHWAY 18";"VERNON";"AL";35592;"LAMAR";"(205)695-6588";"http://www.headstartprogram.us/program/lamar-head-start";" djackson@cspwal.com";;"https://cspwal.com/location/locationDetail/lamar-county-head-start.html";;;;;"x";"x";"x";"x";;;"https://cspwal.com/images/design/main/cspwal-logo.png";"8AM - 4PM";"8AM - 4PM";"8AM - 4PM";"8AM - 4PM";"8AM - 4PM";"Closed";"Closed";
1174827;"AHEAD ACADEMY";"2602 BELTLINE ROAD S.W.";"DECATUR";"AL";35601;"MORGAN";"(256)374-9270";;;"Daycare (Day & Night Shifts)";;"https://www.facebook.com/TheAheadAcademy/";;;;;;;;;;"https://scontent.fskp2-1.fna.fbcdn.net/v/t1.0-1/p200x200/16999145_751331051701361_854576129327289044_n.jpg?_nc_cat=0&oh=54a410cda075b907c99f029f101edd21&oe=5B947F00";;;;;;;;
1174831;"LIVING SPIRIT CHURCH - SITE 2";"1002 BEALE STREET";"FLORENCE";"AL";35630;"LAUDERDALE";"(256)415-0104";"https://livingspiritchurch.wordpress.com/";;"A preschool class with a specific focus on holistic learning and kindergarten readiness. Our class will be for children ages 2-5 ";"https://livingspiritchurch.wordpress.com/living-spirit-child-enrichment-center/";"https://www.facebook.com/Living-Spirit-Centered-for-Spiritual-Oneness-196247317055338/";;;;;"x";"x";"x";;;"https://livingspiritchurch.files.wordpress.com/2015/05/circle.jpg?w=381&h=288&crop=1";"7:30AM - 5:30PM";"7:30AM - 5:30PM";"7:30AM - 5:30PM";"7:30AM - 5:30PM";"7:30AM - 5:30PM";"Closed";"Closed";
1174832;"NATIONS HARVEST CHURCH ASSEMBLIES SITE 2";"16904 STATE HIGHWAY 20";"HILLSBORO";"AL";35643;"LAWRENCE";"(256)353-6261";;;;;;;;;;;;;;;;;;;;;;;"License not renewed"
1174838;"TWO STEPS AHEAD C.D.C.";"147 CASTLE DRIVE";"MADISON";"AL";35758;"MADISON";"(256)715-0388";;;;;;;;;;;;;;;;;;;;;;;
1174839;"BUTTON'S & BOWS CHILD CARE";"11796 HWY 231-431N";"MERIDIANVILL";"AL";35759;;"(256)828-2266";;;;;;;;;;;;;;;;;;;;;;;
1174836;"GOOD SHEPHERD UNITED METHODIST CHURCH";"1418 OLD RAILROAD BED RD";"MADISON";"AL";35757;"MADISON";"(256)232-3331";"http://www.gslife.org/";"mmo@gslife.org";" MMO is a half-day childcare program caring for ages 6 weeks - 5yr Kindergarten.  The Mother's Morning Out Program follows the Madison County School schedule and meets Monday-Friday from 9am-1pm through out the school year.  We offer children a safe and fun environment to play and learn with others. ";"http://www.gslife.org/mmo/";"https://www.facebook.com/GoodShepherdUMC";;;;"x";"x";"x";"x";;;"http://static1.squarespace.com/static/55144110e4b0467a4eabf079/t/5548ebb7e4b0c208be798091/1526390941620/?format=1500w";"9AM - 1PM";"9AM - 1PM";"9AM - 1PM";"9AM - 1PM";"9AM - 1PM";"Closed";"Closed";
1174833;"HAPPILY EVER AFTER INDEPENDENT CHURCH";"6161 COUNTY ROAD 33";"HOLLYWOOD";"AL";35750;"JACKSON";"(256)609-4275";;;;;;;;;;;;;;;;;;;;;;;
1174834;"LIL ANGELS CHILD DEVELOPMENT CENTER";"14092 HWY 231-432 N";"HAZEL GREEN";"AL";35750;"MADISON";"(256)828-9198";;;;;;;;;;;;;;;;;;;;;;;
1174835;"LACEY'S SPRINGS HEAD START";"48 SCHOOL ROAD";"LACEY SPRING";"AL";35754;;"(256)881-4460";"https://www.morgank12.org/LaceysSpringSchool";;"Lacey's Spring School is a schoolwide Title 1 school, with Headstart, PreK and K-8 on campus. Our enrollment is about 365, including around 65 students for whom English is a second language";"https://www.morgank12.org/LaceysSpringSchool";"https://www.facebook.com/laceysspringschool/";;"https://www.morgank12.org/domain/1689";"https://drive.google.com/drive/folders/0BwK68ukqvt1BMktUejVKcno5ZFE";;;"x";"x";;;"https://www.morgank12.org/cms/lib/AL02210138/Centricity/Template/GlobalAssets/images///Logos/eagle%20head.png";"7:30AM - 3:15PM";"7:30AM - 3:15PM";"7:30AM - 3:15PM";"7:30AM - 3:15PM";"7:30AM - 3:15PM";"Closed";"Closed";
1174840;"HARMONY BAPTIST CHURCH";"873 TONEY ROAD";"TONEY";"AL";35773;"MADISON";"(256)859-9385";;"hbc873toneyroad@gmail.com";"Our Mission is the Worship of God and the Work of God";;"https://www.facebook.com/Harmony-Baptist-Church-239255832783384/";;;;;;;;;;;"Open 24/7";"Open 24/7";"Open 24/7";"Open 24/7";"Open 24/7";"Open 24/7";"Open 24/7";
1174841;"KIDTOWNE HUNTSVILLE";"2010 SOUTH POINT PARK CIR";"HUNTSVILLE";"AL";35802;"MADISON";"(256)650-2300";"http://kidtowne.net/";"Kidtowneinfo@gmail.com";"Our center offers the finest facilities available for children ages 6 weeks to 12 years. Our program is designed to prepare and assist your child for their important school years ahead. We offer an extensive school-age program for before and after school and planned activities to keep them busy with age appropriate groupings of ages 5 to 7 year olds and 8 to 12 year olds.";"http://kidtowne.net/contact.html";"https://www.facebook.com/KidTowne-459049297522130/";"http://kidtowne.net/contact.html";"https://services.procareonline.com/WaitList/Waitlist.aspx?key=4580325401";;"x";"x";"x";"x";;;"http://kidtowne.net/images/3.jpg";"6AM - 10PM";"6AM - 10PM";"6AM - 10PM";"6AM - 10PM";"6AM - 00PM";"9AM - 00PM";"12PM - 10PM";
1174846;"UAH EARLY LEARNING CENTER";"4503 UNIVERSITY AVENUE NW";"HUNTSVILLE";"AL";35816;"MADISON";"(256)824-4750";"https://www.uah.edu/";"deana.aumalis@uah.edu";"The UAH Early Learning Center provides the highest quality of early childhood education services to children 6 months up to 6 years of age, giving them a firm foundation for their next educational experience. ";"https://www.uah.edu/early-learning-center";"https://www.facebook.com/RiseSchoolofHuntsville/";;"https://www.uah.edu/early-learning-center/admission";"https://www.uah.edu/early-learning-center/payments";"x";"x";"x";"x";"x";;"https://scontent.fskp2-1.fna.fbcdn.net/v/t1.0-1/p200x200/10347069_728712207165938_3834302752391132844_n.jpg?_nc_cat=0&oh=e346c1a6523b8de50ad7802e0558743c&oe=5BBE4406";"7AM - 5:30PM";"7AM - 5:30PM";"7AM - 5:30PM";"7AM - 5:30PM";"7AM - 5:30PM";"Closed";"Closed";
1174845;"YOUR KIDS AND MINE DAY CARE";"2518 WINCHESTER ROAD #B";"HUNTSVILLE";"AL";35810;"MADISON";"(256)429-9001";"http://your-kids-n-mine-daycare.business.site/";;;"http://your-kids-n-mine-daycare.business.site/";;;;;;;;;;;;;;;;;;;
1174844;"CREATIVE START CHILD DEVELOPMENT CENTER";"136 HARRIS ROAD";"HUNTSVILLE";"AL";35806;"MADISON";"(256)513-8123";;;;;;;;;;;;;;;;;;;;;;;
1174842;"THE VOICE OF GOD FELLOWSHIP";"3215-8TH AVENUE S.W.";"HUNTSVILLE";"AL";35805;"MADISON";"(256)532-0565";;;;;;;;;;;;;;;;;;;;;;;
1174843;"COVENANT COMMUNITY CHURCH, SITE II";"7015 CABELA ROAD N.W.";"HUNTSVILLE";"AL";35806;"MADISON";"(256)382-7323";"https://covenantclassical.com";"ccsrp@ccslion.com";"Covenant Classical School & Daycare Research Park is located at the western edge of Research Park just off I-565, convenient for many Madison area families! We are currently accepting enrollment applications for infants-preschool & kindergarten. ";"https://covenantclassical.com/locations/research-park-daycare/";"https://www.facebook.com/CovenantClassicalSchoolsResearchPark";"https://covenantclassical.com/careers/";;"https://covenantclassical.com/parent-resources/";"x";"x";"x";"x";"x";;"https://covenantclassical.com/wp-content/themes/covenant-classical-schools-and-daycare/images/ccs-logo-mark.svg";"7AM - 6PM";"7AM - 6PM";"7AM - 6PM";"7AM - 6PM";"7AM - 6PM";"Closed";"Closed";
1174847;"HARVESTFIELD CHURCH";"4533 RAINBOW DRIVE";"RAINBOW CITY";"AL";35906;"ETOWAH";"(256)442-9361";"http://www.harvestfieldchurch.org/";"Tracie@harvestfieldchurch.org";"Much more than a Mother's Day Out, the HFC Preschool Program - Teaches and prepares children for ""big school""";"http://www.harvestfieldchurch.org/children/hfcpreschool";"https://www.facebook.com/Harvestfield-Preschool-757282111032678/";;;;"x";"x";"x";"x";;;"https://scontent.fskp2-1.fna.fbcdn.net/v/t1.0-1/p200x200/185435_10150380808085828_7978676_n.jpg?_nc_cat=0&oh=e70a690c7bc290bac8b672c100bf5c4a&oe=5B84A9F0";"8AM -5PM";"8AM -5PM";"8AM -5PM";"8AM -5PM";"8AM -5PM";"Closed";"Closed";
1174849;"CRADLE TO CRAYONS";"6700 COUNTY HWY 36";"ALTOONA";"AL";35952;"ETOWAH";"(205)466-3760";;;;;;;;;;;;;;;;;;;;;;;"Licence not renewed"
1174848;"TWELFTH STREET BAPTIST CHURCH";"800 W. GRAND";"RAINBOW CITY";"AL";35906;"ETOWAH";"(256)547-9578";"http://www.12th.co/";"MistyP@12th.co";"Our Preschool serves children 6 weeks to 4 years old. We follow a traditional school year from August to May and we operate according to the Etowah County School System Calendar. ";"http://www.12th.co/preschool/";"https://www.facebook.com/12thStBaptist/";;;"http://12th.church/wp-content/uploads/2017/04/TheHandbook.pdf";"x";"x";"x";"x";;;"https://scontent.fskp2-1.fna.fbcdn.net/v/t1.0-1/p200x200/26055767_10155304894088036_6440866952829757991_n.png?_nc_cat=0&oh=6a0cefc6857d81122fb33aa19d109d5a&oe=5B896BC4";"8:30AM - 5:30PM";"8:30AM - 5:30PM";"8:30AM - 5:30PM";"8:30AM - 5:30PM";"8:30AM - 5:30PM";"Closed";"Closed";
1174850;"LIL' EXPLORER'S";"1096 W. THIRD STREET";"LUVERNE";"AL";36049;"CRENSHAW";"(334)429-1713";;;;;;;;;;;;;;;;;;;;;;;"Closed"
1174851;"MACEDONIA CHRISTIAN CHURCH";"2685 MACEDONIA ROAD";"TALLASSEE";"AL";36078;"ELMORE";"(334)312-6963";;;;;;;;;;;;;;;;;;;;;;;"License not renewed"
1174852;"MT. MARIAH BAPTIST CHURCH";"160 ELMWOOD DRIVE";"UNION SPRING";"AL";36089;;"(334)306-2194";;;;;;;;;;;;;;;;;;;;;;;"License not renewed"
1174855;"TRINITY PRESBYTERIAN CHURCH";"1728 SOUTH HULL STREET";"MONTGOMERY";"AL";36104;"MONTGOMERY";"(334)262-8830";"http://www.trinitypca.org/";;"The Trinity Presbyterian Church Preschool is a dynamic, loving, Christian learning environment for your children ages four months through five years old. ";"http://www.trinitypca.org/grow/preschool/";"https://www.facebook.com/pg/hullandfelder/about/";;"http://www.trinitypca.org/grow/preschool/tuition-and-registration/";;"x";"x";"x";"x";;;"http://www.trinitypca.org/wp-content/uploads/2017/06/logo.png";"9:30AM - 1:30PM";"9:30AM - 1:30PM";"9:30AM - 1:30PM";"9:30AM - 1:30PM";"9:30AM - 1:30PM";"Closed";"Closed";
1174853;"CITY OF RESTORATION MINISTRIES III";"31 EAST HANNON STREET";"MONTGOMERY";"AL";36104;"MONTGOMERY";"(334)676-2516";;"corestoration@ymail.com";"Our mission involves creating a church that can be a safe gathering place for God's people to come and experience the grace and forgiveness of God;";;"https://www.facebook.com/CoRestoration/";;;;;;;;;;"https://scontent.fskp2-1.fna.fbcdn.net/v/t31.0-8/860197_539067449460376_180659709_o.jpg?_nc_cat=0&oh=8742d93495620b1783eb199b2f8c5f9b&oe=5BC0E35E";;;;;;;;
1174854;"THE HEART OF WORSHIP MINISTRY";"934 Key St";"MONTGOMERY";"AL";36104;"MONTGOMERY";"334-202-2392";;;"We are a Church of love caring for the lost; winning souls no matter the cost! We endeavor to worship the Lord with our whole hearts in SPIRIT & in FAITH!";;"https://www.facebook.com/Heart-of-Worship-Ministry-209958672673699/";;;;;;;;;;;;;;;;;;
1174861;"NEW WALK OF LIFE CHURCH";"2431 Council St";"MONTGOMERY";"AL";36108;"MONTGOMERY";"(334)398-0467";"https://www.newwalkoflifechurch.org/";"Ken@cgmlife.org ";"M. A. P. is a ministry about people redirecting lives.";"https://www.newwalkoflifechurch.org/youth-ministry";"https://www.facebook.com/newwalkoflife.org/";;;;;;;;;;"https://static.wixstatic.com/media/1e6987_273ed1a6bb654681ba20db986eed5a9b~mv2.png/v1/crop/x_0,y_0,w_1188,h_1207/fill/w_197,h_191,al_c,usm_0.66_1.00_0.01/1e6987_273ed1a6bb654681ba20db986eed5a9b~mv2.png";;;;;;;;
1174862;"SOUTHLAWN ELEMENTARY HEAD START";"5225 PATRICIA LN";"MONTGOMERY";"AL";36108;"MONTGOMERY";"(334)284-8028";"http://www.southlawnelem.mps-al.org/";;"We will engage, educate and inspire our students to succeed in college, career and beyond!";"http://www.southlawnelem.mps-al.org/";;;;"http://www.mps.k12.al.us/for_parents/";;;"x";"x";;;"http://www.southlawnelem.mps-al.org/UserFiles/Servers/Server_402423/Templates/Southlawn_Elementary_logo.png";"7:45AM -3PM";"7:45AM -3PM";"7:45AM -3PM";"7:45AM -3PM";"7:45AM -3PM";"Closed";"Closed";
1174858;"GREATER BIBLICAL FELLOWSHIP";"4665 MOBILE HIGHWAY";"MONTGOMERY";"AL";36108;"MONTGOMERY";"(334)281-4654";;;;;;;;;;;;;;;;;;;;;;;"License not renewed"
1174859;"KERSHAW HEAD START";"2225 W. FAIRVIEW AVENUE";"MONTGOMERY";"AL";36108;"MONTGOMERY";"(334)263-3474";"https://mcaccdcinc.org/programs/head-start-2/";;;;;;;;;;;;;;;;;;;;;;
1174860;"LATOYA BOYD HOME DAYCARE";"311 LINDA LANE";"MONTGOMERY";"AL";36108;"MONTGOMERY";"(334)233-3350";;;;;;;;;;;;;;;;;;;;;;;
1174856;"ST. JAMES BAPTIST CHURCH - HOLT CROSSING";"3030 VAUGHN ROAD";"MONTGOMERY";"AL";36106;"MONTGOMERY";"(334)272-0822";"https://www.stjameshcbc.com/";"administration@stjameshcbc.com";"Helping children grow toward the light of Chris";"https://www.stjameshcbc.com/kingdom-kids";"https://www.facebook.com/stjames.bchc?ref=bookmarks";;;;;;"x";"x";;;"https://static.wixstatic.com/media/551d7d_131a01e1eb6d4b46889b096fc62c2549.png/v1/fill/w_243,h_238,al_c,lg_1/551d7d_131a01e1eb6d4b46889b096fc62c2549.png";;;;;;;;
1174857;"COMMON GROUND MONTGOMERY";"1516 MOBILE ROAD";"MONTGOMERY";"AL";36108;"MONTGOMERY";"(334)593-5803";"https://cgm.life/";"commonground@cgmlife.org";"The Pre-K is offered at no cost to parents. Children must be 4 years-old by September 1 of the calendar year.";"https://cgm.life/pre-k/";"https://www.facebook.com/cgmlife/";;;;;;;"x";;;"https://scontent.fskp2-1.fna.fbcdn.net/v/t1.0-1/p200x200/10995625_10153194443193397_7557204118931464250_n.png?_nc_cat=0&oh=fad575290888ab4326b8ef18f89b2a86&oe=5B8BBD50";"7:45AM - 2:30PM";"7:45AM - 2:30PM";"7:45AM - 2:30PM";"7:45AM - 2:30PM";"7:45AM - 2:30PM";"Closed";"Closed";
1174868;"EBENEZER AME ZION CHURCH";"2525 EAST SOUTH BLVD.";"MONTGOMERY";"AL";36116;"MONTGOMERY";"(334)221-2503";;;;;;;;;;;;;;;;;;;;;;;"License not renewed"
1174869;"TRUE WORD OF LIFE CHURCH SITE I";"3975 EASTERN BLVD";"MONTGOMERY";"AL";36116;"MONTGOMERY";"(334)649-1065";;;"Seeking first God's Righteousness, bring souls to repentance and souls into the saving knowledge of Jesus Christ.";;"https://www.facebook.com/TrueWordofLife/";;;;;;;;;;"https://scontent.fskp2-1.fna.fbcdn.net/v/t1.0-1/c63.0.175.175/11230672_1068720089819308_1888150083542859890_n.jpg?_nc_cat=0&oh=634b26764c78de2b044d3cdfb932da48&oe=5B8B9409";;;;;;;;
1174866;"BIBLE VERSE CHURCH";"2601 EAST SOUTH BLVD.";"MONTGOMERY";"AL";36116;"MONTGOMERY";"(334)201-3795";;;;;;;;;;;;;;;;;;;;;;;"License not renewed"
1174867;"DIVINE TOUCH MINISTRIES WORLDWIDE";"2415 EAST SOUTH BLVD UNIT";"MONTGOMERY";"AL";36116;"MONTGOMERY";"(334)356-3566";"http://www.divinetouchministries.com/";"info@divinetouchministries.com";"This department of Divine Touch Ministries Worldwide is equipped for infants, toddlers, and preschool. It is safe for kids and they are taught and watched over by qualified teachers and it extends from zero to kindergarten.";"http://www.divinetouchministries.com/";"https://www.facebook.com/divinetouchministriesworldwide/";;;;"x";"x";"x";"x";;;"https://scontent.fskp2-1.fna.fbcdn.net/v/t1.0-1/c0.0.200.200/p200x200/11889560_757761574335097_3824469989855773919_n.jpg?_nc_cat=0&oh=8790b1b1f5f7294307036d4625fbda24&oe=5BC4A025";;;;;;;;
1174865;"PASSION OF CHRIST FAMILY WORSHIP CENTER";"830 COLISEUM BLVD";"MONTGOMERY";"AL";36109;"MONTGOMERY";"(334)649-4261";"http://passionofchristfwc.org/";"info@passionofchristfwc.com";"POC’s nursery is a ministry where we provide a safe and loving learning environment for our preschoolers ages 1-4 during worship service. Our goal is to help build the foundation for our preschoolers to begin to understand the Gospel of Christ and build a closer relationship with Jesus and one another";"http://passionofchristfwc.org/nursery.htm";"https://www.facebook.com/Passion-Of-Christ-Family-Worship-Center-118448931579783/";;;;;"x";"x";"x";;;"http://passionofchristfwc.org/index_htm_files/4555.jpg";;;;;;;;
1174864;"BLAKELYN'S DAYCARE";"435 DALRAIDA ROAD";"MONTGOMERY";"AL";36109;"MONTGOMERY";"(334)220-3331";;"lynnehmoody@yahoo.com";"Licensed to keep children from infant to 14 years of age. ";;"https://www.facebook.com/Blakelyns-Daycare-153344334721221/";;;;"x";"x";"x";"x";;;"https://scontent.fskp2-1.fna.fbcdn.net/v/t1.0-1/p200x200/19225178_1353342328054743_1589922818938615035_n.jpg?_nc_cat=0&oh=ed2cf0b759d757a64b54490aca7e0a21&oe=5B77F473";"7:30AM - 5:30PM";"7:30AM - 5:30PM";"7:30AM - 5:30PM";"7:30AM - 5:30PM";"7:30AM - 5:30PM";"Closed";"Closed";
1174863;"ALL ABOUT KIDZ LEARNING DEV CENTER";"3305 HARRISON ROAD";"MONTGOMERY";"AL";36109;"MONTGOMERY";"(334)676-3100";;;;;;;;;;;;;;;;;;;;;;;
1174873;"VICTORY BAPTIST CHURCH";"6004 EAST SHIRLEY LANE";"MONTGOMERY";"AL";36117;"MONTGOMERY";"(334)313-5040";;;;;;;;;;;;;;;;;;;;;;;"License not renewed"
