"id";"name";"address";"city";"state";"zip";"county";"phone";"main url";"email";"details";"location website";"facebook page";"career/employment url";"application/registration url";"parent handbook url";"infant (under 12 months)";"toddler (1-2yrs)";"preschools (2-3yrs)";"pre-kindergarden(4yr)";"before/afterschools";"camps";"logo url";"monday hour";"tuesday hour";"wednesday hour";"thursday hour";"friday hours";"saturday hour";"sunday hour";"notes"
1176147;"Alpha Best @ Overlook Elementary,";"3298 Curtis Drive";"Temple Hills";"MD";20748;"PRINCE GEORGE'S";"(336) 712-3258";"http://www.pgcps.org/overlook/parents.htm";" lharrod@alphabest.org";;;;;;;;;;;;;;;;;;;;;
1176148;"Bright Beginnings Childcare";"216 N Cleveland Avenue";"Hagerstown";"MD";21740;"WASHINGTON";"(301) 302-3645";"https://www.brightbeginningschildcare.center/";"jnjmaddy@yahoo.com";"Bright Beginnings Childcare is a licensed center. We offer care for ages 6 weeks to 12 years old. Breakfast, snacks, and drinks are provided. Your child must bring a packed lunch every day. We are open Monday thru Friday 7am to 5pm. ";"https://www.brightbeginningschildcare.center/";"https://www.facebook.com/Bright-Beginnings-Childcare-117624274928256/";;;;"x";"x";"x";"x";;;"https://static.wixstatic.com/media/1b9787_a8c9f439227b46b9923544627e1cab83~mv2.png/v1/fill/w_126,h_175,al_c,usm_0.66_1.00_0.01/1b9787_a8c9f439227b46b9923544627e1cab83~mv2.png";"7AM - 5PM";"7AM - 5PM";"7AM - 5PM";"7AM - 5PM";"7AM - 5PM";"Closed";"Closed";
1176149;"YMCA- Jonathan Hager Before and After School";"12615 Sedgwick Way";"Hagerstown";"MD";21740;"WASHINGTON";"(301) 739-3990";"http://ymcahagerstown.org/";"djs@ymcahagerstown.org";"Offered at Lincolnshire, Pangborn, Bester, Salem, Emma K. Doub,  Johnathan Hager, Eastern, Ruth Ann Monroe and Williamsport Elementary. Quiet games and arts and crafts make up our morning program.";"http://ymcahagerstown.org/youth/school-age-program";;;;;;;;"x";;;"http://ymcahagerstown.org/wp-content/uploads/v4/logo-top.png";"6AM - 6PM";"7AM - 6PM";"7AM - 6PM";"7AM - 6PM";"7AM - 6PM";"Closed";"Closed";
1176150;"My Favorite Place II";"22527 Jefferson Blvd";"Smithsburg";"MD";21783;"WASHINGTON";"(301) 824-7003";"http://my-favorite-place-day-care-center.business.site/";"Myfavoriteplace@icloud.com";"Day Care Center in Smithsburg";"http://my-favorite-place-day-care-center.business.site/";"https://www.facebook.com/Myfavoriteplace21783/";;;;;;;;;;;"6AM - 6PM";"6AM - 6PM";"6AM - 6PM";"6AM - 6PM";"6AM - 6PM";"Closed";"Closed";
1176151;"Chesapeake Martial Arts Child Care Center";"11070 Cathell Road";"Berlin";"MD";21811;"WORCESTER";"(410) 208-4100";"http://www.cmakarate.com/";"jim@cmakarate.com";"Our mission is to make our students more successful in life through the practice of Tae Kwon Do at our school. We do this by teaching our martial arts as a complete discipline (mind, body, spirit), which in addition to developing physical defense, encourages the formation of high personal standards and respect for fellow men and women.";"http://www.cmakarate.com/after-school-program.php";"https://www.facebook.com/CmaKarate/";;;;;;;;"x";;"http://www.cmakarate.com/images/index/logo.png";"7AM - 9PM";"7AM - 9PM";"7AM - 9PM";"7AM - 9PM";"7AM - 9PM";"Closed";"Closed";
1176152;"Coastal Early Learning Center";"9729 Seahawk Road";"Berlin";"MD";21811;"WORCESTER";"(410) 973-2720";"http://www.coastalearlylearning.com/";"carrie@coastalearlylearning.com";"The habits and skills a child develops in a Montessori classroom last a lifetime. Our chief objectives are to teach your children the basic skills necessary for intellectual development, to foster a love of learning, and to promote appropriate behavior with respect for their peers. We strive to help each child become a well-rounded and prepared adult of tomorrow.";"http://www.coastalearlylearning.com/";"https://www.facebook.com/CoastalEarlyLearningCenter/";"http://www.coastalearlylearning.com/employment-1/";"http://www.coastalearlylearning.com/take-action/";;"x";"x";"x";"x";;"x";"http://static1.squarespace.com/static/53f11fd5e4b0b3651bf116ad/t/53f4ea78e4b0f15c77b95e8c/1524680816875/?format=1500w";"7AM - 5:30PM";"7AM - 5:30PM";"7AM - 5:30PM";"7AM - 5:30PM";"7AM - 5:30PM";"Closed";"Closed";
1176153;"HRDC Cresaptown Pre-K Expansion";"13202 Sixth Avenue";"Cresaptown";"MD";21502;"Allegany";"(301) 783-1727";"https://www.acpsmd.org/Domain/34";"rroby@alleganyhrdc.org";"HRDC Pre-K is a federally funded program that implements education, health and parent involvement into a secure, productive environment.";"https://alleganyhrdc.org/hrdc-pre-k/";"https://www.facebook.com/AlleganyHRDC/";"https://alleganyhrdc.org/employment-opportunties/";;;;;;"x";;;"https://alleganyhrdc.org/wp-content/uploads/2017/08/hrdc_head-2.gif";;;;;;;;
1176154;"HRDC Allegany College Head Start";"12423 Old Willow Brook Rd";"Cumberland";"MD";21502;"ALLEGANY";"(301) 783-1727";"https://alleganyhrdc.org/head-start/";"rroby@alleganyhrdc.org";"HRDC Head Start is a federally funded program that implements education, health and parent involvement into a secure, productive environment.";"https://alleganyhrdc.org/head-start/";"https://www.facebook.com/AlleganyHRDC/";"https://alleganyhrdc.org/employment-opportunties/";;;;;"x";"x";;;"https://alleganyhrdc.org/wp-content/uploads/2017/08/hrdc_head-2.gif";"7:30AM - 4:30PM";"7:30AM - 4:30PM";"7:30AM - 4:30PM";"7:30AM - 4:30PM";"7:30AM - 4:30PM";"Closed";"Closed";
1176155;"Saint Joseph School Pre-K / School Age,";"105 Church Lane";"Cockeysville";"MD";21030;"BALTIMORE";"(410) 683-0600";"https://school.sjpmd.org/";"info@sjpmd.org";"St. Joseph School embraces the whole child in a Catholic, faith-filled learning environment of academic excellence. In partnership with the student’s family and the parish community, our school helps each student to grow spiritually, intellectually, morally, and socially in pursuit of his or her individual potential.";"https://school.sjpmd.org/";"https://www.facebook.com/St.JosephSchoolCockeysvilleMD/";"https://school.sjpmd.org/resources/forms-documents";"https://school.sjpmd.org/admissions/apply-now";"https://school.sjpmd.org/resources/forms-documents";;;"x";"x";;;"https://school.sjpmd.org/assets/imgs/logo.png";"8AM - 3:30PM";"8AM - 3:30PM";"8AM - 3:30PM";"8AM - 3:30PM";"8AM - 3:30PM";"Closed";"Closed";
1176156;"Saint Michael's School Pre-K,";"16560 Three Notch Road";"Ridge";"MD";20680;"SAINT MARYS";"(301) 872-5454";"http://www.saint-michaels-school.org/";"robin.pajak@saint-michaels-school.org";"The fundamental purpose of Saint Michael's Catholic School is to assist the church in its ministry of a christian education, and take responsibility with parents to develop the education of the whole child through word, worship, and service.";"http://www.saint-michaels-school.org/";"https://www.facebook.com/St-Michaels-School-150978838260977/";;"http://www.saint-michaels-school.org/AdmissionsTuition2017-2018.html";;;;"x";"x";;;"https://scontent.fskp2-1.fna.fbcdn.net/v/t1.0-1/p200x200/19400122_1921527227872787_7033462268769940256_n.jpg?_nc_cat=0&oh=5e820442d85378f20d162ee8ee0cd633&oe=5B881195";"8AM - 3PM";"8AM - 3PM";"8AM - 3PM";"8AM - 3PM";"8AM - 3PM";"Closed";"Closed";
1176177;"A Step Above Learning Center";"4220 Jimmy Carter Boulevard";"Norcross";"GA";30093;"GWINNETT";"(770)674-1285";"http://www.astepabovelearningcenter.com/";" astepabove2017@gmail.com";"A Step Above Learning Center firmly believes in providing a safe environment that promotes a respectful and warm relationship with the children and families involved with our facility. Located in Norcross, Georgia, we are proud to say that we have consistently met the needs of the children and families who have acquired our services.";"http://www.astepabovelearningcenter.com/";;;"http://www.astepabovelearningcenter.com/child-care-registration";;"x";"x";"x";"x";"x";"x";"http://www.astepabovelearningcenter.com/wp-content/themes/astepabove/images/comp-logo.png";"7AM - 7PM";"7AM - 7PM";"7AM - 7PM";"7AM - 7PM";"7AM - 7PM";"Closed";"Closed";
1176178;"A Step of Faith Christian Academy II";"4810 Flat Shoals Road";"Union City";"GA";30291;"FULTON";"(678) 654-8104";;;"We offer 24hr 7 days a week service. We have 3 shifts, day, evening and nights. The centers are monitored and code entry. We have 2 centers one ages 6 weeks - 4 years old. The second center offers 4 years - 14 years old. Pre-k and after school care. That center hours are 6:30am- 6:30 pm, Monday-Friday. ";;"https://www.facebook.com/A-Step-of-Faith-Learning-Center-73455914547/";;;;"x";"x";"x";"x";;;"https://scontent.fskp2-1.fna.fbcdn.net/v/t1.0-1/c33.0.200.200/p200x200/3107_73459519547_1930939_n.jpg?_nc_cat=0&oh=d63f02e808901537e44de0661c785da9&oe=5B7B45D4";"Open 24/7";"Open 24/7";"Open 24/7";"Open 24/7";"Open 24/7";"Open 24/7";"Open 24/7";
1176174;"A Gift From Heaven Academy";"4195 Welcome All Road";"Atlanta";"GA";30349;"FULTON";"(404) 205-5015";"http://agfha.com/";;"The purpose of A Gift from Heaven is to provide safe, high-quality childcare to families with children between the ages of 12 months through 12 years.";"http://agfha.com/";"https://www.facebook.com/agiftfromheavenacademy/";"http://agfha.com/wp-content/uploads/2016/05/AGFHA_Employee_Application.pdf";"http://agfha.com/forms/";"http://agfha.com/wp-content/uploads/2018/04/AGFHA-Parents-Handbook-April-2018.pdf";;"x";"x";"x";;;"http://agfha.com/wp-content/uploads/2016/05/GIFT-FROM-HEAVEN-new.png";"6:30AM - 6:30PM";"6:30AM - 6:30PM";"6:30AM - 6:30PM";"6:30AM - 6:30PM";"6:30AM - 6:30PM";"Closed";"Closed";
1176175;"A Mother's Love Learning Center";"4484 Covington Highway  Suite A107";"Decatur";"GA";30035;"DEKALB";"(404) 709-2101";;"A Mother's Love Learning Center strives to provide quality childcare,";;;"https://www.facebook.com/amotherslovelearningcenter/";;;;"x";"x";"x";"x";;"x";"https://scontent.fskp2-1.fna.fbcdn.net/v/t1.0-1/p200x200/16864596_1363917656964101_7610495733564865154_n.jpg?_nc_cat=0&oh=14f39b7c05326d7432afb7bd28ccff46&oe=5B783848";;;;;;;;
1176176;"A New Generation Academy";"2119 Dothan Road";"Bainbridge";"GA";39817;"DECATUR";"(229) 246-0113";"http://bainbridgechamber.chambermaster.com/list/member/a-new-generation-academy-2511.htm";;;;;;;;;;;;;;;;;;;;;;
1176173;"A Child's World Afterschool Academy";"407 W 9th St ";"Waynesboro";"GA";30830;"BURKE";"(706) 554-0945";;"acwwaynesboro@gmail.com";"We are committed to providing the highest quality of early childhood education.We maintain a safe & nurturing environment that caters to the whole child.";;"https://www.facebook.com/A-Childs-World-Daycare-Academy-Waynesboro-160934430594941/";;;;;;;;"x";;"https://scontent.fskp2-1.fna.fbcdn.net/v/t1.0-1/p200x200/16508247_1374402209248151_7092902858995812498_n.jpg?_nc_cat=0&oh=4d9f4f3fbd08e7f4f9afb5c9555976e4&oe=5B7AB157";"4AM - 8PM";"4AM - 8PM";"4AM - 8PM";"4AM - 8PM";"4AM - 8PM";"Closed";"Closed";
1176189;"Akim Academy";"4065 Hwy. 441 South";"Douglas";"GA";31535;"COFFEE";"(912) 393-4669";"https://douglasnow.com/index.php/community/item/4436-akim-academy-holds-ribbon-cutting";;"Akim Academy staff teach strong moral principles in a faith-based environment, provide bilingual language development, prepare on site meals";;;;;;"x";"x";"x";"x";"x";;;"6:30AM - 6PM";"6:30AM - 6PM";"6:30AM - 6PM";"6:30AM - 6PM";"6:30AM - 6PM";"Closed";"Closed";
1176190;"Albany Area YMCA/Easter Seals Afterschool";"1906 Palmyra Road";"Albany";"GA";31701;"DOUGHERTY";"(229) 435-2926";"http://www.albanyareaymca.org";"smitchell@albanyareaymca.org";"Combining the caring and expertise of the YMCA and Easter Seals, Y.E.S. Inclusivve Afterschool is an innovative afterschool program nurturing the spirit, mind, and body of children of all abilities from ages 5 to 17.";"http://www.albanyareaymca.org/cms-view-page.php?page=yes-inclusive-afterschool";"https://www.facebook.com/albanyareaymca";;;"http://www.albanyareaymca.org/albanyareaymca/site_files/editor_files/image/file/2017-2018%20YES%20Flyer(4).pdf";;;;"x";;;"https://scontent.fskp2-1.fna.fbcdn.net/v/t1.0-1/p200x200/13263803_1574173626209619_553151035568766819_n.jpg?_nc_cat=0&oh=93c9839885b44f94c55a3ec67807dfb3&oe=5BBAE521";"2:30PM - 6PM";"2:30PM - 6PM";"2:30PM - 6PM";"2:30PM - 6PM";"2:30PM - 6PM";"Closed";"Closed";
1176186;"Agape Academy";"2704 Centerville Highway";"Snellville";"GA";30078;"GWINNETT";"(678) 691-3882";"http://snellville-ga.formula-usa.com/agape-academy/";;;;;;;;;;;;;;;"6AM - 7:30PM";"6AM - 7:30PM";"6AM - 7:30PM";"6AM - 7:30PM";"6AM - 7:30PM";"Closed";"Closed";
1176187;"Ahava Early Learning Center";"600 Peachtree Battle Avenue";"Atlanta";"GA";30327;"FULTON";"(404) 900-9411";"http://www.ahavalearning.org/";"shalom@ahavalearning.org";"At Ahava, we are inspired by the Reggio Emilia philosophy, devoted to providing children with a multi-sensory, child-centered experience for learning and play, which seamlessly combines real-world exploration with Jewish values to help them develop to their highest potential in a diverse and caring community of lifelong learners. Ahava’s foundation and future are woven intrinsically into the fabric of the Ahavath Achim Synagogue community.";"http://www.ahavalearning.org/";"https://www.facebook.com/ahavaearlylearning/";;"https://interland3.donorperfect.net/weblink/weblink.aspx?name=ahavathap&id=1";"http://www.ahavalearning.org/admissions/hours-tuition/";"x";"x";"x";"x";;;"http://www.ahavalearning.org/wp-content/uploads/2017/04/ahava-logo-2.png";"7:30AM - 6PM";"7:30AM - 6PM";"7:30AM - 6PM";"7:30AM - 6PM";"7:30AM - 6PM";"Closed";"Closed";
1176188;"Akeba Academy and Day Care Inc";"2606 Altama Ave";"Brunswick";"GA";31520;"GLYNN";"(912) 289-2725";"http://www.akebaacademy1.com/";"director@akebaacademy1.com";"At Akeba Academy, our promise to our parents and children is to Educate. Develop. and provide Quality-from every aspect of our program.";"http://www.akebaacademy1.com/";"https://www.facebook.com/AkebaAcademy/";"http://www.akebaacademy1.com/Employment-Opportunities.html";"http://www.akebaacademy1.com/Register-Online-.html";;"x";"x";"x";"x";;;"http://www.akebaacademy1.com/bg-1-141469.jpeg?u=285801959";"6:30AM - 12PM";"6:30AM - 12PM";"6:30AM - 12PM";"6:30AM - 12PM";"6:30AM - 12PM";"7:30AM - 5:30PM";"Closed";
1176185;"Advanced Kids Academy 2";"1050 Linwood Boulvard";"Columbus";"GA";31904;"MUSCOGEE";"(706) 780-1238";;;;;;;;;;;;;;;;;;;;;;;
1176179;"A1-Supreme Academy";"725 King Road";"Riverdale";"GA";30274;"CLAYTON";"(770) 996-9977";;;;;;;;;;;;;;;;;;;;;;;
1176180;"ABC Learning Tree";"6 Amberwood Trail";"Rome";"GA";30165;"FLOYD";"(706) 232-7422";;;"At ABC Learning Tree we love and care about our children. All of our teachers are certified degreed professionals. Come see why we are different!";;"https://www.facebook.com/ABC-Learning-Tree-Preschool-274626893021896/";;;;;"x";"x";"x";;;"https://scontent.fskp2-1.fna.fbcdn.net/v/t1.0-1/p200x200/20800090_274627756355143_1522205601894152045_n.png?_nc_cat=0&oh=9a05eb18ba030f898f82f4a898633948&oe=5B7A0BE5";"6:30AM - 6PM";"6:30AM - 6PM";"6:30AM - 6PM";"6:30AM - 6PM";"6:30AM - 6PM";"Closed";"Closed";
1176199;"APEC After School Enrichment @ Wolf Creek";"4440 Derrick Road";"Atlanta";"GA";30349;"FULTON";"(404) 721-6414";"https://www.apecprep.com/after-school-enrichment/";;"Constructive programing for children including homework assistance and recreational activities.";"https://www.apecprep.com/wolf-creek-elementary/";;;"https://app.jackrabbitclass.com/regv2.asp?id=518309&Loc=WolfCreek";"https://www.apecprep.com/forms/";;;;;"x";;"https://www.apecprep.com/wp-content/uploads/2012/06/apeclogosmall1.png";"2PM - 7PM";"2PM - 7PM";"2PM - 7PM";"2PM - 7PM";"2PM - 7PM";"Closed";"Closed";
1176200;"Appling County Head Start";"389 East Allen Street";"Baxley";"GA";31513;"APPLING";"(912) 285-6290";;;;;;;;;;;"x";"x";;;;;;;;;;;
1176197;"Angels Creative Learning Academy";"90 Hunters Chase";"McDonough";"GA";30253;"HENRY";"(770) 957-1119";"http://www.myacla.com/";;"Angels Creative Learning Academy's mission is to provide a developmentally high-quality stimulating, safe and nurturing environment where children can explore, discover, create, develop, learn, observe, and grow into their highest potential. ";"http://www.myacla.com/";"https://www.facebook.com/angelscreativelearningacademy/";;;;"x";"x";"x";"x";;;"https://scontent.fskp2-1.fna.fbcdn.net/v/t1.0-1/p200x200/22228187_2045284679033949_4026112300794857625_n.jpg?_nc_cat=0&oh=a681fb934ff043cf7081723f4c384ba6&oe=5BB87C67";"6:15AM - 6:15PM";"6:15AM - 6:15PM";"6:15AM - 6:15PM";"6:15AM - 6:15PM";"6:15AM - 6:15PM";"Closed";"Closed";
1176198;"Anointed Hands Childcare";"1631 Gordon Highway  Suite 18-A";"Augusta";"GA";30906;"RICHMOND";"(706) 790-1411";;"anointedhandscdlc@yahoo.com";"Anointed Hands Childcare Development & Learning Center is joining hands to care for children. We are committed to providing a safe, nurturing and positive learning enviorment!";;"https://www.facebook.com/Anointed-Hands-Childcare-Development-Learning-Center-367290407165/";;;;"x";"x";"x";"x";;;"https://scontent.fskp2-1.fna.fbcdn.net/v/t1.0-1/c237.20.245.245/s200x200/200191_10150201507422166_7510581_n.jpg?_nc_cat=0&oh=1b9b62d3e5a702e34c7fadbdaea7ff49&oe=5B78B0C2";"6AM - 7PM";"6AM - 7PM";"6AM - 7PM";"6AM - 7PM";"6AM - 7PM";"Closed";"Closed";
1176195;"Anderson Preparatory Academy";"3072 Evans Mill Road";"Lithonia";"GA";30038;"DEKALB";"(770) 482-6118";"http://www.areteprepschool.org/";"info@areteprepschoool.org";"Our vision is to become a community of learners that fosters an environment of mutual respect, trust, integrity, academic excellence, and continued growth.";"http://www.areteprepschool.org/";"https://www.facebook.com/Arete-Preparatory-School-1541243649442529/";;"http://www.areteprepschool.org/apply-now/";"http://www.areteprepschool.org/scholarships/";;;;;;;"http://www.areteprepschool.org/wp-content/uploads/2018/03/logo.svg";;;;;;;;
1176196;"Angel Learning Center";"178 Basswood Drive";"Savannah";"GA";31407;"CHATHAM";"(912) 228-8228";"http://angellearningsavannah.com/";"info@angellearningsavannah.com";"We are committed to bringing high standards of early childhood education to our community.";"http://angellearningsavannah.com/";"https://www.facebook.com/angellearningsavannah/";;;"http://angellearningsavannah.com/parent-tools/";"x";"x";"x";"x";;;"http://angellearningsavannah.com/wp-content/uploads/2018/03/site_logo2.png";"8AM - 5PM";"8AM - 5PM";"8AM - 5PM";"8AM - 5PM";"8AM - 5PM";"Closed";"Closed";
1176193;"Amazing Hearts Child Development Center";"6467 Nature's Way";"Appling";"GA";30802;"COLUMBIA";"(706) 857-6924";"http://www.amazingheartscdc.com/";"director@amazingheartscdc.com";"At Amazing Hearts Child Development Center, we care about your children’s welfare and development. In addition to providing child care services, we offer a Pre-K program that aims to give them a head start in their education. Call or email us in Appling, Georgia for enrollment information.";"http://www.amazingheartscdc.com/";"https://www.facebook.com/Amazingheartscdc";;"http://www.amazingheartscdc.com/pre-k";"http://www.amazingheartscdc.com/parents";"x";"x";"x";"x";;;"http://mediaprocessor.websimages.com/fit/1920x1920/www.amazingheartscdc.com/logo.png";"6AM - 7PM";"6AM - 7PM";"6AM - 7PM";"6AM - 7PM";"6AM - 7PM";"Closed";"Closed";
1176191;"All About Me Learning CEnter";"101 Elm Street";"Summerville";"GA";30747;"CHATTOOGA";"(706) 857-4386";;"allaboutme11@windstream.net";"All about Me Learning Center Nursery and Preschool serves infants to age 4 years. We offer after school & summer care in a positive learning atmosphere.";;"https://www.facebook.com/AamlcI101/";;;;"x";"x";"x";"x";;;;"6:30AM - 5:30PM";"6:30AM - 5:30PM";"6:30AM - 5:30PM";"6:30AM - 5:30PM";"6:30AM - 5:30PM";"Closed";"Closed";
1176203;"Artportunity Knocks ASP @ Atlanta Heights Charter School";"3712 Martin Luther King Jr. Drive  SW";"Atlanta";"GA";30331;"FULTON";"(678) 355-8734";"http://www.artportunityknocks.org/";"info@artportunityknocks.org";"We believe that music and arts should be kept ""clean"" and positive by omitting lyrics that uses profane words, violence, drug/sex promotion, and degradation to women. We believe the arts should be inspiring, uplifting, and used to provoke positive behaviors.";"http://www.artportunityknocks.org/atlanta-heights-asp.html";"https://www.facebook.com/artportunityknocks/";;"https://app3.jackrabbitclass.com/regv2.asp?id=524052";;;;;"x";"x";"x";"http://www.artportunityknocks.org/uploads/6/6/7/6/6676363/published/artportunity-logo-small_1.png?1513273367";"3:15PM - 6:30PM";"3:15PM - 6:30PM";"3:15PM - 6:30PM";"3:15PM - 6:30PM";"3:15PM - 6:30PM";"Closed";"Closed";
1176204;"Artportunity Knocks ASP @ Perkerson Elementary School";"2040 Brewer Boulevard  SW";"Atlanta";"GA";30310;"FULTON";"(678) 355-8734";"http://www.artportunityknocks.org/";"info@artportunityknocks.org";"We believe that music and arts should be kept ""clean"" and positive by omitting lyrics that uses profane words, violence, drug/sex promotion, and degradation to women. We believe the arts should be inspiring, uplifting, and used to provoke positive behaviors.";"http://www.artportunityknocks.org/perkerson-elementary-asp.html";"https://www.facebook.com/artportunityknocks/";;"https://app3.jackrabbitclass.com/regv2.asp?id=524052";;;;;"x";"x";"x";"http://www.artportunityknocks.org/uploads/6/6/7/6/6676363/published/artportunity-logo-small_1.png?1513273367";"2:30PM - 6PM";"2:30PM - 6PM";"2:30PM - 6PM";"2:30PM - 6PM";"2:30PM - 6PM";"Closed";"Closed";
1176205;"Atlanta International Nursery";"1911 Cliff Valley Way  NE";"Atlanta";"GA";30329;"FULTON";"(404) 834-2326";"https://www.atlantainternationalnursery.com/";"info@atlantainternationalnursery.com";"AIN welcomes all individuals, our school is open and affirming for all ethnicities, faiths, orientations, and expression. To maximize inclusion, we build year around seasonal celebrations that brings our school community together.  We strive to create an environment where each family and child can thrive, while leading and educating with love.";"https://www.atlantainternationalnursery.com/";"https://www.facebook.com/atlantainternationalnursery/";;"https://www.atlantainternationalnursery.com/enrollment";;;"x";"x";"x";;;"https://static.wixstatic.com/media/f720f5_9ae9bcf8341744ef8cb0b806c5926d7b~mv2_d_2000_2000_s_2.jpg/v1/fill/w_113,h_102,al_c,q_80,usm_0.66_1.00_0.01/f720f5_9ae9bcf8341744ef8cb0b806c5926d7b~mv2_d_2000_2000_s_2.webp";;;;;;;;
1176206;"Ava's Place Child Care Learning Center";"1230 Ga Hwy 19 S";"Dublin";"GA";31021;"LAURENS";"(478) 488-0034";;;"Child care";;"https://www.facebook.com/Avas-Place-Child-Care-Learning-Center-1855900647990849/";;;;"x";"x";"x";"x";;;;"7AM - 6PM";"7AM - 6PM";"7AM - 6PM";"7AM - 6PM";"7AM - 6PM";"Closed";"Closed";
1176201;"Arbor Montessori School-Scott Campus";"1434 Scott Boulevard";"Decatur";"GA";30030;"DEKALB";"(404) 343-2317";"http://www.arbormontessori.org/";" info@arbormontessori.org";"Arbor Montessori School admits students of any race, color, national or ethnic origin, religion, family structure or sexual orientation to all the rights, privileges, programs, and activities of the school. It does not discriminate on the basis of race, color, national or ethnic origin, religion, family structure or sexual orientation in the administration of its educational policies, admissions policies, scholarship and loan programs, and athletic and other school-administered programs.";"http://www.arbormontessori.org/contact-us/";"https://www.facebook.com/arbormontessorischool/";;"http://www.arbormontessori.org/admissions/";"http://www.arbormontessori.org/parents/";;"x";"x";"x";;;"http://www.arbormontessori.org/wp-content/uploads/2013/08/arbor-logoh2.png";"8AM - 3:45PM";"8AM - 3:45PM";"8AM - 3:45PM";"8AM - 3:45PM";"8AM - 3:45PM";"Closed";"Closed";
1176214;"Beyond Blessed Learning Center";"2414 S. Lumpkin Road";"Columbus";"GA";31903;"MUSCOGEE";"(762) 821-3673";"http://beyondblessedlc.wixsite.com/mysite";"beyondblessedlc@gmail.com";"We will strive to provide the Highest Quality Childcare and Educational Service that promotes and enhances each child’s development; while assuring our parent’s peace of mind in the care and service we render.";"http://beyondblessedlc.wixsite.com/mysite";"https://mobile.facebook.com/beblessed706/";;;;"x";"x";"x";;;;"https://static.wixstatic.com/media/4be59f_95b76358d40e4f018b7ad5e0c9f8359c.jpg/v1/fill/w_903,h_541,al_c,q_85,usm_0.66_1.00_0.01/4be59f_95b76358d40e4f018b7ad5e0c9f8359c.webp";;;;;;;;
1176215;"Big Hugs Daycare and Learning Center";"243 Merchants Drive  Suite B";"Dallas";"GA";30132;"PAULDING";"(770) 942-0560";;;;;;;;;;;;;;;;;;;;;;;"Closed"
1176213;"Bertha's Learning Academy";"569 Irwin Street";"Cedartown";"GA";30125;"POLK";"(678) 901-1444";"http://www.berthasacademy.com/";"info@berthasacademy.com";"We're a child care center providing care and education to young children ages 6 weeks to 12 years.";"http://www.berthasacademy.com/";"https://www.facebook.com/berthasacademy/";;"http://www.berthasacademy.com/register.html";;"x";"x";"x";"x";;;"https://scontent.fskp2-1.fna.fbcdn.net/v/t1.0-9/20480021_115894182394450_4494977719343824648_n.jpg?_nc_cat=0&oh=9c7846939999c4a9d48502afcba49c44&oe=5BC18407";"6:30AM - 6PM";"6:30AM - 6PM";"6:30AM - 6PM";"6:30AM - 6PM";"6:30AM - 6PM";"Closed";"Closed";
1176211;"Bellevue Head Start";"4090 Napier Avenue";"Macon";"GA";31204;"BIBB";"(478) 471-1486";"http://www.maconbibbeoc.com/about-us/offices/";;;;"https://www.facebook.com/pages/Bellevue-HeadStart/166945420024441";;;;;;;;;;"https://scontent.fskp2-1.fna.fbcdn.net/v/t1.0-1/p160x160/20264657_10210475017933528_4647017359346601563_n.jpg?_nc_cat=0&oh=f50fa1eb9e593e747e944f88186dae54&oe=5BBC6075";;;;;;;;
1176212;"Bemiss Academy Preschool";"5111 Bemiss Road";"Valdosta";"GA";31605;"LOWNDES";"(229) 474-4004";"https://www.wearebemiss.com/";"bemissacademy@hotmail.com";"Our mission is to provide children with the highest quality education, to serve as a supportive resource for families and strengthen our community. Whether your child is beginning to walk, starting to talk or getting ready for kindergarten, our school will prepare your child for their next developmental milestone.";"https://www.wearebemiss.com/";"https://www.facebook.com/bemissacademy/";;"https://www.wearebemiss.com/enrollment-form/";;"x";"x";"x";"x";;"x";"https://scontent.fskp2-1.fna.fbcdn.net/v/t1.0-1/p200x200/547071_412218775485160_1792657236_n.jpg?_nc_cat=0&oh=7f47fe0c0293f6f09e631a5908df82e6&oe=5BB9B9A4";"6AM - 5:30PM";"6AM - 5:30PM";"6AM - 5:30PM";"6AM - 5:30PM";"6AM - 5:30PM";"Closed";"Closed";
1176218;"Bright Lil Minds Academy";"137 North Oakley Drive";"Columbus";"GA";31906;"MUSCOGEE";"(706) 940-0528";;"brightlitlminds@gmail.com";"Bright Lil Minds Academy exists to provide a caring environment for all children served. We want this to be your child's first step to higher learning...!!";;"https://www.facebook.com/Bright-Lil-Minds-Academy-1055808004530844/";;;;;;;;;;"https://scontent.fskp2-1.fna.fbcdn.net/v/t1.0-1/c0.0.200.200/p200x200/15977689_1056765037768474_7690028500546285814_n.jpg?_nc_cat=0&oh=7770a07831e707357f82350fb527f6e7&oe=5B86A04D";"5:30AM - 11:59PM";"5:30AM - 11:59PM";"5:30AM - 11:59PM";"5:30AM - 11:59PM";"5:30AM - 11:59PM";"5:30AM - 11:59PM";"Closed";
1176219;"Bright Start Preschool #3";"102 Kelly Drive";"Valdosta";"GA";31601;"LOWNDES";"(229) 242-0232";"http://www.brightstartvaldosta.com/";"bspvaldosta3@yahoo.com";"We are professionals in educating and caring for children.  Throughout the year our teachers attend training and educational seminars, bringing new and exciting ideas back to the classroom to further engage and educate children.";"http://www.brightstartvaldosta.com/bsp-3---lowndes";"https://www.facebook.com/brightstartvaldosta";;"http://www.brightstartvaldosta.com/turner-county";;"x";"x";"x";"x";"x";"x";"https://static.wixstatic.com/media/1c11df_0341777f54a842d3b62471372612eb50.jpg/v1/fill/w_423,h_157,al_c,q_80,usm_0.66_1.00_0.01/1c11df_0341777f54a842d3b62471372612eb50.webp";;;;;;;;
1176217;"Blue Ridge Preschool & Daycare";"592 Blue Ridge Dr.";"Evans";"GA";30809;"COLUMBIA";"(706) 860-7799";;;;;"https://www.facebook.com/pages/Blue-Ridge-Preschool-Daycare/155120097856827";;;;;;;;;;;;;;;;;;
1176228;"Busy Bees Learning Academy";"4252 Windsor Spring Rd.";"Hephzibah";"GA";30815;"RICHMOND";"(706) 869-4363";;;;;;;;;;;;;;;;;;;;;;"License Not Renewed";
1176226;"Bumblebee Kids Learning Center";"10920 Covington Bypass  Building 800";"Covington";"GA";30014;"NEWTON";"(770) 786-0022";"http://www.bumblebeekidslearningcenter.com/";"bumblebeekids45@gmail.com.";"Bumblebee Kids Learning Center strives to provide quality education and care using a personalized approach that guarantees maximum benefits for each individual child.";"http://www.bumblebeekidslearningcenter.com/";;"http://www.bumblebeekidslearningcenter.com/school-career-opportunities";"http://www.bumblebeekidslearningcenter.com/school-enrollment";;"x";"x";"x";"x";"x";"x";"http://www.bumblebeekidslearningcenter.com/wp-content/themes/bumblebeekids/images/comp-logo.png";;;;;;;;
1176223;"Building Blocks Learning Academy for KIDS INC";"2773 Jefferson Street";"Austell";"GA";30168;"COBB";"(770) 745-9253";;;;;;;;;;;;;;;;;;;;;;;
1176224;"Building Blocks Learning Center";"802 Fort Howard Road";"Rincon";"GA";31326;"EFFINGHAM";"(912) 295-2511";"http://www.buildingblockslcs.com/";;"Building Blocks Learning Center promises to provide safe, secure, and quality childcare at a competitive price for children four weeks through age twelve";"http://www.buildingblockslcs.com/";"https://www.facebook.com/Building-Blocks-Learning-Center-1549206212055684/";;"http://www.buildingblockslcs.com/about-us.html";"http://nebula.wsimg.com/ee30e664746350027b5580366d282418?AccessKeyId=BC895B6449BD17F86300&disposition=0&alloworigin=1";;;;;;;"http://nebula.wsimg.com/bb3fb1fa759b3dde771842e8e821f23c?AccessKeyId=BC895B6449BD17F86300&disposition=0&alloworigin=1";"6AM - 6:30PM";"6AM - 6:30PM";"6AM - 6:30PM";"6AM - 6:30PM";"6AM - 6:30PM";"Closed";"Closed";
1176225;"Bullfrogs & Butterflies Child Care Learning Center";"209 South Railroad Street";"Broxton";"GA";31519;"COFFEE";"(912) 359-2590";;;;;;;;;;;;;;;;;;;;;;;
1176237;"Chapman's Learning Center  LLC";"29 West Poplar Street";"McRae Helena";"GA";31055;"Telfair";"(229) 868-6514";;"miachapman1@yahoo.com";"Our Mission is to Encourage Families to Prosper in School,Service, and Society. Through Teaching and Caring about the Well being of EACH child that is in Our Care!";;"https://www.facebook.com/Chapmans-Learning-CenterLLC-EHS-CCP-249816498396361/";;;;;"x";"x";"x";;;"https://scontent.fskp2-1.fna.fbcdn.net/v/t1.0-1/c33.0.200.200/p200x200/299075_249832275061450_674062169_n.jpg?_nc_cat=0&oh=ae70c17a61d87b734753db1f36c9d064&oe=5BB51782";"5:30AM - 5PM";"5:30AM - 5PM";"5:30AM - 5PM";"5:30AM - 5PM";"5:30AM - 5PM";"Closed";"Closed";
1176232;"Candler County Head Start";"151 South Register Street";"Metter";"GA";30439;"CANDLER";"(912) 685-3383";;;;;"https://www.facebook.com/pages/Head-Start-Programs/105313829615555";;;;;;"x";"x";;;;;;;;;;;
1176233;"Candy Cane's Learning Center";"404 S. Martin Luther King Jr. Dr.";"Adel";"GA";31620;"COOK";"(229) 375-0020";"https://www.candycane-learning.com/";"cclc2017@yahoo.com";"Candy Cane's Learning Center is a full day preschool program providing a loving and nurturing environment for the children of the neighboring communities since 2006. We are a community of learners: children, families, and educators from a variety of backgrounds. We incorporate that rich ethnic, cultural, and religious diversity and we draw upon that resource to provide a foundation for lifelong learning in a diverse and interdependent world.";"https://www.candycane-learning.com/";"https://www.facebook.com/CandyCanesLearningCenter/";"https://www.candycane-learning.com/employment";"https://www.candycane-learning.com/admissions";;"x";"x";"x";;;"x";"https://static.wixstatic.com/media/7c50b3_e0bf3ad648ce4e0bb1abb9c753092edc~mv2.png/v1/fill/w_295,h_280,al_c,usm_0.66_1.00_0.01/7c50b3_e0bf3ad648ce4e0bb1abb9c753092edc~mv2.png";"6AM - 6PM";"6AM - 6PM";"6AM - 6PM";"6AM - 6PM";"6AM - 6PM";"Closed";"Closed";
1176235;"Carrington Academy at Suwanee";"3180 Peachtree Parkway";"Suwanee";"GA";30024;"GWINNETT";"(844) 826-3425";"https://www.carringtonacademy.com/";"janeen.carrano@nlcinc.com";"Carrington Academy preschool in Suwanee, GA provides a safe, nurturing environment where children learn, grow and thrive. Our Links to Learning curriculum prepares children for elementary school and beyond by developing important academic, social and emotional skills. Our teachers help each child discover a fascinating world of learning and play.";"https://www.carringtonacademy.com/preschools/atlanta/suwanee/";"https://www.facebook.com/CarringtonAcademySuwanee/";;;;"x";"x";"x";"x";"x";"x";"https://scontent.fskp2-1.fna.fbcdn.net/v/t1.0-1/p200x200/13506998_1300032263359899_3174205468927619466_n.png?_nc_cat=0&oh=2a8decbccea69f10efb12d414e897867&oe=5B8488BA";"6:30AM - 6:30PM";"6:30AM - 6:30PM";"6:30AM - 6:30PM";"6:30AM - 6:30PM";"6:30AM - 6:30PM";"Closed";"Closed";
1176236;"Caterpillar Clubhouse Learning Center";"1206 Whispering Pines Road";"Albany";"GA";31707;"DOUGHERTY";"(229) 376-4054";;;;;;;;;;;;;;;;;;;;;;;
1176230;"Calvary's Harvest Christian Academy";"3621 Jodeco Road";"Jonesboro";"GA";30236;"CLAYTON";"(678) 249-5930";;"pastor@calvarysharvest.org";"Organized on June 26th, 2006, we are an independent baptist church located in south Atlanta, Georgia. We have one ministry – the ministry GOD has given us";;"https://www.facebook.com/calvarysharvest.org/";;;;;;;;;;"https://scontent.fskp2-1.fna.fbcdn.net/v/t1.0-1/c78.0.200.200/p200x200/14346_558923614240502_7438037071238864249_n.jpg?_nc_cat=0&oh=31567b1258f61cf54888ef00287fc5b3&oe=5B84DAAD";;;;;;;;
1176241;"Childcare Network of Ga #508";"2204 Moreland Street";"Greenville";"GA";30222;"MERIWETHER";"(706) 755-8068";"https://www.cniheadstart.com/";;"The program is designed to provide support to families and communities, get children ready to attend school, and build children’s academic and social-emotional skills. In our Head Start program, your child will build literacy, math and social skills with the support of well-trained teachers and a rich, engaging curriculum.";"https://www.cniheadstart.com/counties/Meriwether";"https://www.facebook.com/headstartCNI";;"https://www.cniheadstart.com/headstart/How-To-Apply";;;;"x";"x";;;"https://www.cniheadstart.com/images/headstartlogo.png";"8AM - 2PM";"8AM - 2PM";"8AM - 2PM";"8AM - 2PM";"8AM - 2PM";"Closed";"Closed";
1176242;"Childcare Network of Ga #511";"106 W. Washington Street";"Newnan";"GA";30263;"COWETA";"(678) 552-2155";"https://www.cniheadstart.com/";;"The program is designed to provide support to families and communities, get children ready to attend school, and build children’s academic and social-emotional skills. In our Head Start program, your child will build literacy, math and social skills with the support of well-trained teachers and a rich, engaging curriculum.";"https://www.cniheadstart.com/counties/Coweta";"https://www.facebook.com/headstartCNI";;"https://www.cniheadstart.com/headstart/How-To-Apply";;;;"x";"x";;;"https://www.cniheadstart.com/images/headstartlogo.png";"8AM - 2PM";"8AM - 2PM";"8AM - 2PM";"8AM - 2PM";"8AM - 2PM";"Closed";"Closed";
1176240;"Childcare Network of Ga #506";"757 Carver Circle";"Hamilton";"GA";31811;"HARRIS";"(706) 780-5892";"https://www.cniheadstart.com/";;"The program is designed to provide support to families and communities, get children ready to attend school, and build children’s academic and social-emotional skills. In our Head Start program, your child will build literacy, math and social skills with the support of well-trained teachers and a rich, engaging curriculum.";"https://www.cniheadstart.com/counties/Harris";"https://www.facebook.com/headstartCNI";;"https://www.cniheadstart.com/headstart/How-To-Apply";;;;"x";"x";;;"https://www.cniheadstart.com/images/headstartlogo.png";"8AM - 2PM";"8AM - 2PM";"8AM - 2PM";"8AM - 2PM";"8AM - 2PM";"Closed";"Closed";
1176239;"Childcare Network of Ga #505";"112 McGregor Street";"LaGrange";"GA";30240;"TROUP";"(706) 407-0534";"https://www.cniheadstart.com/";;"The program is designed to provide support to families and communities, get children ready to attend school, and build children’s academic and social-emotional skills. In our Head Start program, your child will build literacy, math and social skills with the support of well-trained teachers and a rich, engaging curriculum.";"https://www.cniheadstart.com/counties/Troup";"https://www.facebook.com/headstartCNI";;"https://www.cniheadstart.com/headstart/How-To-Apply";;;;"x";"x";;;"https://www.cniheadstart.com/images/headstartlogo.png";"8AM - 2PM";"8AM - 2PM";"8AM - 2PM";"8AM - 2PM";"8AM - 2PM";"Closed";"Closed";
1176238;"Childcare Network #270";"3510 Austell Rd. SW";"Marietta";"GA";30008;"COBB";"(770) 333-5551";"https://www.cniheadstart.com/";;"The program is designed to provide support to families and communities, get children ready to attend school, and build children’s academic and social-emotional skills. In our Head Start program, your child will build literacy, math and social skills with the support of well-trained teachers and a rich, engaging curriculum.";"https://www.childcarenetwork.com/georgia-marietta-ga-270";"https://www.facebook.com/headstartCNI";;"https://www.cniheadstart.com/headstart/How-To-Apply";;"x";"x";"x";"x";;;"https://www.cniheadstart.com/images/headstartlogo.png";"6:30AM - 6:30PM";"6:30AM - 6:30PM";"6:30AM - 6:30PM";"6:30AM - 6:30PM";"6:30AM - 6:30PM";"Closed";"Closed";
1176248;"Cornerstone Academy of Lithonia";"1645 Redan East";"Lithonia";"GA";30058;"DEKALB";"(678) 526-7357";;"cornerstoneacademy0@gmail.com";"To love your child(ren) and your family.To provide a nurturing, caring environment. To prepare your child for school. To provide a wonderful early childhood educational experience. To always affirm youor child.";;"https://www.facebook.com/Cornerstone-Academy-178544032164054/";;;;"x";"x";"x";"x";;;"https://scontent.fskp2-1.fna.fbcdn.net/v/t1.0-1/c158.15.189.189/165443_178544192164038_3120361_n.jpg?_nc_cat=0&oh=dbc94b69fc41f1017d7aa0f9f0eea309&oe=5BBE1711";"6:30AM - 6PM";"6:30AM - 6PM";"6:30AM - 6PM";"6:30AM - 6PM";"6:30AM - 6PM";"Closed";"Closed";
1176247;"Congregation B'nai Torah Preschool";"700 Mount Vernon Highway  NE";"Sandy Springs";"GA";30328;"Fulton";"(404) 257-1733";"https://www.bnaitorah.org/";"hmiller@bnaitorah.org";"Congregation B'nai Torah Preschool is an accredited 'Georgia Bright from the Start'  Preschool. Inspired by the Reggio Emilia approach,we encourage our students to form their own personality during their early years of development.";"https://www.bnaitorah.org/b-nai-torah-preschool";;;;;;;"x";"x";;;"https://static.wixstatic.com/media/713942_fdc587a28a90402fbbf90a640db3e2b4~mv2.png/v1/fill/w_192,h_237,al_c,usm_0.66_1.00_0.01/713942_fdc587a28a90402fbbf90a640db3e2b4~mv2.png";"9:15AM - 1:15PM";"9:15AM - 1:15PM";"9:15AM - 1:15PM";"9:15AM - 1:15PM";"9:15AM - 1:15PM";"Closed";"Closed";
1176243;"Child's World Learning Center";"1422 City Circle Road";"Baxley";"GA";31513;"APPLING";"(912) 367-4513";;"childsworld2017@gmail.com";"Located in Baxley GA, We are Bright from the Start licensed and strive for the best care for your family, caring for children 6 weeks to 12 years!";;"https://www.facebook.com/ChildsWorldLearningCenter/";;;;"x";"x";"x";"x";;;;"6:30AM - 6PM";"6:30AM - 6PM";"6:30AM - 6PM";"6:30AM - 6PM";"6:30AM - 6PM";"Closed";"Closed";
1176245;"Cleveland Academy";"50 Woodlawn Drive";"Cleveland";"GA";30528;"WHITE";"(706) 219-1322";"http://www.clevelandacademyga.com/";"clevelandacademyga@gmail.com";"Cleveland Academy, LLC is the ideal childcare center for parents who want their children to develop socially, emotionally, and physically while remaining safe and happy. Cleveland Academy, LLC is run by licensed and experienced educator Shanda Ginn, Ed.S., and her carefully selected staff members. We serve children from 6 weeks of age to preschool age, and we have an afterschool program for school-aged children, so call us today about enrolling your child!";"http://www.clevelandacademyga.com/";"https://www.facebook.com/ClevelandAcademyGA/";;;;"x";"x";"x";"x";"x";"x";"https://irp-cdn.multiscreensite.com/1d399434/dms3rep/multi/tablet/logo1-153x150.jpg";"6AM - 6PM";"6AM - 6PM";"6AM - 6PM";"6AM - 6PM";"6AM - 6PM";"Closed";"Closed";
1176256;"Dahjia's Learning Academy and Daycare";"2471 Fairburn Road";"Atlanta";"GA";30331;"FULTON";"(470) 240-4554";;;;;;;;;;;;;;;;;;;;;;;
1176257;"Dahlonega Country Day Academy";"619 Buckhorn Tavern Road";"Dahlonega";"GA";30533;"LUMPKIN";"(706) 867-6290";"http://www.dahlonegacountryday.com/";"dcd8676290@windstream.net";"We are a full service preschool tucked away in the beautiful mountains of Dahlonega Georgia! Locally owned and operated for almost 20 years, Dahlonega Country Day offers programs for kids ages six weeks to eleven years old, including our elite Georgia Pre-K program. Dahlonega Country Day remains a place where children are provided the opportunity to grow intellectually, emotionally, socially and physically in a nurturing environment. ";"http://www.dahlonegacountryday.com/";"https://www.facebook.com/dahlonegacountrydayacademy/";;"http://dahlonegacountryday.com/new-site/forms/";;"x";"x";"x";"x";"x";"x";;"6:30AM - 6PM";"6:30AM - 6PM";"6:30AM - 6PM";"6:30AM - 6PM";"6:30AM - 6PM";"Closed";"Closed";
1176255;"Da Vinci International School";"4055 Roswell Road";"Atlanta";"GA";30342;"FULTON";"(678) 510-1214";;"administration@littledavincischool.org";"Da Vinci International School is a community of thoughtful leaders striving to make a contribution to the world by innovating, creating a groundbreaking bilingual curriculum, and integrating Science, Technology, Engineering, Arts, and Mathematics (S.T.E.A.M.) to every aspect of the children’s learning process as early as in the 2 years old class. ";;"https://www.facebook.com/littledavinciinternationalschool/";;"http://dvischool.com/admission-inquiry/";"http://dvischool.com/application/";;;"x";"x";"x";"x";"https://scontent.fskp2-1.fna.fbcdn.net/v/t1.0-1/p200x200/14572266_1153917851324106_5085526532713572069_n.jpg?_nc_cat=0&oh=f6689f828cd2b98aafcae155468bca75&oe=5BB53228";"7:30AM - 5PM";"7:30AM - 5PM";"7:30AM - 5PM";"7:30AM - 5PM";"7:30AM - 5PM";"Closed";"Closed";
1176253;"Creative Image Learning Center";"3718 Covington Highway";"Decatur";"GA";30032;"DEKALB";"(404) 289-2065";;;;;"https://www.facebook.com/pages/Creative-Image-Learning-Center/163339400351874";;;;;;;;;;;;;;;;;;
1176254;"Crestwood Child Care Academy";"7721 Mount Zion Boulevard";"Jonesboro";"GA";30236;"CLAYTON";"(770) 477-6997";"http://www.crestwoodchildcareacademy.com/";"crestwoodchildcareacademy@gmail.com";"Crestwood Child Care Academy, we thrive on smiles! Our trained and dedicated staff take great pride & joy in helping children learn and grow in a positive";"http://www.crestwoodchildcareacademy.com/";"https://www.facebook.com/CrestwoodChildCareAcademy";;"http://www.crestwoodchildcareacademy.com/contact-us.html#";"http://www.crestwoodchildcareacademy.com/forparents.html";"x";"x";"x";"x";"x";"x";"http://www.crestwoodchildcareacademy.com/pic/revslider/general/logo%20crestwood.png";"8AM - 5PM";"8AM - 5PM";"8AM - 5PM";"8AM - 5PM";"8AM - 5PM";"Closed";"Closed";
1176250;"Country Crossings";"4010 Centerhill Church Rd.";"Loganville";"GA";30052;"GWINNETT";"(770) 466-1550";"http://www.countrycrossings.net/";;"Country Crossings is a childcare center where the teachers and staff listen and genuinely care. Our ultimate goal is to provide a high quality, developmentally appropriate program, where kids can be kids.";"http://www.countrycrossings.net/";"https://www.facebook.com/countrycrossingsloganville/";;;;;"x";"x";"x";"x";"x";"http://www.countrycrossings.net/image/116644495_scaled_630x189.png";"6:30AM - 6:30PM";"6:30AM - 6:30PM";"6:30AM - 6:30PM";"6:30AM - 6:30PM";"6:30AM - 6:30PM";"Closed";"Closed";
1176252;"Crawford Head Start";"1011 US Hwy 341 North";"Roberta";"GA";31078;"CRAWFORD";"(478) 836-3997";;"crawfordhs@mgcaa.org";"Head Start promotes the school readiness of children ages 3 to 5 by encouraging their cognitive, social, and emotional development";"http://mgcaa.org/head-start-centers/";;;;;;;"x";"x";;;;"7AM - 4PM";"7AM - 4PM";"7AM - 4PM";"7AM - 4PM";"7AM - 4PM";"Closed";"Closed";
1176263;"Doctor Daycare Inc.";"2264 Childress Dr. SW";"Atlanta";"GA";30311;"FULTON";"(404) 344-4777";"http://thedoctordaycare.com/";" info@thedoctordaycare.com";"Our program is built around the concept that children are born ready to learn. As caregivers, we strive to create a learning environment that is safe, stimulating and encouraging";"http://thedoctordaycare.com/";;"http://thedoctordaycare.com/employment/";"http://thedoctordaycare.com/daycare-enrollment/";"http://thedoctordaycare.com/parent-handbook/";"x";"x";"x";"x";;"x";"http://thedoctordaycare.com/wp-content/uploads/2016/11/about-us-1.png";"6:30AM - 6:30PM";"6:30AM - 6:30PM";"6:30AM - 6:30PM";"6:30AM - 6:30PM";"6:30AM - 6:30PM";"Closed";"Closed";
1176261;"DBA Cambridge International School";"5197 Roswell Road NE";"Sandy Springs";"GA";30342;"Fulton";"(678) 705-9091";"https://www.cambridgeintlschool.com/";"info@cambridgeintlpreschool.com";"Cambridge International School is an award-winning private preschool educating infants through Kindergarten. We are offer full-day (and limited partial-day options) in a year-round setting. ";"https://www.cambridgeintlschool.com/";"https://www.facebook.com/CambridgeIntlSchool/";;"https://www.cambridgeintlschool.com/enrollment-forms.html";;;;"x";"x";;;"https://scontent.fskp2-1.fna.fbcdn.net/v/t1.0-1/p200x200/34443_119199621458428_5321541_n.jpg?_nc_cat=0&oh=cbb0add158da9cf62fc65a1015a2607a&oe=5BAFF717";"7AM - 6:30PM";"7AM - 6:30PM";"7AM - 6:30PM";"7AM - 6:30PM";"7AM - 6:30PM";"Closed";"Closed";
1176262;"Destiny Starr Creative Learning Academy";"1850 Timothy Road";"Athens";"GA";30606;"CLARKE";"(404) 483-8892";;;;;;;;;;;;;;;;;;;;;;"Closed";
1176268;"EduCare Center";"2501 Elberta Road";"Centerville";"GA";31028;"HOUSTON";"(478) 335-6424";;;;;;;;;;;;;;;;;;;;;;;
1176269;"Educate-Enrich-Enable @ Humphries Elementary School";"3029 Humphries Drive  SE";"Atlanta";"GA";30354;"FULTON";"(404) 802-8750";"https://www.atlantapublicschools.us/";;"Humphries Elementary School is located in Southeast Atlanta and borders on the Clayton County line.  The population is comprised of 365 students in grades Pre-K - 5 with a racial composition of 85% African American and 15% Hispanic.  Many of our students reside in single-parent homes. Approximately 96% of the students qualify for free and reduced meals.";"https://www.atlantapublicschools.us/humphries";;;;;;;;"x";;;"https://www.atlantapublicschools.us/cms/lib/GA01000924/Centricity/Template/GlobalAssets/images//School%20Logos/StemlogowithoutwordsFinal.png";;;;;;;;
1176270;"Edumont";"1152 Rockbridge Road";"Norcross";"GA";30093;"GWINNETT";"(678) 314-7374";"https://edumont.edu20.com/";;;;;;;;;;;;;;;;;;;;;;
1176267;"Easter Seals Child Development Center";"4335 Steve Reynolds Boulevard";"Norcross";"GA";30093;"GWINNETT";"(404) 943-1070";"http://www.easterseals.com/our-programs/childrens-services/development-centers.html";"info@esng.org";"We strengthen children and families at the most critical times in a child's development. Our vision is: A world where children can acheive their dreams.";"http://www.easterseals.com/northgeorgia/who-we-are/locations/";"https://www.facebook.com/EasterSealsNorthGeorgia/?ref=page_internal";"http://www.easterseals.com/who-we-are/careers/";;;"x";"x";"x";"x";"x";"x";"http://www.easterseals.com/shared-library/affiliate-logos/easterseals-north-georgia-logo.png";;;;;;;;
1176266;"Early Learners Advanced Learning Center";"112 Morgan Street";"Pooler";"GA";31322;"CHATHAM";"(912) 412-0927";;"info@earlylearnersala.com";"We provide children with an advance learning experience that will encourage every child to achieve their optimum potential.";;"https://www.facebook.com/earlylearnersga/";;;;;;;;;;;"7AM - 5:30PM";"7AM - 5:30PM";"7AM - 5:30PM";"7AM - 5:30PM";"7AM - 5:30PM";"Closed";"Closed";
1176276;"First Steps Child Care & Pre-K Academy";"1606 McFarland Avenue";"Rossville";"GA";30741;"WALKER";"(706) 866-2929";;;;;;;;;;;;;;;;;;;;;;;
1176273;"Faith Academy Early Childcare & Learning";"2329 Lawrenceville Highway";"Lawrenceville";"GA";30044;"GWINNETT";"(470) 255-2608";"http://thefaithacademy.net/";;"We offer age-appropriate curriculum for children ages infant, toddler, preschool, Pre-K  and school-age";"http://thefaithacademy.net/";;;"http://thefaithacademy.net/application";;"x";"x";"x";"x";;;;"6:30AM - 6:30PM";"6:30AM - 6:30PM";"6:30AM - 6:30PM";"6:30AM - 6:30PM";"6:30AM - 6:30PM";"Closed";"Closed";
1176272;"Elite Preparatory School";"273 Arrowhead Boulevard";"Jonesboro";"GA";30236;"CLAYTON";"(770) 471-1050";;;;;"https://www.facebook.com/elitepreparatoryschool/";;;;;;;;;;"https://scontent.fskp2-1.fna.fbcdn.net/v/t1.0-1/p200x200/20376107_109070996423912_7832564217889742130_n.png?_nc_cat=0&oh=21fc6077eebf6555ed4d81200ec7597f&oe=5B8524C9";"5AM - 10PM";"5AM - 10PM";"5AM - 10PM";"5AM - 10PM";"5AM - 10PM";"Closed";"Closed";
1176280;"Gems Learning Academy";"8850 High Point Road";"Union City";"GA";30291;"FULTON";"(404) 625-5842";"http://gemslearningacademy.com/";"info@gemslearningacademy.com";"Gems Learning Academy is committed to providing fun and educational childcare programs that promote your child’s social, emotional, physical, and cognitive development!";"http://gemslearningacademy.com/";"https://www.facebook.com/Gems-Learning-Academy-240778473029410/";;"http://gemslearningacademy.com/enroll-GLA.pdf";;"x";"x";"x";"x";"x";"x";"http://gemslearningacademy.com/img/logo-gla2.png";"5:30AM - 8PM";"5:30AM - 8PM";"5:30AM - 8PM";"5:30AM - 8PM";"5:30AM - 8PM";"Closed";"Closed";
1176281;"Georgia Learning and Tutoring Center";"1520 Warsaw Rd.";"Roswell";"GA";30076;"FULTON";"(678) 461-1869";"http://www.roswelldaycare.com/";"info@georgialearningdaycare.com";"Our Roswell Childcare Center programs are designed to help children develop intellectual growth and confidence in learning strategies to solve real-world problems, communicating solutions and phonemic awareness. We feel by immersing children in a language and problem solving environment they will form habits that will last a lifetime.";"http://www.roswelldaycare.com/";"https://www.facebook.com/Georgia-Learning-Tutoring-Center-1720051518034355/";;"http://www.roswelldaycare.com/roswell-daycare-center-download-documents/";;"x";"x";"x";"x";"x";"x";"https://scontent.fskp2-1.fna.fbcdn.net/v/t1.0-1/p200x200/28058367_1899261990113306_1569768625691910258_n.jpg?_nc_cat=0&oh=67ef10b1f918c62f1642e9ac07e26baf&oe=5B853960";"6AM - 7PM";"6AM - 7PM";"6AM - 7PM";"6AM - 7PM";"6AM - 7PM";"Closed";"Closed";
1176277;"Friendship Learning Center of Tucker";"6000 Mimosa Circle";"Tucker";"GA";30084;"DEKALB";"(770) 279-7800";"http://www.friendshiplearning.com/";"friendshiplearningtucker@gmail.com";"We are thrilled to be a part of your child’s education and eager to see the adventures they will have while at Friendship Learning Center.  Our campus was specially designed to maximize your child’s educational experience";"http://www.friendshiplearning.com/flc-tucker/";"https://www.facebook.com/flctucker/";;;"http://www.friendshiplearning.com/parent-corner/";"x";"x";"x";"x";;"x";"http://www.friendshiplearning.com/wp-content/uploads/2012/08/lgo4.png";"6AM - 6:30PM";"6AM - 6:30PM";"6AM - 6:30PM";"6AM - 6:30PM";"6AM - 6:30PM";"Closed";"Closed";
1176278;"Funday Academy";"157 Mcconnell Drive";"Lawrenceville";"GA";30046;"GWINNETT";"(678) 878-2222";;"fundayacademy@hotmail.com";"Our mission is to complement education, providing care and nurturing for our children.";;"https://www.facebook.com/fundayacademy/";;;;"x";"x";"x";"x";;;"https://scontent.fskp2-1.fna.fbcdn.net/v/t1.0-1/c0.1.199.199/p200x200/13139156_229339577444596_5421221495687800097_n.jpg?_nc_cat=0&oh=538320623165fcab2d5825f72110e9ef&oe=5B76D05B";"6:30AM - 6:30PM";"6:30AM - 6:30PM";"6:30AM - 6:30PM";"6:30AM - 6:30PM";"6:30AM - 6:30PM";"Closed";"Closed";
1176279;"G. R. Lighthouse Learning Center";"18360 Hwy 80";"Jeffersonville";"GA";31044;"TWIGGS";"(478) 945-2020";;;"Assisting children in developing new skills at their own ability levels, while preparing them to succeed in kindergarten and giving parents peace of mind.";;"https://www.facebook.com/grlighthouselearningcenter/";;;;"x";"x";"x";"x";;;;"6AM - 6PM";"6AM - 6PM";"6AM - 6PM";"6AM - 6PM";"6AM - 6PM";"Closed";"Closed";
1176288;"Greater St. Peter Childcare Center";"9540 Fayetteville Road";"Jonesboro";"GA";30238;"CLAYTON";"(770) 472-4454";;;;;"https://www.facebook.com/Greater-Saint-Peter-AME-Church-248747815540239/";;;;;;;;;;;;;;;;;;
1176286;"God's Way Learning Academy";"115 Martin Luther King Drive";"Dublin";"GA";31021;"LAURENS";"(478) 595-0807";;;"A Christian learning Center";;"https://www.facebook.com/godswayacademy/";;;;"x";"x";"x";"x";;;;;;;;;;;
1176287;"Good Foundation Academy";"4703 Redan Road";"Stone Mountain";"GA";30083;"DEKALB";"(404) 299-9113";;"cjfound2@gmail.com";"Our company is based on the belief that our customers' needs are of the utmost importance. Our entire team is committed to meeting those needs.";;"https://www.facebook.com/GoodFoundationAcademy/";;;;;;;;;;"https://scontent.fskp2-1.fna.fbcdn.net/v/t1.0-9/208872_439716982772916_194858609_n.jpg?_nc_cat=0&oh=bb4340467d86003b6e7601c5c3f08600&oe=5BC12A5A";"6:30AM - 6:30PM";"6:30AM - 6:30PM";"6:30AM - 6:30PM";"6:30AM - 6:30PM";"6:30AM - 6:30PM";"Closed";"Closed";
1176285;"Glory Buds Child Care";"939 Banks Street  NE";"Conyers";"GA";30012;"ROCKDALE";"(678) 607-0151";;"contact@glorybudschildcare.com";"To facilitate a safe childcare experience at an affordable rate for working and loving families that meet educational standards and advocates family wholeness.";;"https://www.facebook.com/GloryBudsChildCareInc/";;;;"x";"x";"x";"x";"x";;"https://scontent.fskp2-1.fna.fbcdn.net/v/t31.0-8/12885976_1591544137832622_6124702323653612313_o.png?_nc_cat=0&oh=fff6c18d31dd41a4deab4ceea3a71e87&oe=5B852018";"6:30AM - 6:30PM";"6:30AM - 6:30PM";"6:30AM - 6:30PM";"6:30AM - 6:30PM";"6:30AM - 6:30PM";"Closed";"Closed";
1176283;"Global Tech Afterschool @ Dekalb Preparatory  Academy";"1402 Austin Drive";"Decatur";"GA";30032;"DEKALB";"(404) 919-9948";"http://www.globaltechacademy.com/";"info@globaltechacademy.com";"Global Tech Academy offers the following activities for all students enrolled in the After-School Program: Homework Assistance, Tutorial Assistance, STEAM Activities, Extracurricular Activities, GTA Clubhouse, Health & Fitness, Character Development, Arts & Crafts, and Snacks.";"http://www.globaltechacademy.com/dekalb-prep/";"https://www.facebook.com/DeKalbPrep/";;"http://www.globaltechacademy.com/register/";;;;;;"x";"x";"http://static1.squarespace.com/static/56a68c27a128e63413ed6049/t/56a6c6d71a52032566f06f84/1526492255804/?format=1500w";"3PM - 6:30PM";"3PM - 6:30PM";"3PM - 6:30PM";"3PM - 6:30PM";"3PM - 6:30PM";"Closed";"Closed";
1176284;"Global Tech Afterschool @Tuskegee Airman Global Academy (TAG)";"1654 S. Alvarado Terrace SW";"Atlanta";"GA";30311;"FULTON";"(404) 919-9948";"http://www.globaltechacademy.com/";"info@globaltechacademy.com";"Global Tech Academy offers the following activities for all students enrolled in the After-School Program: Homework Assistance, Tutorial Assistance, STEAM Activities, Extracurricular Activities, GTA Clubhouse, Health & Fitness, Character Development, Arts & Crafts, and Snacks.";"http://www.globaltechacademy.com/connally/";;;"http://www.globaltechacademy.com/register/";;;;;;"x";"x";"http://static1.squarespace.com/static/56a68c27a128e63413ed6049/t/56a6c6d71a52032566f06f84/1526492255804/?format=1500w";"2:30AM - 6:30PM";"2:30AM - 6:30PM";"2:30AM - 6:30PM";"2:30AM - 6:30PM";"2:30AM - 6:30PM";"Closed";"Closed";
1176297;"Heeling in Fashion";"1001 4th Street";"Augusta";"GA";30901;"RICHMOND";"(770) 568-9609";"http://www.hiffstars.org/untitled-csmt";;;;;;;;;;;;;;;;;;;;;;
1176293;"Happy Explorer's Learning Academy";"2123 Avalon Road";"Columbus";"GA";31907;"MUSCOGEE";"(706) 507-4689";;;;;"https://www.facebook.com/Happy-Explorers-Learning-Academy-193209491204781/";;;;;;;;;;"https://scontent.fskp2-1.fna.fbcdn.net/v/t1.0-1/c0.0.200.200/p200x200/18920714_193209937871403_6097689717932003570_n.jpg?_nc_cat=0&oh=a1586416cc7b3aa56ba60ffa7635c6e9&oe=5B7AB3FB";;;;;;;;
1176294;"Harmon Head Start at Talbot";"159 Park Road";"Talbotton";"GA";31827;"TALBOT";"(706) 665-3717";;;;;;;;;;;;;;;;;;;;;;;
1176302;"Innovation Station Early Learning Center";"1402 Dogwood Circle";"West Point";"GA";31833;"TROUP";"(706) 518-0275";;;;;;;;;;;;;;;;;;;;;;;
1176301;"Honors Academy of Excellence";"2224 Lake Harbin Road";"Morrow";"GA";30260;"CLAYTON";"(470) 878-5702";;;;;;;;;;;;;;;;;;;;;;;
1176298;"Highland Kids Academy (Afterschool)";"7300 Whittlesey Boulevard";"Columbus";"GA";31909;"MUSCOGEE";"(706) 221-5947";"https://www.highlandkidsacademy.com/";"info@highlandkidsacademy.com";"Highland Kids Academy After School program's mission is to provide a safe, exciting and fun environment for students to learn and enjoy";"https://www.highlandkidsacademy.com/";"https://www.facebook.com/highlandkidsacademy/";;"https://www.highlandkidsacademy.com/admissions";"https://docs.wixstatic.com/ugd/844a19_b9f01ef7968d4224984a184d311205a9.pdf";;;;;"x";;"https://scontent.fskp2-1.fna.fbcdn.net/v/t1.0-1/p200x200/27066822_788919284650642_4453451772166562950_n.jpg?_nc_cat=0&oh=5e22899db7594e2d4694a5b27a461a69&oe=5BC222EB";"2:15AM - 6PM";"2:15AM - 6PM";"2:15AM - 6PM";"2:15AM - 6PM";"2:15AM - 6PM";"Closed";"Closed";
1176309;"Javits Academy Center";"4276 Chamblee Dunwoody Road";"Atlanta";"GA";30341;"FULTON";"(770) 321-8484";"http://javitsacademycenter.com/";"shoshi@javitsacademycenter.com";"JAC is run and managed by Shoshi Javits, a graduate of the prestigious Nahalal and Oranim Colleges for Teachers in Israel. Shosh has more than 30 years of experience in Early Childhood Education and has received numerous awards and citations from the City of Akko and Israel Board of Education.";"http://javitsacademycenter.com/contact-us/";"https://www.facebook.com/JAC-Daycare-Preschool-341617485866809/";;"http://javitsacademycenter.com/apply/";;"x";"x";"x";"x";"x";"x";"http://javitsacademycenter.com/wp-content/uploads/2016/04/jacfulllogonumber.png";"7AM - 4PM";"7AM - 4PM";"7AM - 4PM";"7AM - 4PM";"7AM - 4PM";"Closed";"Closed";
1176311;"Jimmie Samuel EHS Center at Mt. Lebanon";"3805 Bloomfield Drive";"Macon";"GA";30246;"BIBB";"(478) 478-5479";;;;;;;;;;;;;;;;;;;;;;;
1176305;"Inspiring Scholars Academy at Winston";"7425 West Bankhead Highway";"Winston";"GA";30187;"DOUGLAS";"(678) 561-7458";"http://www.inspiringscholars.org/";"info@inspiringscholars.com";"Our mission is to inspire our students to achieve academic excellence and to equip them with the skills to be confident, successful, and independent scholars.";"http://www.inspiringscholars.org/";"https://www.facebook.com/InspiringScholarsTutoring/";;"http://www.inspiringscholars.org/wp-content/uploads/2017/06/2017-2018-Daycare-Application-Inspiring-Scholars-Academy-1.pdf";;"x";"x";"x";"x";"x";"x";"http://www.inspiringscholars.org/wp-content/uploads/2016/10/Is-logo-Oct-2016.png";"6AM - 7PM";"6AM - 7PM";"6AM - 7PM";"6AM - 7PM";"6AM - 7PM";"Closed";"Closed";
1176306;"JAC Preschool";"11165 Parsons Road";"Johns Creek";"GA";30097;"Fulton";"(770) 321-8484";"http://javitsacademycenter.com/";"shoshi@javitsacademycenter.com";"JAC is run and managed by Shoshi Javits, a graduate of the prestigious Nahalal and Oranim Colleges for Teachers in Israel. Shosh has more than 30 years of experience in Early Childhood Education and has received numerous awards and citations from the City of Akko and Israel Board of Education.";"http://javitsacademycenter.com/contact-us/";"https://www.facebook.com/JAC-Daycare-Preschool-341617485866809/";;"http://javitsacademycenter.com/apply/";;"x";"x";"x";"x";"x";"x";"http://javitsacademycenter.com/wp-content/uploads/2016/04/jacfulllogonumber.png";"7AM - 4PM";"7AM - 4PM";"7AM - 4PM";"7AM - 4PM";"7AM - 4PM";"Closed";"Closed";
1176303;"Innovators Advanced Learning Academy";"2590 Atlanta Road";"Smyrna";"GA";30080;"COBB";"(770) 954-5771";;;;;;;;;;;;;;;;;;;;;;;
1176304;"Inspiring Scholars Academy";"2345 Pope Road";"Douglasville";"GA";30135;"DOUGLAS";"(678) 561-7458";"http://www.inspiringscholars.org/";"info@inspiringscholars.com";"Our mission is to inspire our students to achieve academic excellence and to equip them with the skills to be confident, successful, and independent scholars.";"http://www.inspiringscholars.org/";"https://www.facebook.com/InspiringScholarsTutoring/";;"http://www.inspiringscholars.org/wp-content/uploads/2017/06/2017-2018-Daycare-Application-Inspiring-Scholars-Academy-1.pdf";;"x";"x";"x";"x";"x";"x";"http://www.inspiringscholars.org/wp-content/uploads/2016/10/Is-logo-Oct-2016.png";"6AM - 7PM";"6AM - 7PM";"6AM - 7PM";"6AM - 7PM";"6AM - 7PM";"Closed";"Closed";
1176320;"Kaleidoscope Montessori";"973 Prince Avenue";"Athens";"GA";30606;"CLARKE";"(770) 331-6548";"http://www.kaleidoscopemontessori.com/";"kaleidoscopemontessori@gmail.com";"We honor each child as a unique being in a space prepared with the intention of enhancing connection to self, nature, and community through creative learning, exploration, song, and play.";"http://www.kaleidoscopemontessori.com/";"https://www.facebook.com/kaleidoscopemontessori/";;"http://www.kaleidoscopemontessori.com/application-form";;;;"x";"x";;"x";"http://static1.squarespace.com/static/552c3c16e4b0c230032d322e/t/5787d438be6594c1b798f541/1526404328270/?format=1500w";"8:30AM -2:30PM";"8:30AM -2:30PM";"8:30AM -2:30PM";"8:30AM -2:30PM";"8:30AM -2:30PM";"Closed";"Closed";
1176318;"Jumpstart Learning Center";"216 Canebrake Road";"Savannah";"GA";31419;"CHATHAM";"(912) 925-2250";;;;;;;;;;;;;;;;;;;;;;;"License Not Renewed"
1176319;"Just Kids Learning Center";"2383 Tobacco Road";"Augusta";"GA";30906;"RICHMOND";"(706) 790-1740";;;;;"https://www.facebook.com/pages/Just-Kids-Child-Development-Learning-Center/146596468718403";;;;;;;;;;;;;;;;;;
1176317;"Julia Bardsley";"2012A Tulip Court";"Fort Gordon";"GA";30905;"Richmond";"(719) 200-8354";;;;;;;;;;;;;;;;;;;;;;;
1176314;"Jones Pre-K";"6th Street Chicopee";"Gainesville";"GA";30504;"HALL";"(770) 536-4335";"https://www.earlycollegehallco.org/";"EarlyCollege@Hallco.org";" The Early College @ Jones is an innovative way for high school students to earn a high school diploma while also earning college credits. ";"https://www.earlycollegehallco.org/";;;;;;;;;;;;;;;;;;;
1176313;"JonEri's Christian Academy";"1935 Wesley Chapel Road";"Decatur";"GA";30035;"DEKALB";"(404) 500-5377";;"joneris2016@gmail.com";"Affordable Childcare in Decatur, GA. Contact center for information. ";;"https://www.facebook.com/JonEris-Christian-Academy-851482118294873/";;;;"x";"x";"x";"x";;;"https://scontent.fskp2-1.fna.fbcdn.net/v/t1.0-1/p200x200/13094213_875930012516750_6171666860160638739_n.jpg?_nc_cat=0&oh=755fb74713973d3e6657387e98b8e078&oe=5B84A234";;;;;;;;
1176324;"Kids R Kids Learning Academy";"202 Pendleton Street";"Baxley";"GA";31513;"APPLING";"(912) 705-5437";;;"Full-Service Daycare Center";;"https://www.facebook.com/kidsacademy5437/";;;;"x";"x";"x";"x";"x";;"https://scontent.fskp2-1.fna.fbcdn.net/v/t1.0-9/17796035_1408180959252365_6386547516587766112_n.jpg?_nc_cat=0&oh=b23a28a1dfb71afa9b8796faeb0e1104&oe=5BB0E985";"6:30AM - 6PM";"6:30AM - 6PM";"6:30AM - 6PM";"6:30AM - 6PM";"6:30AM - 6PM";"Closed";"Closed";
1176323;"Kids R Kids 37GA";"3025  Hwy 154 Bldg. A.";"Newnan";"GA";30265;"COWETA";"(770) 502-1777";"https://www.kidsrkids.com/school-locations/GA/child-care-Newnan.php";"kidsrkids37ga@yahoo.com";"Kids 'R' Kids Schools and Academies expand beyond the typical childcare and daycare services by providing the best possible learning environment in Newnan, GA for children 6 weeks - 12 years";"https://www.kidsrkidsnewnan.com/";"https://www.facebook.com/krknewnan/";"https://www.kidsrkidsnewnan.com/school-info/employment";"https://www.kidsrkidsnewnan.com/pre-registration";;"x";"x";"x";"x";"x";"x";"https://www.kidsrkidsnewnan.com/common/images/null.gif";"6:30AM - 6:30PM";"6:30AM - 6:30PM";"6:30AM - 6:30PM";"6:30AM - 6:30PM";"6:30AM - 6:30PM";"Closed";"Closed";
1176321;"Kiddie Academy of Alpharetta";"3200 Northpoint Parkway";"Alpharetta";"GA";30005;"FULTON";"(770) 417-8194";"https://kiddieacademy.com/";"alpharetta@kiddieacademy.net";"We provide educational daycare in the greater Alpharetta, GA area that focuses on days filled with learning and fun, the key ingredients of our Life Essentials® educational philosophy. The smiles you’ll see on our children’s faces as they learn, share family style meals with other children, and grow socially will delight you. The words from our children’s parents about our program, safety and facility will impress you.";"https://kiddieacademy.com/academies/alpharetta/";"https://www.facebook.com/KiddieAcademyofAlpharetta/";;;;"x";"x";"x";"x";;"x";"https://kiddieacademy.com/academies/wp-content/themes/kiddieacademy/assets/svg/kiddieacademy-logo.svg";"6:30AM - 6:30PM";"6:30AM - 6:30PM";"6:30AM - 6:30PM";"6:30AM - 6:30PM";"6:30AM - 6:30PM";"Closed";"Closed";
1176322;"Kiddie Kottage Learning Academy";"211 Maxham Rd.";"Austell";"GA";30168;"COBB";"(770) 732-9345";;;;;;;;;;;;;;;;;;;;;;;
1176330;"KNS Early Learning Academy";"57 Merritt Street";"Marietta";"GA";30060;"COBB";"(678) 882-0824 ";"http://knsearlylearningacademy.com/";"contact@knsearlylearningacademy.com";"Our mission is to provide a safe, developmentally appropriate environment for infants, toddlers, preschool and school-age children.";"http://knsearlylearningacademy.com/";"https://www.facebook.com/KNSEarlyLearning/";;"http://knsearlylearningacademy.com/enrollment";;"x";"x";"x";"x";;;"https://scontent.fskp2-1.fna.fbcdn.net/v/t1.0-1/p200x200/16807200_1278460602247066_4465197438290751860_n.jpg?_nc_cat=0&oh=3175f4416f835d7b31adf46163ae22b4&oe=5BC09852";"6:30AM - 6:30PM";"6:30AM - 6:30PM";"6:30AM - 6:30PM";"6:30AM - 6:30PM";"6:30AM - 6:30PM";"Closed";"Closed";
1176328;"Kidz Choice Learning Center";"1024 U.S. Highway 80  Suite 204";"Pooler";"GA";31322;"CHATHAM";"(912)988-7601";"https://kidzchoicelc.wixsite.com/daycare";;"Kidz Choice Learning Center provides a learning environment filled with age appropriate developmental learning and exploration.";"https://kidzchoicelc.wixsite.com/daycare";"https://www.facebook.com/KidzChoiceLearningCenter/";;"https://kidzchoicelc.wixsite.com/daycare/enrollment-application";;"x";"x";"x";"x";;;"https://scontent.fskp2-1.fna.fbcdn.net/v/t1.0-1/c0.0.200.200/p200x200/14670620_1119049418183065_2421682532097540472_n.jpg?_nc_cat=0&oh=2a29a3340be6f470e00c64aa8fcfe71e&oe=5BBDB2DE";"6:30AM - 6:30PM";"6:30AM - 6:30PM";"6:30AM - 6:30PM";"6:30AM - 6:30PM";"6:30AM - 6:30PM";"Closed";"Closed";
1176326;"Kids Time Academy";"8486 Hiram Acworth Highway";"Dallas";"GA";30157;"PAULDING";"(770) 529-6777";"http://kidztymeacademy.com/";"doris@kidztymeacademy.com";"At Kids Time Academy, your children will enjoy an atmosphere of ...Love, Learning, and Laughter. Our philosophy of caring for your children is to provide a licensed, safe, and exciting environment of ...Affection, Attention, and Attitude. To build self-esteem, self-confidence, organizational and social skills, creativity, and imagination.";"http://kidztymeacademy.com/view-content/3/Contact-Info.html";"https://www.facebook.com/Kids-Time-Academy-508586182493892/";"http://kidztymeacademy.com/view-content/15/Enrollment.html";"http://kidztymeacademy.com/view-content/15/Enrollment.html";;"x";"x";"x";"x";;;"https://scontent.fskp2-1.fna.fbcdn.net/v/t1.0-1/c77.64.806.806/s200x200/424_508586319160545_282282637_n.jpg?_nc_cat=0&oh=29732c0dfaa8628e30a005435f487635&oe=5BB66EC8";"6AM - 6:30PM";"6AM - 6:30PM";"6AM - 6:30PM";"6AM - 6:30PM";"6AM - 6:30PM";"Closed";"Closed";
1176327;"Kids University of Marietta";"165 Fairground Street";"Marietta";"GA";30060;"COBB";"(678) 217-5229";"http://www.kidsuniversityofmarietta.com/";;"KIDS UNIVERSITY OF MARIETTA EXISTS TO PROVIDE PREMIER CHILD CARE SERVICES , AIMED AT ENHANCING TRADITIONAL DAYCARE METHODS AND INTEGRATING EXTRA- CURRICULAR INTERESTS . ";"http://www.kidsuniversityofmarietta.com/";"https://www.facebook.com/kidsuniversityofmarietta/";;;;"x";"x";"x";"x";;;"http://www.kidsuniversityofmarietta.com/uploads/7/6/4/4/76444899/445718808.png";"6AM - 12AM";"6AM - 12AM";"6AM - 12AM";"6AM - 12AM";"6AM - 12AM";"11AM - 11PM";"Closed";
1176325;"Kids R Kids North Cobb";"3900 Canton Road";"Marietta";"GA";30066;"COBB";"(678) 398-9262";"https://www.kidsrkidsnorthcobb.com/";;"Kids `R` Kids Learning Academy of North Cobb is excited to offer the best educational foundation in Cobb County for children six weeks – twelve years. ";"https://www.kidsrkidsnorthcobb.com/";"https://www.facebook.com/Kids-R-Kids-Learning-Academy-of-North-Cobb-478407452208286/";;;;"x";"x";"x";"x";"x";"x";"https://www.kidsrkidsnorthcobb.com/common/images/null.gif";"6AM - 6:30PM";"6AM - 6:30PM";"6AM - 6:30PM";"6AM - 6:30PM";"6AM - 6:30PM";"Closed";"Closed";
1176335;"Learning 2 Excel Academy";"1187 Morrow Road";"Morrow";"GA";30260;"CLAYTON";"(678) 933-4166";;;;;;;;;;;;;;;;;;;;;;;
1176344;"Little Children Shines Academy II";"4060 Napier Avenue";"Macon";"GA";31204;"BIBB";"(478) 305-7207";;;;;;;;;;;;;;;;;;;;;;;
1176343;"Little Butterflies Daycare Center";"720 E. Brookwood Place";"Valdosta";"GA";31601;"LOWNDES";"(229) 548-2611";;"littlebutterflies23@gmail.com ";"Where caterpillars starts to form as little butterflies";;"https://www.facebook.com/LittleButterfliesFamilyDaycare/";;;;"x";"x";"x";"x";"x";;"https://scontent.fskp2-1.fna.fbcdn.net/v/t1.0-1/p200x200/17629980_1419797431417445_6243269897634723912_n.jpg?_nc_cat=0&oh=41eec56ae125514d57c131ab5f64750d&oe=5BBEE9A5";;;;;;;;
1176342;"Little Buckaroos Too";"65 Gray Road";"Carrollton";"GA";30116;"CARROLL";"(770) 828-9555";;;;;"https://www.facebook.com/Little-Buckaroos-Little-Buckaroos-Too-1147061935358754/";;;;"x";"x";"x";"x";;;"https://scontent.fskp2-1.fna.fbcdn.net/v/t1.0-9/13912341_1147105135354434_6288214564731987866_n.png?_nc_cat=0&oh=962ee859569c441249a90ead56aecf10&oe=5B84C5AF";;;;;;;;
1176341;"Little Angels Daycare 2";"205 Bray Street  Building #100";"Athens";"GA";30601;"CLARKE";"(706) 521-5517";"https://www.littleangelsdaycarega.com/";;"Discover the Little Angels Daycare commitment. With our experienced staff and our innovative program, your child will discover that learning is fun, while making new friends and building strong relationships with teachers who partner with you in your child's bright future! ";"https://www.littleangelsdaycarega.com/locations";;;"https://www.littleangelsdaycarega.com/fees";"https://www.littleangelsdaycarega.com/handbook";"x";"x";"x";;;;"https://www.littleangelsdaycarega.com/images/logo.png";"6AM - 6PM";"6AM - 6PM";"6AM - 6PM";"6AM - 6PM";"6AM - 6PM";"Closed";"Closed";
1176339;"Liberty Eagle Academy";"108 Park Place Way";"Carrollton";"GA";30117;"CARROLL";"(770) 744-3870";"https://libertyeagleacademy.com/";;"Liberty Eagle Academy admits students of any race, color, national or ethnic origin, religion, family structure or sexual orientation to all the rights, privileges, programs, and activities of the school. It does not discriminate on the basis of race, color, national or ethnic origin, religion, family structure or sexual orientation in the administration of its admissions policies, scholarship awards, and athletic and other school-administered programs.";"https://libertyeagleacademy.com/";"https://www.facebook.com/LibertyEagleAcademy/";"https://libertyeagleacademy.com/about/work-at-lea/";"https://libertyeagleacademy.com/admissions/";;"x";"x";"x";"x";"x";"x";"https://libertyeagleacademy.files.wordpress.com/2018/03/tuition-fees-2018.png";"7AM - 6PM";"7AM - 6PM";"7AM - 6PM";"7AM - 6PM";"7AM - 6PM";"Closed";"Closed";
1176336;"Learning Hive Kids' Club";"186 New Hope Road";"Lawrenceville";"GA";30046;"GWINNETT";"(678) 731-7427";"https://www.mylearninghive.com/";"learninghivecenter@gmail.com";"We are committed to serving each family and child in a personal and specialized fashion. We will recognize each child’s talents and aspirations and the family’s goals and combine them with our safe, loving, and nurturing environment. This will achieve and exceed the needs and expectations of each family.";"https://www.mylearninghive.com/Contact";"https://www.facebook.com/pg/LearningHive/about/?ref=page_internal";"https://www.mylearninghive.com/staff";;"https://www.mylearninghive.com/parents";" x";" x";" x";" x";;"x";"https://static.wixstatic.com/media/011f56_29a65a3b9ca44bbb8afcb4244eddf389.jpg/v1/fill/w_542,h_156,al_c,q_80,usm_0.66_1.00_0.01/011f56_29a65a3b9ca44bbb8afcb4244eddf389.webp";"6AM - 7PM";"6AM - 7PM";"6AM - 7PM";"6AM - 7PM";"6AM - 7PM";"Closed";"Closed";
1176357;"Luisa Family Learning Center";"4300 Old Jonesboro Road";"Forest Park";"GA";30297;"CLAYTON";"(404) 503-5752";;;;;;;;;;;;;;;;;;;;;;;
1176356;"Love Your Kids Childcare Center";"4032 Rockbridge Road";"Stone Mountain";"GA";30083;"DEKALB";"(678) 974-2222";;;;;;;;;;;;;;;;;;;;;;;
1176355;"Little Sunshine's Playhouse";"12385 Morris Road";"Alpharetta";"GA";30005;"FULTON";"(888) 858-8070";"https://www.littlesunshine.com/";"admissions@littlesunshine.com";"Little Sunshine’s Playhouse and Preschool is recognized within the industry as a premier early childhood education program and is proud to be a part of the Alpharetta community. We offer an identity of unrivaled distinction in our brand image and high-profile architectural presence, and in the level of support and training our franchise system provides the School Operators.";"https://www.littlesunshine.com/alpharetta-georgia-2/";"https://www.facebook.com/AlpharettaLSP/";"https://www.littlesunshine.com/careers-2-2/";;;"x";"x";"x";"x";;;"https://www.littlesunshine.com/wp-content/uploads/2018/02/logo.png";"6:30AM - 6:30PM";"6:30AM - 6:30PM";"6:30AM - 6:30PM";"6:30AM - 6:30PM";"6:30AM - 6:30PM";"Closed";"Closed";
1176354;"Little Rascals";"196A Zetterower Road";"Statesboro";"GA";30458;"BULLOCH";"(912) 764-5127";;;"Little Rascal's provides child care services for children ages birth to 4, and we also have a lottery funded Prekindergarten. CACFP participant.";;"https://www.facebook.com/littlerascalscclc/";;;;"x";"x";"x";"x";;;"https://scontent.fskp2-1.fna.fbcdn.net/v/t1.0-1/p200x200/18519738_1886708174937617_4311075829613932346_n.jpg?_nc_cat=0&oh=a610b566e377adf6a3be6713d1312659&oe=5BC50749";"6:30AM - 6PM";"6:30AM - 6PM";"6:30AM - 6PM";"6:30AM - 6PM";"6:30AM - 6PM";"Closed";"Closed";
1176353;"Little Linguists Decatur";"141A Sams Street";"Decatur";"GA";30030;"DEKALB";"(404) 370-3828";"http://www.littlelinguistspreschool.com/";"info@littlelinguistspreschool.com";"This center offers a full-day, full language immersion preschool for children Infant to Pre-K in addition to summer programs for children up to 12 years old.";"http://www.littlelinguistspreschool.com/about-us/locations.cfm";"https://www.facebook.com/LittleLinguists/";;"http://www.littlelinguistspreschool.com/apply-now/";;"x";"x";"x";"x";;;"https://scontent.fskp2-1.fna.fbcdn.net/v/t1.0-9/18222156_10155292220737767_5222085712471747996_n.jpg?_nc_cat=0&oh=824e69a20e35ec03d4f9642d2b624638&oe=5B78BA26";;;;;;;;
1176352;"Little Leaders Academy of Arts";"330 Lynhurst Drive";"Atlanta";"GA";30311;"FULTON";"(678) 710-2003";"https://www.littleleadersatl.com/";"info@littleleadersatl.com";"Little Leaders' Academy of Arts is a childcare facility that uses arts and technology to enhance education and learning in children.";"https://www.littleleadersatl.com/";"https://www.facebook.com/Little-Leaders-Academy-of-Arts-1691240001119911/";;"https://www.littleleadersatl.com/blank-1";;"x";"x";"x";"x";"x";"x";"https://scontent.fskp2-1.fna.fbcdn.net/v/t1.0-1/p200x200/1934299_1692249661018945_5649832255349013522_n.png?_nc_cat=0&oh=61e36ace46a990701c980f4b581d4b58&oe=5B83CF04";"6AM - 7PM";"6AM - 7PM";"6AM - 7PM";"6AM - 7PM";"6AM - 7PM";"Closed";"Closed";
1176347;"Little Harvard Learning Center @ Gainesville";"286 Crescent Drive";"Gainesville";"GA";30501;"HALL";"(770) 297-1500";"http://www.littleharvardlc.com/";"info@littleharvardlc.com";"Little Harvard Learning Center aims to offer safe and secure child care at all times. Close personal attention to each child is essential to providing a quality experience for all children; therefore, adequate personnel will be hired to ensure each child has the proper supervision in our care. Our goal is to respond to the needs of the parents and children with excellence care-giving and instruction, flexible programs, local community involvement and high quality educational system";"http://www.littleharvardlc.com/contact/";"https://www.facebook.com/LittleHarvardLC/";;"http://www.littleharvardlc.com/apply/";;;;;;;;"http://www.littleharvardlc.com/wp-content/uploads/2016/10/little-harvard-learning-center-white.png";"6:30AM - 6:30PM";"6:30AM - 6:30PM";"6:30AM - 6:30PM";"6:30AM - 6:30PM";"6:30AM - 6:30PM";"Closed";"Closed";
1176348;"Little Harvard Learning Center @ Oakwood";"5006 McEver Road";"Oakwood";"GA";30566;"HALL";"(770) 536-4671";"http://www.littleharvardlc.com/";"info@littleharvardlc.com";"Little Harvard Learning Center aims to offer safe and secure child care at all times. Close personal attention to each child is essential to providing a quality experience for all children; therefore, adequate personnel will be hired to ensure each child has the proper supervision in our care. Our goal is to respond to the needs of the parents and children with excellence care-giving and instruction, flexible programs, local community involvement and high quality educational system";"http://www.littleharvardlc.com/contact/";;;"http://www.littleharvardlc.com/apply/";;;;;;;;"http://www.littleharvardlc.com/wp-content/uploads/2016/10/little-harvard-learning-center-white.png";"6:30AM - 6:30PM";"6:30AM - 6:30PM";"6:30AM - 6:30PM";"6:30AM - 6:30PM";"6:30AM - 6:30PM";"Closed";"Closed";
1176349;"Little House Academy";"5760 Wade Whelchel Road";"Murrayville";"GA";30564;"HALL";"(770) 532-1925";"http://www.lhaga.com/";"administrator@lhaga.com";"Every child is a unique individual who learns in a different way and at a different rate.  Little House Academy ’s program is designed to match the needs of all children and provide a stimulating, yet challenging learning environment.  ";"http://www.lhaga.com/contact_us";"https://www.facebook.com/Little-House-Academy-772077772819455/";;;;;;;;;;;;;;;;;;
1176350;"Little L.A.M.B.S. Preschool";"23344 US Highway 17";"Townsend";"GA";31331;"MCINTOSH";"(912) 832-3906";"http://southnewportbaptist.org/";"littlelambspreschoolsnbc@gmail.com";"We have been officially approved for CAPS funding. If you could use financial assistance for childcare, call us and let’s see what we can get started for you!!!";"http://southnewportbaptist.org/preschool-little-lambs/";"https://www.facebook.com/southnewportbaptist/";;"http://southnewportbaptist.org/wp-content/uploads/2016/05/ENROLLMENT-APPLICATIONfillable.pdf";"http://southnewportbaptist.org/wp-content/uploads/2016/05/compiledhnadbook.pdf";"x";"x";"x";"x";;;"http://southnewportbaptist.org/wp-content/uploads/2016/05/llbrochurepage2.jpg";"6:30AM - 6PM";"6:30AM - 6PM";"6:30AM - 6PM";"6:30AM - 6PM";"6:30AM - 6PM";"Closed";"Closed";
1176351;"Little Lambs Daycare";"10510 Clara Drive";"Roswell";"GA";30075;"FULTON";"(770) 885-6020";"http://little-lambsdaycare.com/";"info@little-lambsdaycare.com";"At Little Lambs Daycare we have an open door policy. We believe it does take a Village to raise one child. This is why we believe parent teacher communication is the key for your child’s success. The more we know about your child the more we can accomplish the goal and hopefully exceed your expectations for your child.";"http://little-lambsdaycare.com/";"https://www.facebook.com/lldroswellga/";;"http://little-lambsdaycare.com/parent-corner/";"http://little-lambsdaycare.com/parent-corner/";"x";"x";"x";"x";;;"http://little-lambsdaycare.com/wp-content/uploads/2013/11/Lambs-logo_horizontal.jpg";"7AM - 6:30PM";"7AM - 6:30PM";"7AM - 6:30PM";"7AM - 6:30PM";"7AM - 6:30PM";"Closed";"Closed";
1176346;"Little Happy Feet Early Learning Center";"624 North Main Street";"Pine Mountain";"GA";31822;"HARRIS";"(706) 489-3124";;"littlehappyfeetllc@gmail.com";"Little Happy Feet Learning Center is committed to child development and quality care for the children we serve. Our objective is to provide a positive atmosphere, which will promote the social, physical, and intellectual growth of each child to ensure good health, safety, and welfare.";;"https://www.facebook.com/littlehappyfeetearlylearningcenterllc/";;;;;;;;;;"https://scontent.fskp2-1.fna.fbcdn.net/v/t1.0-1/c0.0.200.200/p200x200/20621188_1926363244289469_2845294100669404123_n.jpg?_nc_cat=0&oh=f446cf8175fff217c673b0d3237dee87&oe=5BBD6D2F";"6AM - 6PM";"6AM - 6PM";"6AM - 6PM";"6AM - 6PM";"6AM - 6PM";"Closed";"Closed";
1176362;"McClarity's Lil Angels Learning Center #2";"2136 Donald Lee Hollowell Parkway";"Atlanta";"GA";30318;"FULTON";"(404) 975-3457";;;;;;;;;;;;;;;;;;;;;;;
1176361;"McClarity's Lil Angels Learning Center";"3890 Rockmart Road";"Silver Creek";"GA";30173;"FLOYD";"(706) 233-9033";;;;;;;;;;;;;;;;;;;;;;;
1176360;"Making A Mark Learning Academy";"3850 Glenwood Rd.";"Decatur";"GA";30032;"DEKALB";"(404) 289-5414";;;;;;;;;;;;;;;;;;;;;;;
1176359;"Madalyn's House Childcare";"3865 Powder Springs Road";"Powder Springs";"GA";30127;"COBB";"(678) 269-6030";"http://www.mhousechildcare.com/";"mhousechildcare@gmail.com";"Madalyn's House Childcare Center offers 24 HOUR CHILDCARE 7 DAYS A WEEK INCLUDING HOLIDAYS in a safe, nurturing environment where your child will receive the attention and care that he or she needs. Our ratio of children to adults is always within state guidelines - and often even lower - to make certain each child receives top-quality care.";"http://www.mhousechildcare.com/";"https://www.facebook.com/MADALYNSHOUSECHILDCARE/?ref=nf";"http://www.mhousechildcare.com/employment";"http://www.mhousechildcare.com/tuition";"http://www.mhousechildcare.com/tuition";"x";"x";"x";"x";"x";;"http://mediaprocessor.websimages.com/fit/1920x1920/www.mhousechildcare.com/madalynshouse24childcarenewlogo.png";"Open 24/7";"Open 24/7";"Open 24/7";"Open 24/7";"Open 24/7";"Open 24/7";"Open 24/7";
1176358;"Luv The Kidz Learning Academy";"2130 Godby Road";"College Park";"GA";30349;"Fulton";"(404) 768-3010";;;;;;;;;;;;;;;;;;;;;;;
1176372;"Molly Learning Academy and Daycare";"2605 Campbellton Road";"Atlanta";"GA";30311;"FULTON";"(404) 956-8864";;;;;;;;;;;;;;;;;;;;;;;
1176373;"Monroe County";"525 Highway 83 South";"Forsyth";"GA";31029;"MONROE";"(478) 994-5174";"http://www.maconbibbeoc.com/about-us/offices/";;"Our Head Start and Early Head Start programs support low-income families with the comprehensive development of children from birth to age 5.";"http://www.maconbibbeoc.com/head-start/";;;;;;;"x";"x";;;"http://www.maconbibbeoc.com/wp-content/uploads/2015/10/2015-EOC-people-logo-two-kids.png";;;;;;;;
1176367;"Mental Fitness @ Inman Middle School";"774 Virginia Avenue";"Atlanta";"GA";30313;"FULTON";"(678) 938-7208";"https://www.mentalfitnessatl.org/";"info@mentalfitnessatl.org";"Our program at Inman Middle School is growing to meet the needs of our students.  Last year we began a pilot program to focus on 20 students that could benefit from having additional after-school tutorial, STEAM enrichment, a healthy snack and supper and some great relationship building with their peers.";"https://www.mentalfitnessatl.org/inman-middle-school.html";"http://www.facebook.com/mentalfitnessatl";"https://www.mentalfitnessatl.org/join-our-team.html";;;;;;;"x";;;;;;;;;;
1176368;"Mental Fitness @ The Fairburn Youth Center";"149 Roosevelt Highway";"Fairburn";"GA";30213;"FULTON";"(678) 938-7208";"https://www.mentalfitnessatl.org/";" info@mentalfitnessatl.org";"Our program at the Fairburn Youth Center will consist of Homework Assistance, healthy snacks, supper and STEAM opportunities including Lego workshops weekly. ";"https://www.mentalfitnessatl.org/city-of-fairburn.html";"http://www.facebook.com/mentalfitnessatl";"https://www.mentalfitnessatl.org/join-our-team.html";;;;;;;"x";;;;;;;;;;
1176366;"Meadowdale Learning Center - Feagin Mill Road";"1451 Feagin Mill Rd";"Warner Robins";"GA";31088;"HOUSTON";"(478) 953-1200";"http://www.meadowdalelearningcenter.com/";"mlcfeaginmill@yahoo.com";"We have programs for your young children, from 6 weeks old all the way up to the 5th grade. Your child will get the care they deserve, guaranteed. We serve a hot breakfast, hot lunch and afternoon snack. We follow the USDA Nutrition Guidelines when planning our menus.";"http://www.meadowdalelearningcenter.com/contact-us/3587631";"https://www.facebook.com/pages/biz/child_care/Meadowdale-Learning-Center/157055174310081/";;;;"x";"x";"x";"x";;"x";"http://www.meadowdalelearningcenter.com/communities/3/000/001/775/853//images/11538968.png";"6:15AM - 5PM";"6:15AM - 5PM";"6:15AM - 5PM";"6:15AM - 5PM";"6:15AM - 5PM";"Closed";"Closed";
1176380;"My First Academy";"2305 Old Milton Parkway";"Alpharetta";"GA";30009;"FULTON";"(770) 559-3152";"http://myfirstacademy.net/";"maria@myfirstacademy.com";"A Montessori school for children 12 weeks old to 6 years old.";"http://myfirstacademy.net/";"https://www.facebook.com/My-First-Academy-150661698308916/";;"http://myfirstacademy.net/howtoapply.html";"http://myfirstacademy.net/parentsinfo.html";"x";"x";"x";"x";;;"https://scontent.fskp2-1.fna.fbcdn.net/v/t31.0-8/963814_596197233755358_1670041465_o.jpg?_nc_cat=0&oh=1c9bdba3762c800c009a005ad55c7b29&oe=5BBEABBB";"7AM - 6PM";"7AM - 6PM";"7AM - 6PM";"7AM - 6PM";"7AM - 6PM";"Closed";"Closed";
1176374;"Montessori School at Grayson";"420 Pine Grove Avenue";"Grayson";"GA";30017;"GWINNETT";"(770) 366-9496";"http://www.montessoriatgrayson.com/";"rahima@montessoriatGrayson.com";"The Montessori environment is a constructive, protective, motivating environment for children, richly supplied with motives for activity which opens the door to unlimited initiative which inspire the child to work towards attaining good work habits, lengthened attention span, good problem solving skills, strengthening concentration, and achieving new insights. Montessori education sets the child free to move along the path of human development.";"http://www.montessoriatgrayson.com/";"https://www.facebook.com/Montessori-School-at-Grayson-1673558082950518/";;;;;"x";"x";"x";;;"http://www.montessoriatgrayson.com/images/logo.png";;;;;;;;
1176378;"Mrs. Sharon's Playschool of Camden";"307 Myrtle Avenue";"Woodbine";"GA";31569;"CAMDEN";"(912) 576-3440";;;"Professional day care";;"https://www.facebook.com/Ms-Sharons-Playschool-1434431820122042/";;;;;;;;;;;;;;;;;;
1176379;"Ms. Pam's Precious Angels Family Childcare Center 2";"2125 Old Salem Road";"Conyers";"GA";30013;"ROCKDALE";"(678) 545-6772";"https://services.procareonline.com/WaitList/Waitlist.aspx?key=5754929778";"mspamspreciousangels@gmail.com";"Ms. Pam’s Precious Angels Family Childcare Center was developed to provide a safe, affordable, and loving quality child care environment for children.";"https://services.procareonline.com/WaitList/Waitlist.aspx?key=5754929778";"https://www.facebook.com/pg/Mspamspreciousangels/about/?ref=page_internal";;;;"x";"x";"x";"x";;;"https://services.procareonline.com/WaitList/Waitlist.aspx?key=5754929778&DXCache=44009ed3-a5ae-4779-96d6-0722521bf497";"Open 24/6";"Open 24/6";"Open 24/6";"Open 24/6";"Open 24/6";"Open 24/6";"Closed";
1176384;"Noah's Ark Preschool Academy of Terrell";"774 2nd Avenue  SE";"Dawson";"GA";39842;"TERRELL";"(229) 995-5936";"http://www.noahsarkpreschoo.com/";"noahsarkpreschoolacademy@gmail.com";"Our mission is to ensure that child care services are available for families that are unable or need assistance in retaining jobs or furthering their education.    ";"http://www.noahsarkpreschoo.com/";"https://www.facebook.com/Noahsarkofterrell/";;;;"x";"x";"x";"x";;;"https://scontent.fskp2-1.fna.fbcdn.net/v/t1.0-1/p200x200/12316416_1179654235395186_6679213200494729949_n.jpg?_nc_cat=0&oh=8c155521358d3b990317f167926f4928&oe=5B763A55";;;;;;;;
1176385;"Northwest Youth Power @ Magnolia Park  ELC";"61 Paschal Boulevard";"Atlanta";"GA";30314;"FULTON";"(404) 892-5107";;;"Northwest Youth power is a 501 c 3 organization that provides needed services to Northwest Atlanta Community.";;"https://www.facebook.com/Northwest-Youth-Power-Early-Learning-Center-152359894805842/";;;;"x";"x";"x";;;;;;;;;;;;
1176382;"New Beginnings Children's Learning Center";"5094 GA-91";"Donalsonville";"GA";39845;"SEMINOLE";"(229) 524-8003";;"dbonner203@gmail.com";"Our mission is to educate children mentally, physically, socially, and spiritually, in a loving and nurturing environment, while encouraging them to develop sound Christian work habits and character traits as they grow in their personal knowledge of God.";;"https://www.facebook.com/New-Beginnings-Childrens-Learning-Center-1212037978856164/";;;;"x";"x";"x";"x";;;;"7:30AM - 6PM";"7:30AM - 6PM";"7:30AM - 6PM";"7:30AM - 6PM";"7:30AM - 6PM";"Closed";"Closed";
1176383;"Next Level Enrichment Academy";"2377 Candler Road";"Decatur";"GA";30032;"DEKALB";"(404) 503-8531";;;;;;;;;;;;;;;;;;;;;;;
1176395;"Pierce County Head Start/Early Head Start";"655 Grady Street";"Blackshear";"GA";31516;"PIERCE";"(912) 449-0004";"http://www.psesd.org/";"comm@psesd.org";"Head Start and Early Head Start serve more than 2,000 children and families in King and Pierce counties. We provide grant management, liaison with state agencies, offer training, technical assistance, professional development, and overall program coordination";"http://www.psesd.org/learning-and-teaching/early-learning/head-start-and-early-head-start/";"https://www.facebook.com/PSESD";;;;"x";"x";"x";"x";;;"http://psesd.org/wp-content/uploads/2017/03/Header_logo_white2.png";"7:30AM - 4:30PM";"7:30AM - 4:30PM";"7:30AM - 4:30PM";"7:30AM - 4:30PM";"7:30AM - 4:30PM";"Closed";"Closed";
1176394;"Piedmont Academy Early Learning Center";"570 Piedmont Road";"Marietta";"GA";30066;"COBB";"(770) 423-9578";;;;;;;;;;;;;;;;;;;;;;;
1176393;"Peterson Avenue Head Start/Early Head Start";"1303 South Peterson Avenue";"Douglas";"GA";31533;"COFFEE";"(912) 720-0027";;;;;;;;;;;;;;;;;;;;;;;
1176392;"Perry Head Start";"905 Evergreen Street";"Perry";"GA";31069;"HOUSTON";"(478) 988-4256";;;;;;;;;;;;;;;;;;;;;;;
1176389;"Pearson Head Start";"636 Austin Avenue East";"Pearson";"GA";31642;"ATKINSON";"(209) 576-4392";;;;;;;;;;;;;;;;;;;;;;;
1176390;"People of Faith Early Learning and Child Care Center";"503 East 21st Avenue";"Cordele";"GA";31015;"CRISP";"(229) 417-5137";;;;;"https://www.facebook.com/People-of-Faith-Christian-Church-460146327373363/";;;;;;;;;;;;;;;;;;
1176387;"Patterson Y-Time";"3414 Drawdy Street";"Patterson";"GA";31557;"PIERCE";"(912) 647-5373";"http://pes.pierce.k12.ga.us/";"pesgobears@gmail.com";"Patterson Elementary builds a foundation that promotes excellence while providing a platform for our students to become critical thinkers who excel globally.";"http://pes.pierce.k12.ga.us/";"https://www.facebook.com/PattersonElementarySchool/";;"http://pes.pierce.k12.ga.us/?PageName=%27Forms%27&iSection=%27Administrative%27&CorrespondingID=%270%27";"http://pes.pierce.k12.ga.us/?PageName=%27Handbook%27";;;"x";"x";;;;"7:20AM - 2:40PM";"7:20AM - 2:40PM";"7:20AM - 2:40PM";"7:20AM - 2:40PM";"7:20AM - 2:40PM";"Closed";"Closed";
1176386;"Our Mission Early Learning Center";"5320 Phillips Drive";"Morrow";"GA";30260;"CLAYTON";"(678) 466-0280";;;"Our Mission Early Learning Center is a pre-school committed to providing affordable care and education for early learners.";;"https://www.facebook.com/OurMissionEarlyLearningCenter/";;;;;;"x";"x";;;"https://scontent.fskp2-1.fna.fbcdn.net/v/t1.0-1/c70.0.181.181/13718527_151692608571297_1908081726988584392_n.jpg?_nc_cat=0&oh=15aa768a0b7a9a7881f463b040e6b012&oe=5BADEEAC";;;;;;;;
1176404;"Preparing for the Future Child Care Center";"1210 S. Lee Street";"Quitman";"GA";31643;"BROOKS";"(407) 454-1467";;;;;;;;;;;;;;;;;;;;;;;
1176403;"Pre-K Preparatory Learning Academy";"438 Prior Street  NE";"Gainesville";"GA";30501;"HALL";"(678) 943-1237";"http://preparatorylearningacademy.com/";"prekpreparatoryacademy@gmail.com";"Pre-K Preparatory Learning Academy, Inc. is a private, faith based non-profit 501©3 organization. We are dedicated to providing a warm, nurturing, and safe learning environment.";"http://preparatorylearningacademy.com/";"https://www.facebook.com/prekpreparatory/";;;;"x";"x";"x";"x";;;"http://preparatorylearningacademy.com/logofinal.png";"6AM - 12:30AM";"6AM - 12:30AM";"6AM - 12:30AM";"6AM - 12:30AM";"6AM - 12:30AM";"Closed";"Closed";
1176402;"Preferred School Care @ Woodson Park Academy";"20 Evelyn Way";"Atlanta";"GA";30318;"FULTON";"(404) 802-7750";"http://www.pscafterschool.com/";"brangreen@atlanta.k12.ga.us ";"Our Mission is to provide quality and affordable after school child care services for the children of working parents. Preferred School Care (PSC) programs are designed to provide a safe, nurturing, and supportive academic/social environment for students.";"http://www.pscafterschool.com/locations.html";;;"http://www.pscafterschool.com/assets/enrollment-form2c.pdf";"http://www.pscafterschool.com/assets/psc_parent_handbook_2015_draft.pdf";;;"x";"x";"x";;"http://www.pscafterschool.com/images/logo.png";"2:30PM - 6PM";"2:30PM - 6PM";"2:30PM - 6PM";"2:30PM - 6PM";"2:30PM - 6PM";"Closed";"Closed";
1176401;"Preferred School Care @ Kindezi Elementary";"386 Pine Street  NE";"Atlanta";"GA";30308;"FULTON";"(404) 719-4005";"http://www.pscafterschool.com/";;"Our Mission is to provide quality and affordable after school child care services for the children of working parents. Preferred School Care (PSC) programs are designed to provide a safe, nurturing, and supportive academic/social environment for students.";"http://www.pscafterschool.com/locations.html";;;"http://www.pscafterschool.com/assets/enrollment-form2c.pdf";"http://www.pscafterschool.com/assets/psc_parent_handbook_2015_draft.pdf";;;"x";"x";"x";;"http://www.pscafterschool.com/images/logo.png";"2:30PM - 6PM";"2:30PM - 6PM";"2:30PM - 6PM";"2:30PM - 6PM";"2:30PM - 6PM";"Closed";"Closed";
1176400;"Preferred School Care @ Hollis Innovation Academy";"225 James P. Brawley Drive";"Atlanta";"GA";30314;"FULTON";"(404) 802-8200";"http://www.pscafterschool.com/";"outofzone@atlanta.k12.ga.us";"Our Mission is to provide quality and affordable after school child care services for the children of working parents. Preferred School Care (PSC) programs are designed to provide a safe, nurturing, and supportive academic/social environment for students.";"http://www.pscafterschool.com/locations.html";;;"http://www.pscafterschool.com/assets/enrollment-form2c.pdf";"http://www.pscafterschool.com/assets/psc_parent_handbook_2015_draft.pdf";;;"x";"x";"x";;"http://www.pscafterschool.com/images/logo.png";"2:30PM - 6PM";"2:30PM - 6PM";"2:30PM - 6PM";"2:30PM - 6PM";"2:30PM - 6PM";"Closed";"Closed";
1176399;"Preferred School Care @ Cascade Elementary";"2326 Venetian Drive  SW";"Atlanta";"GA";30311;"FULTON";"(404) 802-8100";"http://www.pscafterschool.com/";"outofzone@atlanta.k12.ga.us";"Our Mission is to provide quality and affordable after school child care services for the children of working parents. Preferred School Care (PSC) programs are designed to provide a safe, nurturing, and supportive academic/social environment for students.";"http://www.pscafterschool.com/locations.html";;;"http://www.pscafterschool.com/assets/enrollment-form2c.pdf";"http://www.pscafterschool.com/assets/psc_parent_handbook_2015_draft.pdf";;;"x";"x";"x";;"http://www.pscafterschool.com/images/logo.png";"2:30PM - 6PM";"2:30PM - 6PM";"2:30PM - 6PM";"2:30PM - 6PM";"2:30PM - 6PM";"Closed";"Closed";
1176398;"Precious LIttle One Child Care Center";"150 Evans Mill Drive";"Dallas";"GA";30157;"PAULDING";"(770) 372-3913";"http://www.plocccenter.com/";"preciouslittleonechildcarecenter@hotmail.com";"We provide quality childcare for all children in the surrounding community and general public. Our facility provides a Safe, Nurturing, Fun, Caring and creative learning environment. At Precious Little One Children are first hugged and then taught. Our goal is to develop children in all area of growth- physical, emotionally, socially, and intellectually. We offer full & part-time childcare, before/after, and breakfast/lunch/snack.";"http://www.plocccenter.com/";"https://www.facebook.com/pages/biz/day_care_preschool-dallas-30157/Precious-Little-One-Child-Care-Center/459638127553187/";"https://plocccenter.com/contact-us-ii/join-our-team/";"https://plocccenter.com/parent-resources/";"https://plocccenter.com/parent-resources/";"x";"x";"x";;"x";;"https://plocccenter.com/wp-content/uploads/2015/10/Precious-Little-Ones-Logo2-3501.png";"6AM - 6:30PM";"6AM - 6:30PM";"6AM - 6:30PM";"6AM - 6:30PM";"6AM - 6:30PM";"Closed";"Closed";
1176397;"Practical Learning Ivy League College Preparatory Academy";"2000 Eastside Drive";"Conyers";"GA";30013;"ROCKDALE";"(470) 488-4025";"http://www.ivyleaguecollegeacademy.com/";"practicallearningilcpa@aol.com";"If you are looking for a nursery school, preschool or kindergarten for your young child, consider Practical Learning Ivy League College Preparatory Academy with locations in Stockbridge and Conyers, Georgia. We are focused on the individual needs of each and every child. Our classroom is held in a safe, happy and nurturing learning environment";"http://www.ivyleaguecollegeacademy.com/Contact/";"https://www.facebook.com/Practical-Learning-Ivy-League-College-Preparatory-Academy-540672349468426/";;;;"x";"x";"x";"x";;;"https://scontent.fskp2-1.fna.fbcdn.net/v/t1.0-1/c27.0.200.200/p200x200/14064183_540688699466791_8302143904750595570_n.jpg?_nc_cat=0&oh=e707e596680fd751f97372683f726725&oe=5B819F3B";;;;;;;;
1176410;"Primrose School of Athens";"180 Athens Town Boulevard";"Athens";"GA";30606;"CLARKE";"(706) 850-0223";"https://www.primroseschools.com/";"wbeasley@primroseathens.com";"With purposeful play and nurturing guidance from teachers, our Balanced Learning approach inspires children to think in more ways: with creativity, compassion and resourcefulness. This time-tested approach instills a love of learning and discovery that helps your child develop and excel for years.";"https://www.primroseschools.com/schools/athens/";"https://www.facebook.com/PrimroseAthens/";"https://www.primroseschools.com/schools/athens/careers/";;;"x";"x";"x";"x";"x";"x";"https://scontent.fskp2-1.fna.fbcdn.net/v/t1.0-1/p200x200/19146293_1693271730975500_4416053500285362558_n.png?_nc_cat=0&oh=32e037c49bf6ea523198473dfdc9fd00&oe=5B787FE0";"6:30AM - 6:30PM";"6:30AM - 6:30PM";"6:30AM - 6:30PM";"6:30AM - 6:30PM";"6:30AM - 6:30PM";"Closed";"Closed";
1176409;"PrimeTime Discovery - Monte Sano Elementary School";"2164 Richmond Avenue";"Augusta";"GA";30904;"RICHMOND";"(706) 922-9656";"https://thefamilyy.org/";;"Kids want to exert energy, to discover who they are, what they can achieve and to be accepted. The Family YMCA’s PrimeTime After School care provides all of this in a safe, well-supervised environment. Kids participate in a variety of skill-building games, crafts, outdoor activities, homework time and curriculums which reinforce character development, reading, science and math.";"https://thefamilyy.org/programs/22511516/prime-time-2017-2018/";"https://www.facebook.com/FamilyYofGreaterAugusta";"https://thefamilyy.org/about-us/jobs/";;;;;;;"x";;"https://s3.amazonaws.com/recliquecore/imgs/ymca_logos/named/blue_purple.png";;;;;;;;
1176408;"Prime Step LLC. Child Care Center";"1800 Water Place  Suite 228";"Atlanta";"GA";30339;"FULTON";"(770) 980-8448";"http://primestepchildcare.com/";"director@primestepchildcare.com";"We offer childcare for children ages 3 months to school ages. We also offer after school bus pick-up f";"http://primestepchildcare.com/";"https://www.facebook.com/Primestep1";;;;"x";"x";"x";;;;;;;;;;;;
1176407;"Primary Kid's Academy";"2294 Moody Road";"Warner Robins";"GA";31088;"HOUSTON";"(478) 449-8787";;;"Child care";;"https://www.facebook.com/17childcare/";;;;"x";"x";"x";"x";;;"https://scontent.fskp2-1.fna.fbcdn.net/v/t1.0-1/p200x200/32829080_787299051472617_2473379100631236608_n.jpg?_nc_cat=0&oh=9286db30c8a06dfc4bbc73e4609dc105&oe=5BB0554C";"6AM - 6PM";"6AM - 6PM";"6AM - 6PM";"6AM - 6PM";"6AM - 6PM";"Closed";"Closed";
1176419;"Ready Set Grow Learning Academy";"5900 Warm Springs Road";"Columbus";"GA";31909;"MUSCOGEE";"(229) 469-7923";;;;;;;;;;;;;;;;;;;;;;;
1176420;"Red Trolleys Daycare Center";"1212 S. Patterson Street";"Valdosta";"GA";31601;"LOWNDES";"(229) 469-7923";;"redtrolleys@gmail.com";"Small Group Setting, Licensed Child Care Provider";;"https://www.facebook.com/Red-Trolleys-Day-Care-Services-1149489075085216/";;;;"x";"x";"x";"x";;;"https://scontent.fskp2-1.fna.fbcdn.net/v/t1.0-1/c28.0.200.200/p200x200/3385_1149504308417026_1903012831565972488_n.png?_nc_cat=0&oh=81c66fb8572175cf2edb99d79d044564&oe=5BB64A11";"6:30AM - 6:30PM";"6:30AM - 6:30PM";"6:30AM - 6:30PM";"6:30AM - 6:30PM";"6:30AM - 6:30PM";"Closed";"Closed";
1176418;"Reading World Academy";"2491 Columbia Drive";"Decatur";"GA";30034;"DEKALB";"(404) 288-2721";"http://readingworldacademy.com/";;"A Complete Program of Learning and Fun For Your Child";"http://readingworldacademy.com/";"https://www.facebook.com/pages/Reading-World-Academy/112045072192415";;"http://readingworldacademy.com/georgia-pre-k/4520370538";"http://readingworldacademy.com/policiesprocedures/4525117110";"x";"x";"x";"x";"x";;"http://readingworldacademy.com/communities/5/004/005/999/465/images/4518084562_525x419.jpg";"7AM - 6PM";"7AM - 6PM";"7AM - 6PM";"7AM - 6PM";"7AM - 6PM";"Closed";"Closed";
1176417;"Quitman County Early Childhood Development and Education Center";"213 Kaigler Road";"Georgetown";"GA";39854;"QUITMAN";"(229) 334-9214";"https://enrichmentservices.org/center-locations/";;;;;;;;;;;;;;;;;;;;;;
1176416;"Queenie's Angels Christian Academy";"1130 Concord Road";"Smyrna";"GA";30080;"COBB";"(770) 790-8954";;"queeniesangelsca@gmail.com";"To Give our Children the best quality education needed to succeed in Life. This is where their learning experience begins.";;"https://www.facebook.com/queeniesangelsca/";;;;;"x";"x";"x";;;;"6AM - 7PM";"6AM - 7PM";"6AM - 7PM";"6AM - 7PM";"6AM - 7PM";"Closed";"Closed";
1176415;"Quality Child Care Academy";"533 Washington Avenue  NE";"Marietta";"GA";30060;"COBB";"(404) 542-7308";"https://qualitychildcareconsulting.com/";"support@qualitychildcareconsulting.com";"Our mission is to create a warm, positive, safe educational environment for children, parents and staff. We are focused to cultivate character and provide real world experiences for every child in order for them to have a positive impact on their community and the world around them.";"https://qualitychildcareconsulting.com/";"https://www.facebook.com/Quality-Child-Care-Academy-1605567666402231/";;;;"x";"x";"x";"x";;;"https://scontent.fskp2-1.fna.fbcdn.net/v/t1.0-1/p200x200/27545210_1835599166732412_1350522938025708030_n.jpg?_nc_cat=0&oh=8f9413040169851bb91f1cd41773b507&oe=5B80D821";"6AM - 12PM";"6AM - 12PM";"6AM - 12PM";"6AM - 12PM";"6AM - 12PM";"6AM - 12PM";"Closed";
1176414;"Props Academy";"15A Executive Circle";"Savannah";"GA";31406;"CHATHAM";"(912) 231-7027";;"propsdance1@gmail.com";"Props Performing Arts is a Dance and Musical Performance Group.";;"https://www.facebook.com/PropsPA/";;;;;;;;;;"https://scontent.fskp2-1.fna.fbcdn.net/v/t1.0-1/p200x200/21617549_118065348908457_1132949413521815136_n.jpg?_nc_cat=0&oh=bf4b7fc4d3b93c1a665475f4a1d95a2b&oe=5B782DF2";"5:45PM -6:45PM";"Closed";"5:45PM -6:45PM";"Closed";"Closed";"Closed";"Closed";
1176413;"Prodigy Point";"3515 Sugarloaf Parkway";"Lawrenceville";"GA";30044;"GWINNETT";"(678) 825-5437";"http://www.prodigypoint.com/";"sugarloaf@prodigypoint.com";"Prodigy Point is committed to the total needs of your preschooler. In Lawrenceville, Georgia, our Sugarloaf Parkway location is conveniently located ½ mile northwest of Five Forks Trickum Road. We offer care for children between the ages of six weeks and twelve years of age and are considered a premier provider of daycare/childcare services in Gwinnett County.";"http://www.prodigypoint.com/";"https://www.facebook.com/ProdigyPointLawrenceville";;;;"x";"x";"x";"x";"x";;"http://www.prodigypoint.com/images/header.jpg";"6:30AM - 6:30PM";"6:30AM - 6:30PM";"6:30AM - 6:30PM";"6:30AM - 6:30PM";"6:30AM - 6:30PM";"Closed";"Closed";
1176411;"Princeton Early Prep School";"2877 Johnson Ferry Road";"Marietta";"GA";30062;"COBB";"(770) 417-8841";"http://princetonearlyprep.com/";"princetonprep@outlook.com";"We provide a comprehensive preschool education which engages the whole child. Daily teaching and learning objectives that will focus on the child's development in the following areas: Social, Emotional, Physical, and Cognitive. We believe parents are a child's first and primary teacher; so we encourage parent involvement in our program and insight into your child's unique learning style.";"http://princetonearlyprep.com/";"https://www.facebook.com/Princeton-Early-Preparatory-School-Montessori-Style-408365376184591/";"http://princetonearlyprep.com/employment-application/";"http://princetonearlyprep.com/enrollment-forms/";;"x";"x";"x";"x";;;"https://scontent.fskp2-1.fna.fbcdn.net/v/t1.0-1/17629887_408401822847613_1482946096713112592_n.jpg?_nc_cat=0&oh=4847adf4cefaf1f4723bd4d37eeac619&oe=5BC2CCD4";"6:30AM - 6:30PM";"6:30AM - 6:30PM";"6:30AM - 6:30PM";"6:30AM - 6:30PM";"6:30AM - 6:30PM";"Closed";"Closed";
1176424;"Rockbridge Care and Learning Center";"4733 Rockbridge Road";"Stone Mountain";"GA";30083;"DEKALB";"(404) 246-1149";;;;;;;;;;;;;;;;;;;;;;;
1176422;"Rising Stars Child Development Center";"815 US HIGHWAY 27";"Cataula";"GA";31804;"HARRIS";"(706) 322-5556";;;;;"https://www.facebook.com/pages/Rising-Stars-Child-Development-Center/136116406437834";;;;;;;;;;;;;;;;;;
1176423;"Rock Springs Head Start/EHS";"343 Bicentennial Trail";"Rock Spring";"GA";30739;"WALKER";"(830) 683-2556";;;;;;;;;;;;;;;;;;;;;;;
1176430;"SoulShine";"525 West Howard Avenue";"Decatur";"GA";30030;"DEKALB";"(404) 963-6071";"https://www.makeyoursoulshine.com/";"soulshinesprouts@gmail.com";"At SoulShine, we engage, empower, and encourage our children.";"https://www.makeyoursoulshine.com/";"https://www.facebook.com/soulshinedecatur/";;;"https://www.makeyoursoulshine.com/decatur/";"x";"x";"x";"x";"x";"x";"http://mysoulshine.wpengine.com/wp-content/uploads/SOULSHINE_LOGO.png";"7AM - 6:30PM";"7AM - 6:30PM";"7AM - 6:30PM";"7AM - 6:30PM";"7AM - 6:30PM";"Closed";"Closed";
1176427;"Small Wonders Playcare Center Evans";"229 N. Belair Rd.";"Evans";"GA";30809;"COLUMBIA";"(706) 860-7676";"https://www.smallwonderspc.com/";"swplaycare@gmail.com";"The center is now taking care of a second generation roster as several of the parents of the children enrolled now were cared for at the center themselves";"https://www.smallwonderspc.com/";"https://www.facebook.com/smallwondersplaycare/?rf=152617394779851";;"https://www.smallwonderspc.com/admissions";"https://www.smallwonderspc.com/tuition-information";"x";"x";"x";"x";;;"https://static.wixstatic.com/media/38c4b8_272a1464673f4966bad33d08af3b8f39~mv2.gif";"6:30AM - 6:30PM";"6:30AM - 6:30PM";"6:30AM - 6:30PM";"6:30AM - 6:30PM";"6:30AM - 6:30PM";"Closed";"Closed";
1176436;"Strength and Honor Learning Academy";"2500 Cherokee Road  B";"Athens";"GA";30605;"CLARKE";"(706) 351-5229";;;;;"https://www.facebook.com/Strength-And-Honor-Learning-Academy-LLC-206813179748888/";;;;;;;;;;;;;;;;;;
1176437;"Strong Rock Christian School Early Learning Center";"139 Locust Grove-Griffin Road";"Locust Grove";"GA";30248;"HENRY";"(678) 782-3364";"http://strongrockchristianschool.com/";;"The Strong Rock Christian School Early Learning Center is located on 139 L G Griffin Road in Locust Grove and serves students ages 6 weeks to 4 years old.";"http://strongrockchristianschool.com/early-learning-center/";"https://www.facebook.com/strongrockchristianschool";;"http://strongrockchristianschool.com/wp-content/uploads/2016/12/CHILDREN%E2%80%99S-ENROLLMENT-FORM.pdf";"http://strongrockchristianschool.com/wp-content/uploads/2016/07/2016-2017-ELC-Family-Handbook-updated-6-28-2016.pdf";"x";"x";"x";"x";;;"http://strongrockchristianschool.com/wp-content/uploads/2016/02/Untitled-2-1.jpg";"6:30AM - 6:30PM";"6:30AM - 6:30PM";"6:30AM - 6:30PM";"6:30AM - 6:30PM";"6:30AM - 6:30PM";"Closed";"Closed";
1176435;"Stepping Stones Early Development Center";"305 West White Road";"Byron";"GA";31008;"PEACH";"(478) 956-2510";"http://steppingstonesearlydevelopment.com/";" stepstones956@hotmail.com";"It’s important to remember how sensitive and impressionable young children are.";"http://steppingstonesearlydevelopment.com/";"https://www.facebook.com/pages/Stepping-Stones-Early-Development-Center/133730480012649";;;"http://steppingstonesearlydevelopment.com/parent-resources/3147637";"x";"x";"x";"x";;;"http://steppingstonesearlydevelopment.com/communities/9/000/001/644/709//images/8593458.png";"6AM - 6PM";"6AM - 6PM";"6AM - 6PM";"6AM - 6PM";"6AM - 6PM";"Closed";"Closed";
1176433;"Stephen's Loving Arms Childcare";"2315 Perkerson Road SW";"Atlanta";"GA";30315;"FULTON";"(404) 549-3277";;;;;;;;;;;;;;;;;;;;;;;
1176434;"Stepping Stones Academy";"1108 Bear Creek Boulevard";"Hampton";"GA";30228;"HENRY";"(678) 495-8326 ";;;"The BEST Choice for Early Learning & Care in Hampton";;"https://www.facebook.com/SteppingStonesHampton/";;;;"x";"x";"x";"x";;;"https://scontent.fskp2-1.fna.fbcdn.net/v/t1.0-1/c56.0.200.200/p200x200/15873157_1212985258777611_1683636411727959689_n.png?_nc_cat=0&oh=9a4efed33b21194fc6a2abed6b395c92&oe=5BB82510";"6AM - 7PM";"6AM - 7PM";"6AM - 7PM";"6AM - 7PM";"6AM - 7PM";"7AM - 5PM";"Closed";
1176431;"Southport Academy at Lord of Life";"111 Menendez Avenue";"St. Simons";"GA";31522;"Glynn";"(912) 771-8946";;;;;;;;;;;;;;;;;;;;;;;"Closed"
1176446;"The Children's Courtyard #3214";"7460 McGinnis Ferry Road";"Suwanee";"GA";30024;"GWINNETT";"(770) 418-1882";"https://www.childrenscourtyard.com/";;"We offer infant care, preschool and school-age programs as well as an after-school program for Findley Oaks, John's Creek, Shakerag, Wilson Creek, and Medlock Bridge. ";"https://www.childrenscourtyard.com/your-local-school/suwanee-ga-3214/";"https://www.facebook.com/ChildrensCourtyard";"https://www.childrenscourtyard.com/about-us/child-care-careers/";"https://www.childrenscourtyard.com/child-care-centers/enrollment/";;"x";"x";"x";"x";;;;"6:30AM - 6:30PM";"6:30AM - 6:30PM";"6:30AM - 6:30PM";"6:30AM - 6:30PM";"6:30AM - 6:30PM";"Closed";"Closed";
1176445;"The Children's Courtyard";"4460 Brookmont Parkway";"Douglasville";"GA";30135;"DOUGLAS";"(770) 577-8181";"https://www.childrenscourtyard.com/";;"Our educational daycare offers infant care, preschool, pre-kindergarten and other early education options, as well as before- and after-school care for school-age students.";"https://www.childrenscourtyard.com/your-local-school/douglasville-ga-3211/";"https://www.facebook.com/ChildrensCourtyard";;;;"x";"x";"x";"x";"x";;;"6:30AM - 6:30PM";"6:30AM - 6:30PM";"6:30AM - 6:30PM";"6:30AM - 6:30PM";"6:30AM - 6:30PM";"Closed";"Closed";
1176444;"The Children's Courtyard";"201 Center Pointe Parkway";"Stockbridge";"GA";30281;"HENRY";"(678) 289-4777";"https://www.childrenscourtyard.com/";;"Our center offers Infant Care, Preschool, Before- and After-School care, as well as many other early education programs.";"https://www.childrenscourtyard.com/your-local-school/stockbridge-ga-3210/";"https://www.facebook.com/ChildrensCourtyard";;;;"x";"x";"x";"x";"x";;;"6:30AM - 6:30PM";"6:30AM - 6:30PM";"6:30AM - 6:30PM";"6:30AM - 6:30PM";"6:30AM - 6:30PM";"Closed";"Closed";
1176443;"The Academy of Lovejoy";"11729 Hastings Bridge Road";"Hampton";"GA";30228;"HENRY";"(770) 472-5437";;;"Learning Center for Kids of all ages!";;"https://www.facebook.com/LoevjoyAcademy/";;;;"x";"x";"x";"x";;;"https://scontent.fskp2-1.fna.fbcdn.net/v/t1.0-1/c149.53.662.662/s200x200/312304_443459552418947_447525822_n.jpg?_nc_cat=0&oh=197317e6cdbc424c58b42f75d5c3c044&oe=5BBD43C7";"6AM - 7PM";"6AM - 7PM";"6AM - 7PM";"6AM - 7PM";"6AM - 7PM";"Closed";"Closed";
1176442;"The Academy at Ellison Lakes";"2400 Ellison Lakes Drive";"Kennesaw";"GA";30152;"COBB";"(770) 919-0192";"http://academyatellisonlakes.com/";"theacademyatallisonlakes@gmail.com";"At The Academy at Ellison Lakes we believe that the child’s first teacher is the parent and we want to be partners with you.";"http://academyatellisonlakes.com/";"https://www.facebook.com/alwaysputtingchildrenfirst/";;;;"x";"x";"x";"x";;;"http://academyatellisonlakes.com/wp-content/uploads/2017/05/TheAcademoyatEllisonLakes_small-1-300x138.png";"6AM - 7PM";"6AM - 7PM";"6AM - 7PM";"6AM - 7PM";"6AM - 7PM";"Closed";"Closed";
1176440;"TenderCare Preschool";"803 South Main Street";"Greensboro";"GA";30642;"GREENE";"(706) 453-1200";"http://www.tendercarega.org/";;"Children are the world's most valuable resource and its best hope for the future";"http://www.tendercarega.org/tendercare-preschool/";"https://www.facebook.com/TenderCare-PreSchool-and-DayCare-Academy-114512994633/";;;;;;"x";"x";;;;"6:30AM - 6PM";"6:30AM - 6PM";"6:30AM - 6PM";"6:30AM - 6PM";"6:30AM - 6PM";"Closed";"Closed";
1176439;"Team 3 After School Program";"1290 Green Street  SE";"Conyers";"GA";30012;"ROCKDALE";"(404) 720-5662";"https://www.team3asp.com/home";"info@team3asp.com";"Our mission is to provide an environment that is conducive for learning and encourages curiosity, exploration, problem solving, and self-expression as well as assist children with developing a positive self-image through developing an appreciation for good health and fitness through sports and play. ";"https://www.team3asp.com/home";"https://www.facebook.com/team3asp/";;;;;;;;"x";"x";"https://static.wixstatic.com/media/0174f2_3e060abc9b5a4e7d82a1047a8d944fb1~mv2.png/v1/fill/w_292,h_150,al_c/0174f2_3e060abc9b5a4e7d82a1047a8d944fb1~mv2.png";;;;;;;;
1176452;"The Learning Express  CCLC #2";"9633 B. Highway 5";"Douglasville";"GA";30135;"DOUGLAS";"(770) 966-2443";;;;;;;;;;;;;;;;;;;;;;;
1176453;"The Learning Ladder Academy";"420 Hurricane Shoals Road";"Lawrenceville";"GA";30046;"GWINNETT";"(678) 471-6751";;;;;;;;;;;;;;;;;;;;;;;"Closed"
1176454;"The Learning Villa";"3810 University Avenue";"Columbus";"GA";31907;"MUSCOGEE";"(301) 633-9110";;;"Early years starting at 2 and up";;"https://www.facebook.com/steamvilla1/";;;;;;"x";;"x";;"https://scontent.fskp2-1.fna.fbcdn.net/v/t1.0-1/c1.0.200.200/p200x200/20375685_501171743553746_244180022214912030_n.jpg?_nc_cat=0&oh=bd18290fd0fb83302415117a9320fc57&oe=5B78A3D4";"6:30AM - 7PM";"6:30AM - 7PM";"6:30AM - 7PM";"6:30AM - 7PM";"6:30AM - 7PM";"Closed";"Closed";
1176451;"The Fathers Learning Development Center";"2406 Liberty Expressway";"Albany";"GA";31705;"DOUGHERTY";"(229) 432-7596";;;;;;;;;;;;;;;;;;;;;;;"License Not Renewed"
1176450;"The Elite School 101";"2755 Flat Shoals Rd";"College Park";"GA";30349;"Fulton";"(770) 703-4823";"http://www.theeliteschool.com/";"eliteschoolatl@gmail.com";"Our vision is to give children a positive, safe, learning environment where they can be nurtured, learn life skills and know that the world around them provides a vast array of opportunities.";"http://www.theeliteschool.com/";;;;;"x";"x";"x";"x";;"x";"http://nebula.wsimg.com/7f684d5a9741116ec34fa92339ccddcc?AccessKeyId=6BDD58BDC6BFAE019161&disposition=0&alloworigin=1";"6AM - 7PM";"6AM - 7PM";"6AM - 7PM";"6AM - 7PM";"6AM - 7PM";"Closed";"Closed";
1176449;"The Duluth Montessori School - Sugarloaf Campus";"1768 Old Peachtree Road";"Duluth";"GA";30097;"GWINNETT";"(770) 476-9307";"http://www.duluthmontessori.com/";"sugarloaf@duluthmontessori.com";"Established 30 years ago, The Duluth Montessori School is fully accredited by Association Montessori Internationale (AMI), the organization established to protect and maintain the integrity of the Montessori principles. We educate children 14 months to 15 years of age.";"http://www.duluthmontessori.com/contact-us/";"https://www.facebook.com/duluthmontessori";;;;;"x";"x";"x";;;"http://www.duluthmontessori.com/wp-content/themes/dms/images/logo-official.png";"8AM - 3PM";"8AM - 3PM";"8AM - 3PM";"8AM - 3PM";"8AM - 3PM";"Closed";"Closed";
1176448;"The Duluth Montessori School";"2997 Main Street";"Duluth";"GA";30096;"GWINNETT";"(678) 474-9967";"http://www.duluthmontessori.com/";"mainstreet@duluthmontessori.com";"Established 30 years ago, The Duluth Montessori School is fully accredited by Association Montessori Internationale (AMI), the organization established to protect and maintain the integrity of the Montessori principles. We educate children 14 months to 15 years of age.";"http://www.duluthmontessori.com/contact-us/";"https://www.facebook.com/duluthmontessori";;"http://www.duluthmontessori.com/parent-information/forms/";"http://www.duluthmontessori.com/parent-information/forms/";;"x";"x";"x";;"x";"http://www.duluthmontessori.com/wp-content/themes/dms/images/logo-official.png";;;;;;;;
1176447;"The Children's Courtyard #3215";"4795 Windermere Pkwy";"Cumming";"GA";30041;"FORSYTH";"(678) 947-4416";"https://www.childrenscourtyard.com/";;"At The Children's Courtyard, our Infant Child Care and Preschool programs provide the perfect foundation for learning and development. Our Advanced Pre-K program ensures that your child is ready for their journey to Kindergarten.";"https://www.childrenscourtyard.com/your-local-school/cumming-ga-3215/";"https://www.facebook.com/ChildrensCourtyard";"https://www.childrenscourtyard.com/about-us/child-care-careers/";"https://www.childrenscourtyard.com/child-care-centers/enrollment/";;"x";"x";"x";"x";;;;"6:30AM - 6:30PM";"6:30AM - 6:30PM";"6:30AM - 6:30PM";"6:30AM - 6:30PM";"6:30AM - 6:30PM";"Closed";"Closed";
1176459;"The Success Learning Academy (Point South)";"699 Pointe South Parkway";"Jonesboro";"GA";30238;"CLAYTON";"(678) 379-0323";"https://www.tslainc.com/";"info@tslainc.com";"Together we will provide the means necessary to offer a quality environment for all children served";"https://www.tslainc.com/locations";"https://www.facebook.com/tslainc/";"https://www.tslainc.com/careers";"https://www.tslainc.com/curriculum";;"x";"x";"x";"x";"x";;"https://scontent.fskp2-1.fna.fbcdn.net/v/t1.0-1/p200x200/10255451_473678656125639_3367228432838729368_n.jpg?_nc_cat=0&oh=427b889c1e91c2dd92f904a87cc0bc9d&oe=5BB9774C";"6AM - 6:30PM";"6AM - 6:30PM";"6AM - 6:30PM";"6AM - 6:30PM";"6AM - 6:30PM";"Closed";"Closed";
1176460;"The Trinity School";"814 West Avenue";"Cartersville";"GA";30120;"BARTOW";"(770) 386-7479";"http://www.thetrinityschool.net/";"trinity.school.sdeitz@gmail.com";"The Mission of The Trinity School, in partnership with Trinity United Methodist Church, is to provide a Christ-centered learning community in which all parties are fully committed to the success of every child. Working together, we facilitate meaningful learning experiences that cultivate growth and development of the whole child.";"http://www.thetrinityschool.net/";"https://www.facebook.com/The-Trinity-School-933311820061943/";;;;;;"x";"x";;"x";"http://www.thetrinityschool.net/hp_wordpress/wp-content/uploads/2016/04/paper-logo_logo.gif";"7:30AM - 5:30PM";"7:30AM - 5:30PM";"7:30AM - 5:30PM";"7:30AM - 5:30PM";"7:30AM - 5:30PM";"Closed";"Closed";
1176455;"The Magnolia School & Child Care Center #1";"1367 Lake Ridge Parkway";"Riverdale";"GA";30296;"CLAYTON";"(770) 997-2800";"http://themagnoliaschoolandchildcarecenter1.business.site/";;"You want your children to succeed in all areas of their life, and it’s important to help them begin building a solid foundation at a young age. Dedicated to helping children improve socially and academically, The Magnolia School and Child Care Center #1 in Riverdale, GA, provides professional childcare in a state-licensed facility for children throughout Clayton County.";"http://themagnoliaschoolandchildcarecenter1.business.site/";;;;;"x";"x";"x";"x";;"x";;"6:30AM - 6:30PM";"6:30AM - 6:30PM";"6:30AM - 6:30PM";"6:30AM - 6:30PM";"6:30AM - 6:30PM";"Closed";"Closed";
1176456;"The Magnolia School & Child Care Center #2";"7390 Hwy. 85";"Riverdale";"GA";30274;"CLAYTON";"(770) 994-2102";"http://themagnoliaschoolandchildcarecenter2.business.site/";;"You want your children to succeed in all areas of their life, and it’s important to help them begin building a solid foundation at a young age. Dedicated to helping children improve socially and academically, The Magnolia School and Child Care Center #2 in Riverdale, GA, provides professional childcare in a state-licensed facility for children throughout Clayton County.";"http://themagnoliaschoolandchildcarecenter2.business.site/";;;;;"x";"x";"x";"x";;;;"6:30AM - 6:30PM";"6:30AM - 6:30PM";"6:30AM - 6:30PM";"6:30AM - 6:30PM";"6:30AM - 6:30PM";"Closed";"Closed";
1176457;"The Magnolia School & Child Care Center #3";"413 North Park Drive";"Dalton";"GA";30720;"WHITFIELD";"(706) 279-3686";;;;;;;;;"x";"x";"x";"x";;;;;;;;;;;
1176458;"The McGee Learning Center";"800 Lawrenceville Highway";"Lawrenceville";"GA";30046;"GWINNETT";"(770) 963-9504";;;;;;;;;;;;;;;;;;;;;;;"Closed"
1176467;"Victoria's Academy & Learning Center";"110 E. DeRenne Avenue";"Savannah";"GA";31405;"CHATHAM";"(912) 441-3896";;;"Our Business Is A Christian Base Institution Where Our Goals Is To Transform The Lies Of The Next Generation";;"https://www.facebook.com/Victorias-Academy-999137543456207/";;;;;;;;;;;;;;;;;;
1176465;"Turning Sun School East Lake";"2500 Hosea Williams Drive";"Atlanta";"GA";30317;"FULTON";"(404) 228-1797";"https://turningsun.com/";"turningsun.main@gmail.com";"Turning Sun School is a collaborative learning school. We are a progressive school inspired by place-based education, the project approach, the Reggio Emilia approach and welcoming schools/anti-bias. We focus on our local community and natural world. We build our year around seasonal celebrations and class projects following the project approach.";"https://turningsun.com/campuses/#East_Lake_Campus";"https://www.facebook.com/turningsunschool/";"https://turningsun.com/visitors/";"https://turningsun.com/admissions/";;;"x";"x";"x";;"x";"https://scontent.fskp2-1.fna.fbcdn.net/v/t1.0-1/p200x200/526754_437082612986133_480716411_n.jpg?_nc_cat=0&oh=3cf6a92ab19a9aa5db3b87e4eb9b5cc7&oe=5BB3603E";"8AM - 3:30PM";"8AM - 3:30PM";"8AM - 3:30PM";"8AM - 3:30PM";"8AM - 3:30PM";"Closed";"Closed";
1176466;"USA Daycare Academy";"6185 Buford Highway";"Peachtree Corners";"GA";30071;"Gwinnett";"(770) 824-4140";"https://www.usadaycareacademy.com/";" usadaycareacademy@gmail.com";"Here at USA Daycare Academy, we strive to help prepare your child for success at the earliest stages of life. We understand how important education is in order to become a successful adult. ";"https://www.usadaycareacademy.com/";"https://www.facebook.com/USADAYCAREACADEMY/";;"https://www.usadaycareacademy.com/admissions";;"x";"x";"x";"x";;;"https://scontent.fskp2-1.fna.fbcdn.net/v/t1.0-1/p200x200/14642489_1768180940119780_5247342512334065909_n.jpg?_nc_cat=0&oh=8ad5e55ebbce2fff0c8c3cb11fb8478b&oe=5BAE8E99";"6:30AM - 8:30PM";"6:30AM - 8:30PM";"6:30AM - 8:30PM";"6:30AM - 8:30PM";"6:30AM - 8:30PM";"Closed";"Closed";
1176464;"Turning Sun School Clairmont";"2676 Clairmont Road";"Atlanta";"GA";30329;"FULTON";"(404) 907-3012";"https://turningsun.com/";"turningsun.main@gmail.com";"Turning Sun School is a collaborative learning school. We are a progressive school inspired by place-based education, the project approach, the Reggio Emilia approach and welcoming schools/anti-bias. We focus on our local community and natural world. We build our year around seasonal celebrations and class projects following the project approach.";"https://turningsun.com/campuses/#Clairmont_Campus";"https://www.facebook.com/turningsunschool/";"https://turningsun.com/visitors/";"https://turningsun.com/admissions/";;;"x";"x";"x";;"x";"https://scontent.fskp2-1.fna.fbcdn.net/v/t1.0-1/p200x200/526754_437082612986133_480716411_n.jpg?_nc_cat=0&oh=3cf6a92ab19a9aa5db3b87e4eb9b5cc7&oe=5BB3603E";"8AM - 3:30PM";"8AM - 3:30PM";"8AM - 3:30PM";"8AM - 3:30PM";"8AM - 3:30PM";"Closed";"Closed";
1176462;"Tracey's Stay-N-Play";"153 Evergreen Street";"Warner Robins";"GA";31093;"HOUSTON";"(478) 320-7569";;;;;;;;;;;;;;;;;;;;;;;
1176471;"Wee Wisdom Day Nursery & Kindergarten";"1679 Columbia Drive";"Decatur";"GA";30032;"DEKALB";"(404) 284-8898";;;;;;;;;;;;;;;;;;;;;;;
1176472;"Westfield Pines Academy";"2325 south Madison Street";"Albany";"GA";31701;"DOUGHERTY";"(229) 439-1289";;;;;;;;;;;;;;;;;;;;;;;
1176473;"Westside Kids";"175 Racine Street";"Atlanta";"GA";30314;"FULTON";"(404) 400-2688";;;;;;;;;;;;;;;;;;;;;;;
1176468;"Walter P. Jones Early Head Start/Head Start Center";"2350 Alandale Drive";"Macon";"GA";31217;"BIBB";"(478) 738-3245";;;;;;;;;;;;;;;;;;;;;;;
1176482;"YMCA ASP @ Graves Elementary";"1700 Graves Road";"Norcross";"GA";30093;"GWINNETT";"(770) 246-9622";"http://www.afterschoolga.org/";" info@afterschoolga.org";"The Georgia Statewide Afterschool Network (GSAN) is a public-private collaborative that envisions a day when all communities in Georgia have the resources to provide exceptional afterschool programming. Our mission is to advance, connect, and support quality afterschool programs to promote the success of children and youth throughout Georgia.";"http://www.afterschoolga.org/programs/ymca-at-graves-elementary/";;;"http://www.afterschoolga.org/programregistration/";;;;;;"x";;"http://www.afterschoolga.org/wp-content/uploads/2014/09/GSANlogo-e1410815238598_wordpress_small.jpg";"2:45PM - 6PM";"2:45PM - 6PM";"2:45PM - 6PM";"2:45PM - 6PM";"2:45PM - 6PM";"Closed";"Closed";
1176481;"YMCA After School Program at Liberty Tech Charter School";"119 Price Road";"Brooks";"GA";30205;"FAYETTE";"(404) 316-7316";"http://www.afterschoolga.org/";" info@afterschoolga.org";"The Georgia Statewide Afterschool Network (GSAN) is a public-private collaborative that envisions a day when all communities in Georgia have the resources to provide exceptional afterschool programming. Our mission is to advance, connect, and support quality afterschool programs to promote the success of children and youth throughout Georgia.";"http://www.afterschoolga.org/programs/summit-family-ymca-after-school-at-liberty-tech-charter-school/";;;"http://www.afterschoolga.org/programregistration/";;;;;;"x";;"http://www.afterschoolga.org/wp-content/uploads/2014/09/GSANlogo-e1410815238598_wordpress_small.jpg";"3:30PM - 6:30PM";"3:30PM - 6:30PM";"3:30PM - 6:30PM";"3:30PM - 6:30PM";"3:30PM - 6:30PM";"Closed";"Closed";
1176480;"Y After School @ Ester Jackson Elementary";"1400 Martin Road";"Roswell";"GA";30075;"FULTON";"(770) 663-3525";"https://www.ymcaatlanta.org/";"brookesp@ymcaatlanta.org 7";"With a focus on social growth and academic achievement, Y afterschool programs serve K-5 with a variety of activities to help develop their talents.";"https://www.ymcaatlanta.org/program-locations/afterschool/alpharetta.php";"https://www.facebook.com/MetroAtlantaY";"https://www.ymcaatlanta.org/employment/";"https://spiritonline.ymcaatlanta.org/SpiritWeb/SearchClass?_EXECEVENT=ONSEARCH&MARKETING_CODE=CCAFTERSCH&BRANCH_IDENTIFIER=4";;;;;;"x";;"https://scontent.fskp2-1.fna.fbcdn.net/v/t1.0-1/p200x200/14980673_1297094877009664_3004687585890868523_n.jpg?_nc_cat=0&oh=379214837ad1c58799e3e6b841622f0d&oe=5B7B472E";;;;;;;;
1176478;"World of Discovery Daycare";"3104 Skinner Mill Road";"Augusta";"GA";30909;"RICHMOND";"(706) 738-6381";;;;;;;;;;;;;;;;;;;;;;;"Closed"
1176477;"Wise Owl Learning Academy";"704 Charlotte Place";"Atlanta";"GA";30318;"FULTON";"(404) 914-1982";;;;;;;;;;;;;;;;;;;;;;;
1176475;"Williams Wonderland Academy";"4686 Buena Vista Road  Unit 5";"Columbus";"GA";31906;"MUSCOGEE";"(706) 587-8027";"https://twitter.com/wonderland_ga?lang=en";;;;;;;;;;;;;;;;;;;;;;
1176483;"YMCA ASP at Woodson Park Academy";"20 Evelyn Way  NW";"Atlanta";"GA";30318;"FULTON";"(404) 350-9292";"https://www.atlantapublicschools.us/page/12034";"wrthompson@gsu.edu";"To provide opportunities for young people to participate in educational, sports, cultural and community enrichment programs during after school.";"https://www.atlantapublicschools.us/Page/41545";;;;;;;;;"x";;"https://www.atlantapublicschools.us/cms/lib/GA01000924/Centricity/Template/GlobalAssets/images///School%20Logos/WoodsonParkLogofinal14.png";;;;;;;;
1176485;"Byron Elementary School";"202 New Dunbar Rd.";"Byron";"GA";31008;"PEACH";"(478) 825-9650";"http://www.peachschools.org/";"klauritsen@peachschools.org";"Our Mission is to graduate college and career ready students. Our Vision is learning today, leading tomorrow.";"http://www.peachschools.org/4/Home";"https://www.facebook.com/Byron-Elementary-School-396350124087676/";;"http://www.peachschools.org/Content/182";"http://www.peachschools.org/userfiles/3/my%20files/handbook/handbook%20fy18.pdf?id=13777";;;"x";"x";;;"http://www.peachschools.org/images/full//userfiles/2017-08/a02cb292-b7bc-4344-9749-1d7e58aebcac.jpg";"7:30AM - 4PM";"7:30AM - 4PM";"7:30AM - 4PM";"7:30AM - 4PM";"7:30AM - 4PM";"Closed";"Closed";
1176484;"Blue Ridge Elementary";"2290 E First Street";"Blue Ridge";"GA";30513;"FANNIN";"(706) 632-5772";"http://www.bres.fannin.k12.ga.us/";;"The Fannin County School System will be recognized as a world class school system that holds a vision of excellence for all students with successful student progression at each level and a 100% graduation rate.";"http://www.bres.fannin.k12.ga.us/";"https://www.facebook.com/blueridgeelementaryschool/";;;;;;"x";"x";;;"http://images.pcmac.org/SiSFiles/Schools/GA/FanninCounty/BlueRidgeElem/images/HeaderLogo.png";"8AM - 3PM";"8AM - 3PM";"8AM - 3PM";"8AM - 3PM";"8AM - 3PM";"Closed";"Closed";
1176488;"Eastside Elementary";"425 Prospect Rd.";"Rockmart";"GA";30153;"POLK";"(770) 684-5335";"http://www.polk.k12.ga.us/";;"The mission of our school is to educate our future.....one child at a time.";"http://www.polk.k12.ga.us/6/Home";"https://www.facebook.com/eastsideelementaryschoolrockmart/";;;"http://www.polk.k12.ga.us/userfiles/986/my%20files/system-wide%20handbook%202017-2018.final.pdf?id=244327";;;"x";"x";;;"https://scontent.fskp2-1.fna.fbcdn.net/v/t1.0-1/p200x200/27459220_2178018402211955_5971159070999124000_n.jpg?_nc_cat=0&oh=08289214e367d73da841aab31a0d75e6&oe=5B784332";"7:45AM to 3PM";"7:45AM to 3PM";"7:45AM to 3PM";"7:45AM to 3PM";"7:45AM to 3PM";"Closed";"Closed";
1176489;"Fairview Elementary";"458 Fairview Road";"Stockbridge";"GA";30253;"HENRY";"(770) 474-8265";"https://schoolwires.henry.k12.ga.us/";;"It is our mission at Fairview Elementary School to ensure measurable success for all students as determined by state and national standards. We are committed to a system of support that addresses diversity through goal setting in a safe and orderly environment. The faculty, staff, and community are dedicated to academic excellence and achievement within a collaborative framework.";"https://schoolwires.henry.k12.ga.us/fe";"https://www.facebook.com/fvehenry/";;"https://schoolwires.henry.k12.ga.us/domain/12409";"https://schoolwires.henry.k12.ga.us/cms/lib/GA01000549/Centricity/Domain/36/Elementary%20Student%20Handbook%20-%20English%201a.pdf";;;"x";"x";;;"https://schoolwires.henry.k12.ga.us/cms/lib/GA01000549/Centricity/Template/GlobalAssets/images///logos/Fair%20View%20Elementary.jpg";"7:45AM- 2:25PM";"7:45AM- 2:25PM";"7:45AM- 2:25PM";"7:45AM- 2:25PM";"7:45AM- 2:25PM";"Closed";"Closed";
1176487;"East Laurens Elementary";"960 Highway 80 East";"East Dublin";"GA";31027;"Laurens";"(478) 272-8612";"http://www.lcboe.net/";;" ELE continues to be one of the best elementary schools in this county.";"http://www.lcboe.net/6/Home";"https://www.facebook.com/eastlaurenselementary/";;;"http://www.lcboe.net/6/Content2/112";;;"x";"x";;;"https://scontent.fskp2-1.fna.fbcdn.net/v/t1.0-1/c0.56.200.200/p200x200/12321104_1494400807530975_245742659652980787_n.jpg?_nc_cat=0&oh=20cd44490c1fa50861a2d6da85d45b82&oe=5BC128BF";;;;;;;;
1176486;"Demorest Elementary";"3116 Demorest-Mt. Airy Hwy";"Demorest";"GA";30535;"HABERSHAM";"(706) 778-4126";"http://demorest.ga.hce.schoolinsites.com/";"cyearwood@habershamschools.com";"Demorest Elementary School prides itself as an orderly school with a high level of respect among staff and students. As a staff, we feel the need to continue this goal by helping children learn necessary skills for school success";"http://demorest.ga.hce.schoolinsites.com/";;;"http://demorest.ga.hce.schoolinsites.com/?PageName=bc&n=202945";"http://images.pcmac.org/SiSFiles/Schools/GA/HabershamCounty/DemorestElementary/Uploads/DocumentsCategories/Documents/DemorestHandbook2017-2018.pdf";;;"x";"x";;;;"7:15AM - 2:45PM";"7:15AM - 2:45PM";"7:15AM - 2:45PM";"7:15AM - 2:45PM";"7:15AM - 2:45PM";"Closed";"Closed";
1176493;"Hollis Innovation Academy";"225 Griffin Street NW";"Atlanta";"GA";30314;"FULTON";"(404) 802-8217";"https://www.atlantapublicschools.us/";"outofzone@atlanta.k12.ga.us";"Michael R. Hollis Innovation Academy is a PK-8 EL Education Expeditionary STEM School.";"https://www.atlantapublicschools.us/HollisInnovation";"https://www.facebook.com/HollisInnovation/";;;"https://www.atlantapublicschools.us/cms/lib/GA01000924/Centricity/Domain/94/2web_ENG%202017-18%20APS%20Student%20Handbook_July%202017.pdf";;;"x";"x";;;"https://www.atlantapublicschools.us/cms/lib/GA01000924/Centricity/Template/GlobalAssets/images///School%20Logos/Hollis_logo.png";;;;;;;;
1176491;"Goodyear Elementary School";"3000 Roxboro Rd";"Brunswick";"GA";31520;"GLYNN";"(912) 267-4170";"http://www.glynn.k12.ga.us/";;"To create 21st century learning environments that offer opportunities for all students to pursue higher education and develop skills that meet workforce needs while producing informed, conscientious and productive citizens who give back to their community";"http://www.glynn.k12.ga.us/Goodyear.cfm";;;"http://www.glynn.k12.ga.us/documents.cfm?location=5&id=5";"http://www.glynn.k12.ga.us/documents.cfm?location=5&id=5";;;"x";"x";;;"http://www.glynn.k12.ga.us/pix/schools/5-logo.png";;;;;;;;
1176492;"Hillcrest Elementary School";"1100 Edgewood Drive";"Dublin";"GA";31021;"LAURENS";"(478) 353-8200";"http://hes.dcs.irish/";"janet.hill@dcsirish.com";"We are enthusiastic about what is going to take place this year at Hillcrest Elementary School! We want each of you to take part in this journey as we continue to LEAP towards success by achieving excellence.";"http://hes.dcs.irish/";;;;"https://drive.google.com/file/d/0B29kO4twhejuX0FOZEJGOHN4OVk/view";;;"x";"x";;;"https://d6vze32yv269z.cloudfront.net/organizations/3df777ae-6504-4f2a-b040-8b1a904062b2/mwzerk-Hillcrest-ES-Logo.png";;;;;;;;
1176490;"Fort Valley Head Start";"700 Spruce Street";"Fort Valley";"GA";31030;"PEACH";"(478) 825-8584";;;;;;;;;;;;;;;;;;;;;;;
1176496;"John Robert Lewis Elementary";"2383 North Druid Hills Road  NE";"Atlanta";"GA";30329;"FULTON";"(678) 874-1502";;;;;;;;;;;;;;;;;;;;;;;
1176494;"Huddleston Elementary";"20  McIntosh Trail";"Peachtree City";"GA";30269;"FAYETTE";"(770) 631-3255";"https://www.fcboe.org/";"pfannenstiel.heidi@mail.fcboe.org";"The Huddleston community creates a safe, nurturing, and engaging learning environment where staff and students collaborate to achieve our personal best.";"https://www.fcboe.org/hes";"https://www.facebook.com/HuddlestonElementarySchool/";;"https://www.fcboe.org/Domain/1130";"https://www.fcboe.org/Domain/1134";;;"x";"x";;;"https://www.fcboe.org/cms/lib/GA01900971/Centricity/Template/GlobalAssets/images///100px%20logos/hes.png";"7:40AM – 2:25PM";"7:40AM – 2:25PM";"7:40AM – 2:25PM";"7:40AM – 2:25PM";"7:40AM – 2:25PM";"Closed";"Closed";
1176495;"Jimmie Samuel @ Agnes Barden Early Head Start/Head Start Center";"2521 Anderson Drive";"Macon";"GA";31206;"BIBB";"(478) 738-3240";;;;;;;;;;;;;;;;;;;;;;;
1176497;"Lakeside Church";"5800 Lake Oconee Parkeway";"Greensboro";"GA";30642;"GREENE";"(706) 454-1652";"http://lakesidechurch.ws/";"questions@lakesidechurch.ws";"We believe our children play an active role in the Kingdom. We are here to assist parents, as we invite our kids to experience and learn the true heart of God. We long for them to understand that they are part of the journey. ";"http://lakesidechurch.ws/ministries/kids";"https://www.facebook.com/lakesidechurchatlakeoconee/";;;;;;"x";"x";;;"https://s3.amazonaws.com/media.cloversites.com/df/df8ce5b5-8d00-41b9-8413-733595be3fd1/site-images/0d7c118a-da40-4c43-bf98-374d0ae313c0.png";"9AM - 4PM";"9AM - 4PM";"9AM - 4PM";"9AM - 4PM";"9AM - 4PM";"Closed";"Closed";
1176498;"Oakland Elementary";"551 Highway 81 West";"McDonough";"GA";30253;"HENRY";"(770) 954-1901";"https://schoolwires.henry.k12.ga.us/";;"Oakland Elementary prepares each student for academic and personal success in an ever-changing global community by creating opportunities for every child to excel every day!";"https://schoolwires.henry.k12.ga.us/oe";"https://www.facebook.com/OKESOWLS/";;;"https://schoolwires.henry.k12.ga.us/domain/12574";;;"x";"x";;;"https://schoolwires.henry.k12.ga.us/cms/lib/GA01000549/Centricity/Template/GlobalAssets/images///logos/1%20Oakland%20Elementary.png";"7:45AM – 2:25PM";"7:45AM – 2:25PM";"7:45AM – 2:25PM";"7:45AM – 2:25PM";"7:45AM – 2:25PM";"Closed";"Closed";
1176501;"Sweet Apple";"12025 Etris Road";"Roswell";"GA";30075;"FULTON";"(470) 254-3310";"http://school.fultonschools.org/";;"Working together to excel in academics and citizenship";"http://school.fultonschools.org/es/sweetapple/Pages/default.aspx";;;"http://school.fultonschools.org/es/sweetapple/Pages/RegistrationandForms.aspx";"http://school.fultonschools.org/es/sweetapple/Documents/SAE%20Family%20Handbook%2017-18.pdf";;;"x";"x";;;;"7:10AM - 2:20PM";"7:10AM - 2:20PM";"7:10AM - 2:20PM";"7:10AM - 2:20PM";"7:10AM - 2:20PM";"Closed";"Closed";
1176500;"Stonewall Tell Elementary";"3310 Stonewall Tell Road";"College Park";"GA";30349;"Fulton";"(470) 254-3500";"http://school.fultonschools.org/";;"The mission of Stonewall Tell Elementary School is to create and sustain a safe, culturally sensitive, and rigorous academic environment in which the power of ""collective capacity"" is used to identify and implement a diversity of research-based, technologically advanced strategies to advance teaching and learning, resulting in greater student academic performance.";"http://school.fultonschools.org/es/stonewalltell/Pages/default.aspx";;;"http://www.fultonschools.org/en/about/newtofcs/Pages/Registration.aspx";;;;"x";"x";;;;;;;;;;;
1176499;"Southwest Georgia STEM Charter School Pre-K";"185 Pecan Street";"Shellman";"GA";39886;"RANDOLPH";"(229) 679-5555";"http://swgeorgiastem.ga.schoolinsites.com/";"enrollment@sowegastemcharter.org";"Southwest Georgia S.T.E.M. Charter is a PUBLIC, tuition-free school system with a statewide attendance zone and a focus on Calhoun, Clay, Dougherty, Lee, Quitman, Randolph, Stewart, Sumter, Terrell, and Webster counties.";"http://swgeorgiastem.ga.schoolinsites.com/";"https://www.facebook.com/groups/116256502053538/about/";"http://swgeorgiastem.ga.schoolinsites.com/?PageName=bc&n=254507";"http://swgeorgiastem.ga.schoolinsites.com/?PageName=bc&n=254513";;;;"x";"x";;;"http://images.pcmac.org/SiSFiles/Schools/GA/SouthwestGeorgiaSTEM/SouthwestGeorgiaSTEM/images/PageWrapper.jpg";;;;;;;;
1176504;"Wesley Lakes Elementary";"685 McDonough Parkway";"McDonough";"GA";30253;"HENRY";"(770) 914-1889";"https://schoolwires.henry.k12.ga.us/";;"Henry County Schools is committed to ensuring success for each student and creating student agency through personalized learning opportunities is an essential part of that vision. ";"https://schoolwires.henry.k12.ga.us/wle";;;"https://schoolwires.henry.k12.ga.us/domain/12726";"https://schoolwires.henry.k12.ga.us/Page/125";;;"x";"x";;;"https://schoolwires.henry.k12.ga.us/cms/lib/GA01000549/Centricity/Template/GlobalAssets/images///logos/1%20Wesley%20Lakes%20Elementary.png";"7:45AM – 2:25PM";"7:45AM – 2:25PM";"7:45AM – 2:25PM";"7:45AM – 2:25PM";"7:45AM – 2:25PM";"Closed";"Closed";
1176502;"Veterans Elementary";"306 Fabus Avenue";"Macon";"GA";31220;"BIBB";"(478) 779-2400 ";"https://www.bcsdk12.net/";"arrika.tunstell@bcsdk12.net";" Each student demonstrates strength of character and is college or career ready.";"https://www.bcsdk12.net/Domain/632";;"https://www.applitrack.com/bibb/onlineapp/";;"https://campus.bibb.k12.ga.us/campus/portal/bibb.jsp";;;"x";"x";;;"https://www.bcsdk12.net/cms/lib/GA01000598/Centricity/Template/GlobalAssets/images///Logos/BCSDLogoOnly.png";"8:20AM - 3:20PM";"8:20AM - 3:20PM";"8:20AM - 3:20PM";"8:20AM - 3:20PM";"8:20AM - 3:20PM";"Closed";"Closed";
1176503;"Vickery Mill Elementary";"1201 Alpharetta Street";"Roswell";"GA";30075;"FULTON";"(470) 254-2400";"http://school.fultonschools.org/";;"An engaging community of diverse familly and educators inspiring students to be wise";"http://school.fultonschools.org/es/vickerymill/Pages/default.aspx";;;"http://www.fultonschools.org/en/about/newtofcs/Pages/Registration.aspx";"http://school.fultonschools.org/es/vickerymill/Pages/VM-Student-Handbook.aspx";;;"x";"x";;;;"7:40AM – 2:20PM";"7:40AM – 2:20PM";"7:40AM – 2:20PM";"7:40AM – 2:20PM";"7:40AM – 2:20PM";"Closed";"Closed";
1176505;"Wolf Creek Elementary";"4440 Derrick Road";"Atlanta";"GA";30349;"FULTON";"(470) 254-2760";"http://school.fultonschools.org/";;"The Fulton County School System is one of the most unique school systems in the nation. Though not Georgia's largest school system in terms of student enrollment, it is, however, one of the largest systems in geographic area";"http://school.fultonschools.org/es/wolfcreek/Pages/default.aspx";"https://www.facebook.com/wolfcreekwolves/";;"http://school.fultonschools.org/es/wolfcreek/Pages/RegistrationandForms.aspx";"http://school.fultonschools.org/es/wolfcreek/Pages/Code-of-Conduct.aspx";;;"x";"x";;;"http://school.fultonschools.org/es/wolfcreek/SiteAssets/Pages/default/Logo5.jpg";"7:40AM – 2:20PM";"7:40AM – 2:20PM";"7:40AM – 2:20PM";"7:40AM – 2:20PM";"7:40AM – 2:20PM";"Closed";"Closed";
1176714;"Little Rascals";"15 Orman Street";"Bamberg";"SC";29003;"BAMBERG";"(803) 245-0505";;;;;"https://www.facebook.com/Little-Rascals-Daycare-2069342373346861/";;;;;;;;;;;;;;;;;;
1176711;"St. Joseph's Catholic School";"1200 Cornelia Road";"Anderson";"SC";29621;"ANDERSON";"(864) 760-1619";"https://www.sjccs.net/";" school.info@sjccs.net";"Saint Joseph Catholic School, a ministry of Saint Joseph Catholic Church, Anderson, South Carolina, integrates all learning with faith by empowering preschool, elementary, and middle school students to achieve their full potential as children of God";"https://www.sjccs.net/73";"https://www.facebook.com/StJosephCatholicSchoolAnderson/";;;;;;"x";"x";;;"https://static.radiuswebtools.com/templates/sjccs-school_mars/images/logo-school.png";"7:30AM - 5:30PM";"7:30AM - 5:30PM";"7:30AM - 5:30PM";"7:30AM - 5:30PM";"7:30AM - 5:30PM";"Closed";"Closed";
1176721;"S.T.E.A.M. Express Academy";"101 Builders Court";"Boiling Springs";"SC";29316;"Spartanburg";"(864) 310-6899";;;"We are a NEW DSS LICENSED CHILDCARE FACILITY IN BOILING SPRINGS, SC that is extending our services.";;"https://www.facebook.com/STEAM-Express-Academy-1653856494868062/";;;;;;;;"x";"x";"https://scontent.fskp2-1.fna.fbcdn.net/v/t1.0-1/p200x200/18698017_1850627938524249_4603806745751883101_n.jpg?_nc_cat=0&oh=fcec8404906893618143bdddad89f84e&oe=5BBA4FF0";"6AM - 6PM";"6AM - 6PM";"6AM - 6PM";"6AM - 6PM";"6AM - 6PM";"Closed";"Closed";
1176720;"Nana Dee's Child Development";"4524 Parris Bridge Rd";"Boiling Springs";"SC";29316;"Spartanburg";"(864) 586-1181";;;"NaNa Dee's Child Development Center is a fun place for children ages birth-4yrs to come and learn in a safe and engaging environment.";;"https://www.facebook.com/Nanadeeschilddevelopmentcenter/";;;;"x";"x";"x";"x";;;"https://scontent.fskp2-1.fna.fbcdn.net/v/t1.0-1/p200x200/13465937_1231338580224317_8938233542179950697_n.jpg?_nc_cat=0&oh=5ef2f456dc6b65f2acf80e3979073745&oe=5B7F22C7";"6:30AM - 6PM";"6:30AM - 6PM";"6:30AM - 6PM";"6:30AM - 6PM";"6:30AM - 6PM";"Closed";"Closed";
1176718;"Candle Lakes Academy, LLC";"422 Blythewood Road";"Blythewood";"SC";29016;"RICHLAND";"(803) 754-3807";"https://www.candlelakesacademy.com/";;"Candle Lakes Academy strives to provide a safe, developmentally appropriate environment for preschool and school age children";"https://www.candlelakesacademy.com/";"https://www.facebook.com/pages/Candle-Lakes-Child-Care/122057064517022";;;;;;"x";"x";;;"https://static.wixstatic.com/media/6b2669_b3f6ecb0c6484d94b4ddc70070cf78d0~mv2.png/v1/fill/w_156,h_113,al_c,usm_0.66_1.00_0.01/6b2669_b3f6ecb0c6484d94b4ddc70070cf78d0~mv2.png";;;;;;;;
1176716;"Bishopville Primary School Dennis Campus CDEP";"321 Roland Street";"Bishopville";"SC";29010;"LEE";"(803) 483-1005";"https://leebps.leeschooldistrictsc.org/";;"Bishopville Primary School, is a school that is dedicated to provide first class educational experiences for all learners.";"https://leebps.leeschooldistrictsc.org/";;;;"https://leebps.leeschooldistrictsc.org/apps/pages/index.jsp?uREC_ID=1017955&type=d&pREC_ID=1324887";;;"x";"x";;;;"8AM - 2:40PM";"8AM - 2:40PM";"8AM - 2:40PM";"8AM - 2:40PM";"8AM - 2:40PM";"Closed";"Closed";
1176730;"First Presbyterian Church Weekday Preschool";"709 Pridgen Drive";"Clinton";"SC";29325;"LAURENS";"(864) 323-9076";"http://www.fpcclinton.org/";;"First Presbyterian Church Weekday Preschool was founded in 1948 by Dr. William Redd Turner, Senior Minister of First Presbyterian Church. Dr. Turner’s purpose in starting the Weekday Preschool was to demonstrate his love for children and to provide an outreach ministry to the Clinton community";"http://www.fpcclinton.org/article208910.htm";;;"http://images.acswebnetworks.com/1/1888/Schoolapplication20182019edited1.pdf";;"x";"x";"x";"x";;;"http://images.acswebnetworks.com/1/1888/churchheader8.png";;"7:30AM - 5:15PM";"7:30AM - 5:15PM";"7:30AM - 5:15PM";"7:30AM - 5:15PM";"Closed";"Closed";
1176728;"Sundrops Montessori";"2391 Clements Ferry Road";"Charleston";"SC";29492;"CHARLESTON";"(843) 647-7848";"http://sundropsmontessori.com/";"udrey@sundropsmontessori.com";"At Sundrops we strive to educate by nurturing the social, emotional and cognitive developmental needs for each child individually.   Our mission is to awaken your child’s natural desire to learn in an environment where trust, respect, responsibility, community and cooperation flourish. Our Montessori classrooms encompass developmentally appropriate materials and tools for each child to progress naturally at their own pace to realize their full potential.";"http://sundropsmontessori.com/contact/";"https://www.facebook.com/sundropsmontessoridanielisland/";;;;"x";"x";"x";"x";;;"http://sundropsmontessori.com/wp-content/uploads/2016/05/LogoWP1-e1447358139305.jpg";"7:30AM - 5:30PM";"7:30AM - 5:30PM";"7:30AM - 5:30PM";"7:30AM - 5:30PM";"7:30AM - 5:30PM";"Closed";"Closed";
1176729;"Little Nest";"120 College Street";"Chester";"SC";29706;"CHESTER";"(803) 581-1595";"http://www.littlenestchester.com/";;"Our caregivers nurture and love our infants and toddlers; they are played with, held, talked to, read to, and sung to throughout the day.";"http://www.littlenestchester.com/";"https://www.facebook.com/littlenestchester/";"http://www.littlenestchester.com/employment.html";"http://www.littlenestchester.com/childcare-options.html";;"x";"x";"x";"x";;;;"7AM - 6PM";"7AM - 6PM";"7AM - 6PM";"7AM - 6PM";"7AM - 6PM";"Closed";"Closed";
1176727;"Plymouth Childcare Development Center";"24 Sycamore Ave";"Charleston";"SC";29407;"CHARLESTON";"(843) 990-9625";"https://pccdc.weebly.com/store/c1/Featured_Products.html";"pcdc2424@gmail.com";"We offer a Christian-based curriculum, with QUALIFIED educated teachers. We also offer nutritious meals, and ABC Vouchers are accepted.";"https://pccdc.weebly.com/store/c1/Featured_Products.html";"https://www.facebook.com/plymouthcdc/";;"https://pccdc.weebly.com/enrollment.html";;"x";"x";"x";"x";;;"https://pccdc.weebly.com/uploads/5/1/3/3/51335637/published/logopng-2.png?1499823994";"6:30AM - 6PM";"6:30AM - 6PM";"6:30AM - 6PM";"6:30AM - 6PM";"6:30AM - 6PM";"Closed";"Closed";
1176726;"First Baptist School of Charleston";"48 Meeting Street";"Charleston";"SC";29401;"CHARLESTON";"(843) 722-6646";"http://www.fbschool.org/";"fbs@fbschool.org";"First Baptist offers a high standard, co-educational, college preparatory program from grades K2-12";"http://www.fbschool.org/";"https://www.facebook.com/FirstBaptistSchoolCharleston/";;"http://www.fbschool.org/admissions";;;;;"x";;;"http://www.fbschool.org/logo@2x.png";;;;;;;;
1176736;"Doughty Dependable Childcare Center";"1744 Decker Boulevard";"Columbia";"SC";29206;"RICHLAND";"(803) 569-9064";;;"We've been open since June 29, 2017 and our students are growing and learning Academically and Biblically each day! ";;"https://www.facebook.com/Doughtys-Dependable-Childcare-Center-1512431078812875/";;;;;;;;;;;;;;;;;;
1176749;"Simons Learning Center";"3730 Camden Hwy.";"Dalzell";"SC";29040;"SUMTER";"(803) 607-9284";;;;;;;;;;;;;;;;;;;;;;;
1176747;"Mercy Baptist Church Child Development Center";"2805 Fourth Avenue";"Conway";"SC";29527;"HORRY";"(843) 488-1442";"http://www.mercybc.org/";"mercybaptistcdc@outlook.com";"Our mission is to provide each child with a loving and safe environment, enabling us to bring a fun and exciting Christian based curriculum to Mercy Baptist CDC";"http://www.mercybc.org/child_development_center.html";;;;;;;;;;;"https://scontent.fskp2-1.fna.fbcdn.net/v/t1.0-1/p200x200/16003126_1371938729512359_4298585700717037854_n.jpg?_nc_cat=0&oh=45892bdeb84092f319ebdca125807fb4&oe=5B7F1BAF";"6AM - 6PM";"6AM - 6PM";"6AM - 6PM";"6AM - 6PM";"6AM - 6PM";"Closed";"Closed";
1176745;"Victory Learning Academy";"1732 Decker Boulevard";"Columbia";"SC";29223;"RICHLAND";"(803) 828-4489";;"victorylearningacademy2017@yahoo.com";"Climbing the ladder of success!";;"https://www.facebook.com/victorylearningacademy1732/";;;;;;;;;;"https://scontent.fskp2-1.fna.fbcdn.net/v/t1.0-1/p200x200/33159135_841773202694649_4117286848311590912_n.jpg?_nc_cat=0&oh=bd11e7191f25821396a6fc5693715345&oe=5BB8B44E";"7AM - 6PM";"7AM - 6PM";"7AM - 6PM";"7AM - 6PM";"7AM - 6PM";"Closed";"Closed";
1176753;"The Sunshine House/The Quest Zone";"121 Bombing Range Road";"Elgin";"SC";29045;"KERSHAW";"(803) 462-3900";"http://thequestzone.com/";" info@thequestzone.com ";"The Quest Zone’s unique format couples innovation with inspiration to create a captivating after school program where students love learning. Conveniently located on-site at each school where the program is offered, the after school program is both convenient and secure.";"http://thequestzone.com/locations/#1514949234947-31d4fc66-32c8";"https://www.facebook.com/qzinfo/";"http://thequestzone.com/jobs/";"http://thequestzone.com/enroll/";;;;"x";"x";"x";;"http://thequestzone.com/wp-content/uploads/2017/12/the-quest-zone-logo-header-1.png";;;;;;;;
1176762;"Woods Road Head Start Center";"1400 Woods Road";"Florence";"SC";29501;"FLORENCE";"(843) 678-3423";;;;;"https://www.facebook.com/pages/biz/day_care_preschool/Child-Development-Center-At-Woods-Road/262033780919540/";;;;;;;;;;;;;;;;;;
1176759;"McLaurin Elementary School";"1400 McMillan Lane";"Florence";"SC";29506;"FLORENCE";"(843) 664-8457";"https://www.fsd1.org/";;"The mission of McLaurin Elementary School is to provide a quality education in a safe environment, enabling students to become productive citizens in a culturally diverse society.";"https://www.fsd1.org/mclaurin";"https://www.facebook.com/McLaurin-Elementary-School-746180685429952/";;"https://www.fsd1.org/domain/318";;;;"x";"x";;;"https://www.fsd1.org/cms/lib/SC02209534/Centricity/Template/GlobalAssets/images///logos/mclaurin.png";"7:45AM – 2:15PM";"7:45AM – 2:15PM";"7:45AM – 2:15PM";"7:45AM – 2:15PM";"7:45AM – 2:15PM";"Closed";"Closed";
1176766;"B.D. Lee Elementary";"401 Overbrook Drive";"Gaffney";"SC";29341;"CHEROKEE";"(864) 206-6432";"http://bdl.cherokee1.k12.sc.us/";;"The mission of B. D. Lee Elementary School is to inspire, lead, and provide each student, in partnership with family and community, the educational foundation to be a responsible, productive individual through a safe, nurturing environment and a challenging curriculum.";"http://bdl.cherokee1.k12.sc.us/pages/B_D_Lee_Elementary";;;;;;;"x";"x";;;"http://bdl.cherokee1.k12.sc.us/dynimg/_pHAAA_/docid/0x0D7606413604BCB4/10/large_bee.png";;;;;;;;
1176767;"Goucher Elementary School";"604 Goucher School Road";"Gaffney";"SC";29340;"CHEROKEE";"(864) 206-6890";"http://ges.cherokee1.k12.sc.us/";;"Goucher Elementary School will lay the foundation dedicated to the success of respectful, responsible, productive life-long learners.";"http://ges.cherokee1.k12.sc.us/pages/Goucher_Elementary";"https://www.facebook.com/pages/Goucher-Elementary/1510412435895148";;"http://ges.cherokee1.k12.sc.us/files/_laL4d_/2dc24580caa515713745a49013852ec4/3K4K5KRegistration_Schedule2018.pdf";;;;"x";"x";;;"http://ges.cherokee1.k12.sc.us/dynimg/_pHAAA_/docid/0x0E7A0641335BB4E4/11/gorilla%2BShield%2Bresized.jpg";;;;;;;;
1176770;"Learn 2 Grow, LLC";"311 Broad Street";"Gilbert";"SC";29054;"LEXINGTON";"(803) 892-0450";;;"Providing quality care in a small & loving setting. We're like a family, where kids can LEARN and GROW while having fun. ";;"https://www.facebook.com/Learn-2-Grow-Child-Development-Center-251833731985121/";;;;;"x";"x";"x";;;"https://scontent.fskp2-1.fna.fbcdn.net/v/t1.0-9/34140913_388920711609755_5125311223096672256_o.jpg?_nc_cat=0&oh=2a3d51a520c9d4937fa7c27e9e8f4dfd&oe=5BBE4345";"6AM - 6PM";"6AM - 6PM";"6AM - 6PM";"6AM - 6PM";"6AM - 6PM";"Closed";"Closed";
1176773;"Still Water Montessori School";"103 Laurel Avenue";"Goose Creek";"SC";29445;"BERKELEY";"(843)790-4973";"http://stillwaterschool.org/";"stillwatermontessori00@gmail.com";"Still Water Montessori School is devoted to providing an educational environment where each child feels valued and heard.  We carefully prepare the school environment to create a “children’s house,” a place just for them that changes according to their needs and personalities.";"http://stillwaterschool.org/";"https://www.facebook.com/stillwaterschool/";;"http://stillwaterschool.org/admissions/";;;;"x";"x";"x";;;"8AM - 5:30PM";"8AM - 5:30PM";"8AM - 5:30PM";"8AM - 5:30PM";"8AM - 5:30PM";"Closed";"Closed";
1176774;"Wheatley Montessori School";"200 Clark Street #300";"Greenville";"SC";29607;"GREENVILLE";"(864) 438-3055";"https://www.wheatleymontessori.com/";"wheatleymontessori@gmail.com";"Wheatley Montessori School is committed to creating a self-stimulating learning environment where students will acquire the necessary intellectual and social skills that will instill a lifelong thirst for learning, a respect for all cultures, and an inspiration to become promoters of world peace.  ";"https://www.wheatleymontessori.com/";"https://www.facebook.com/WheatleyMontessoriSchool/";;"https://www.wheatleymontessori.com/enrollment-application";"https://www.wheatleymontessori.com/handbook";;;"x";"x";"x";"x";"https://static.wixstatic.com/media/f98c59_b702f09b52d94b35ab2391c4e30d9c18.jpg/v1/fill/w_75,h_85,al_c,q_80,usm_0.66_1.00_0.01/f98c59_b702f09b52d94b35ab2391c4e30d9c18.webp";"7:30AM - 6PM";"7:30AM - 6PM";"7:30AM - 6PM";"7:30AM - 6PM";"7:30AM - 6PM";"Closed";"Closed";
1176778;"Mountain Montessori School";"405 Tanyard Road";"Greenville";"SC";29609;"GREENVILLE";"(864) 610-2887";"http://www.mountain-montessori.com/";"mountainmontessori@icloud.com";" The Primary Montessori classroom is a carefully prepared environment  where children of mixed ages (3-6 years) work independently with Montessori materials, which are appropriate for each stage of their development";"http://www.mountain-montessori.com/";;;;"http://www.mountain-montessori.com/Websites/mountainmontessori/files/Content/6260776/MM_Brouchure_Master.pdf";;"x";"x";"x";;;"http://www.mountain-montessori.com/ResizeImage.aspx?img=/Websites/mountainmontessori/WebsiteLogo.png&h=100";"8:15AM - 3:15PM";"8:15AM - 3:15PM";"8:15AM - 3:15PM";"8:15AM - 3:15PM";"8:15AM - 3:15PM";"Closed";"Closed";
1176779;"Rubye H Jones Head Start";"40 John McCarroll Way";"Greenville";"SC";29607;"GREENVILLE";"(864) 233-4128";;;;;;;;;;;;;;;;;;;;;;;
1176781;"Gilmore Prep Academy";"1271 S Suber Road Suite B";"Greer";"SC";29650;"GREENVILLE";"(864) 655-5845";;"trice@gilmoreprep.com";"Gilmore Prep is a preschool for 3, 4, and 5 year old children. We are dedicated to helping our little ones develop a strong literacy foundation.";;"https://www.facebook.com/gilmoreprep/";;;;;;"x";"x";;;"https://scontent.fskp2-1.fna.fbcdn.net/v/t1.0-1/c0.1.200.200/p200x200/1011959_485403958200805_262096004_n.jpg?_nc_cat=0&oh=87f976ad7d0ca822515a92bb1cdcc50b&oe=5BB9D4A9";;;;;;;;
1176782;"Imagine That!";"103 First Street East";"Hampton";"SC";29924;"HAMPTON";"(803) 943-5055";;;;;;;;;;;;;;;;;;;;;;;
1176784;"The Chalkboard Preschool, LLC";"1254 Yeamans Hall Road";"Hanahan";"SC";29410;"Berkeley";"(843) 784-6556";"https://www.thechalkboardpreschool.com/";"thechalkboardpreschool@yahoo.com";"The Chalkboard is a place that is 100% family oriented! We pride ourselves in being able to serve your entire family while offering excellent childcare and education to your preschooler. We are committed to the safety, well-being and education of all of the children that walk through our doors. At TCP, we pride ourselves on our small size, close relationships and being able to put our children and families first! We are little school with lots of heart.";"https://www.thechalkboardpreschool.com/";"https://www.facebook.com/TheChalkboardPreschool/";;"https://www.thechalkboardpreschool.com/enrollment";;;"x";"x";"x";;"x";"https://static.wixstatic.com/media/4af9fa_c3326359cc3e4f9e935479f40ed5663d.png/v1/crop/x_0,y_6,w_844,h_328/fill/w_433,h_168,al_c,usm_0.66_1.00_0.01/4af9fa_c3326359cc3e4f9e935479f40ed5663d.png";"7AM - 6PM";"7AM - 6PM";"7AM - 6PM";"7AM - 6PM";"7AM - 6PM";"Closed";"Closed";
1176785;"Chosen One Christian Child Care Center";"415 Bellinger Hill Rd";"Hardeeville";"SC";29927;"JASPER";"(843) 263-5667";;"coclcsh@gmail.com";"Our mission is to provide a quality education for children, in a loving environment, where they will come to know Jesus Christ and His Word.";;"https://www.facebook.com/ChosenOneChildCare/";;;;"x";"x";"x";"x";;;;"6:30AM - 6PM";"6:30AM - 6PM";"6:30AM - 6PM";"6:30AM - 6PM";"6:30AM - 6PM";"Closed";"Closed";
1176787;"Montessori Day Academy of Hartsville";"103 Campus Drive";"Hartsville";"SC";29550;"DARLINGTON";"(843) 620-5040";"http://www.montessorihartsville.com/";"montessorihartsville@outlook.com";"Montessori Day Academy of Hartsville serves children ages six weeks to six years in Hartsville, SC, and surrounding communities.";"http://www.montessorihartsville.com/";"https://www.facebook.com/pg/montessoridayacademyofhartsville/about/?ref=page_internal";;"http://www.montessorihartsville.com/mdah-application-for-admission";"http://www.montessorihartsville.com/fee-schedule/";"x";"x";"x";"x";;;"http://static1.squarespace.com/static/563b615ee4b0d753fb7be35a/t/56a51a4f69492eecad1b4659/1525265027293/?format=1500w";"7:30Am - 5:30PM";"7:30Am - 5:30PM";"7:30Am - 5:30PM";"7:30Am - 5:30PM";"7:30Am - 5:30PM";"Closed";"Closed";
1176789;"Indian Land Academy, Inc";"8558 Shelley Mullis Road";"Indian Land";"SC";29707;"Lancaster";"(803) 548-0078";"http://www.indianlandacademy.net/";"brooke@indianlandacademy.com";"We are an independent and dynamic preschool who is dedicated to pursuing excellence by promoting quality through developmental and age appropriate programs.  ILA provides programs to help children have fun learning.  We want them to reach their full potential, as they approach and surpass their milestones with joy and enthusiasm.  Nurturing each child's unique qualities and potential is imperative.  Together with our staff and families, we strive to build strong, long-term partnerships. ";"http://www.indianlandacademy.net/";"https://www.facebook.com/Indian-Land-Academy-227577894249262/";"http://www.indianlandacademy.net/carreers/";"http://www.indianlandacademy.net/parents/";;"x";"x";"x";"x";;;"http://static1.squarespace.com/static/56c4b5057da24f28de37e9d6/t/56cdeff5f699bb984234833e/1489688035876/?format=1500w";"6:30AM - 6PM";"6:30AM - 6PM";"6:30AM - 6PM";"6:30AM - 6PM";"6:30AM - 6PM";"Closed";"Closed";
1176796;"McFadden's Learning & Child Care Academy";"414 S. Morris Street";"Lake City";"SC";29560;"FLORENCE";"(843) 394-3442";;;;;"https://www.facebook.com/pages/biz/lancaster/Greater-New-Hope-Child-Development-Center/163058570386165/";;;;;;;;;;;;;;;;;;
1176797;"Greater New Hope Child Development CTR";"1401 Old Landfords Road";"Lancaster";"SC";29720;"LANCASTER";"(803) 289-6303";;;;;;;;;;;;;;;;;;;;;;;
1176799;"Aspire Early Learning Academy, LLC #2";"320 South Lake Drive";"Lexington";"SC";29072;"LEXINGTON";"(803) 356-0650";"http://aspireearlylearningacademy.com/";" AspireEarlyLearningAcademy@gmail.com.";"We prepare your preschooler for kindergarten in a positive, safe, loving, and fun environment that focuses on academics and social interactions.";"http://aspireearlylearningacademy.com/contact/";"https://www.facebook.com/AspireAcademy2/";"http://aspireearlylearningacademy.com/employment/";"http://aspireearlylearningacademy.com/registration/";;"x";"x";"x";"x";;;"http://aspireearlylearningacademy.com/wp-content/uploads/2017/11/Aspire-Logo-300x213.jpg";"6:30AM - 6PM";"6:30AM - 6PM";"6:30AM - 6PM";"6:30AM - 6PM";"6:30AM - 6PM";"Closed";"Closed";
