"id";"name";"address";"city";"state";"zip";"county";"phone";"main url";"email";"details";"location website";"facebook page";"career/employment url";"application/registration url";"parent handbook url";"infant (under 12 months)";"toddler (1-2yrs)";"preschools (2-3yrs)";"pre-kindergarden(4yr)";"before/afterschools";"camps";"logo url";"monday hour";"tuesday hour";"wednesday hour";"thursday hour";"friday hours";"saturday hour";"sunday hour";"notes"
1174873;"VICTORY BAPTIST CHURCH";"6004 EAST SHIRLEY LANE";"MONTGOMERY";"AL";36117;"MONTGOMERY";"(334)313-5040";;;;;;;;;;;;;;;;;;;;;;;"License not renewed"
1174874;"12 PILLARS OF FAITH MINISTRY";"4521 MOBILE HIGHWAY P.O.";"MONTGOMERY";"AL";36124;"MONTGOMERY";"(334)467-8606";;;;;;;;;;;;;;;;;;;;;;;
1174870;"HIGHLAND GARDEN ELEMENTARY HEAD START";"2801 WILLENA AVENUE";"MONTGOMERY";"AL";36117;"MONTGOMERY";"(334)269-3685";"http://www.hgardens.mps-al.org/";;"We will engage, educate and inspire our students to succeed in college, career and beyond!";"http://www.hgardens.mps-al.org/";"https://www.facebook.com/pages/Highland-GardensElementarySchool/792736340787583";;"https://drive.google.com/file/d/1lVwTpXV2-hG44h6Ae5W6IDyNfjyXsOes/view";"https://drive.google.com/file/d/1GCDR8tIZ0Gd0cVBNBoNMaXa4K5wjOfuO/view";;;"x";"x";;;"http://p12cdn4static.sharpschool.com/UserFiles/Servers/Server_401138/Templates/montgomery_public_schools_logo.png";;;;;;;;
1174871;"LEGACY ANGLICAN CHURCH";"2323 BELL ROAD";"MONTGOMERY";"AL";36117;"MONTGOMERY";"(334)396-2001 ";"http://www.thelegacychurch.org/tlc/Home.html";" jacquelyn@thelegacychurch.org";"We desire to leave behind a church where our children and children's children can worship the God of the Bible, develop a living personal relationship with Him, and learn the word of God. ";"http://www.thelegacychurch.org/tlc/Childrens_Ministry.html";"https://www.facebook.com/LegacyAnglican/";;;;;;;;;;"http://www.thelegacychurch.org/tlc/Home_files/shapeimage_1.png";;;;;;;;
1174872;"NEW HOME HEAD START";"11015 JONES ROAD";"MONTGOMERY";"AL";36117;"MONTGOMERY";"(334)279-0306";"https://mcaccdcinc.org/programs/head-start-2/";;;;;;;;;;"x";"x";;;;;;;;;;;
1174878;"NEW BEGINNING MINISTRIES INTL. INC";"800 WEST POWELL STREET";"DOTHAN";"AL";36303;"HOUSTON";"(334)699-1780";"http://www.tpcnb.org/dothan-alabama.html";;;;;;;;;;;;;;;;;;;;;;
1174879;"VILLAGE BAPTIST CHURCH";"930 EAST BURDESHAW STREET";"DOTHAN";"AL";36303;"HOUSTON";"(334)699-1762";;;;;;;;;;;;;;;;;;;;;;;
1174876;"MUNFORD HEAD START CENTER";"49 RAILROAD STREET";"MUNFORD";"AL";36268;"TALLADEGA";"(256)358-0773";"http://www.headstartprogram.us/";;"Community Development Institute Head Start is providing interim services";"http://www.headstartprogram.us/program/munford-center";;;;;;;"x";"x";;;"http://www.headstartprogram.us/images/logo.png";;;;;;;;
1174877;"PAL-A-ROO'S DAYCARE";"1310 HODGESVILLE ROAD";"DOTHAN";"AL";36301;"HOUSTON";"(334)673-1717";"http://parentingfun411.com/";"palaroos@ymail.com";"To provide an environment that allows development in children and prepares them for the next stage in their life.";"http://parentingfun411.com/";"https://www.facebook.com/Pal-A-Roos-281008711909502/";;;;"x";"x";"x";"x";"x";;"https://scontent.fskp2-1.fna.fbcdn.net/v/t31.0-8/884592_571521589524878_1846564863_o.jpg?_nc_cat=0&oh=8af5a98d8323fcd8450bcf5eda38d7f3&oe=5B865682";;;;;;;;
1174875;"LINEVILLE HEAD START";"88584 HWY 9";"LINEVILLE";"AL";36266;"CLAY";"(256)396-6939";"http://www.headstartprogram.us/";"info@tcrchildcare.org";"TCR Child Care Corp's Cheaha Regional Head Start is innovative in leading the way, providing a comprehensive program of quality through respect and nurturing of children and families while setting Standards of Excellence.";"http://www.headstartprogram.us/program/lineville-head-start";;;;;;;"x";"x";;;"http://www.headstartprogram.us/images/logo.png";;;;;;;;
1174882;"EARLY YEARS DAYCARE & PRESCHOOL";"615 E MCKINNON STREET";"NEW BROCKTON";"AL";36351;"COFFEE";"(334)894-5073";;;;;;;;;;;;;;;;;;;;;;;
1174883;"CHRISTIAN FAITH FELLOWSHIP TEMPLE, INC.";"5013 ANDREWS AVNENUE";"OZARK";"AL";36360;"DALE";"(334)733-5735";;;;;;;;;;;;;;;;;;;;;;;"License not renewed"
1174881;"JACK IN A BOX DAYCARE & LEARNING CENTER";"1430 COUNTY ROAD 208";"JACK";"AL";36346;"COFFEE";"(334)897-1535";;"prescott.eddie@yahoo.com";"To provide quality pre-school learning and daycare for the children of the Jack and surrounding area at a fair and reasonable price.";;"https://www.facebook.com/Janedco-Inc-DBA-Jack-in-A-Box-Daycare-Learning-Center-134348749966040/";;;;;;;;;;;;;;;;;;
1174880;"TREEHOUSE CHRISTIAN PRESCHOOL";"700 SOUTH MAIN STREET";"HEADLAND";"AL";36345;"HENRY";"(334)693-0884";;;"Day care and preschool";;"https://www.facebook.com/Treehouse-Christian-Preschool-344559265727116/";;;;"x";"x";"x";;;;"https://scontent.fskp2-1.fna.fbcdn.net/v/t1.0-1/c34.0.193.193/10411953_344559612393748_8252682113334508080_n.jpg?_nc_cat=0&oh=e108c2f7de2b850a642b4618005daf8a&oe=5B865626";"6:30AM - 5:30PM";"6:30AM - 5:30PM";"6:30AM - 5:30PM";"6:30AM - 5:30PM";"6:30AM - 5:30PM";"Closed";"Closed";
1174889;"THE LEARNING COVE PRESCHOOL, INC.";"28848 N MAIN STREET";"DAPHNE";"AL";36526;"BALDWIN";"(251)821-8811";"http://www.learningcovepreschool.com/";"info@thelearningcovepreschool.com";"We will create a true preschool environment unlike any other in the marketplace.";"http://www.learningcovepreschool.com/";"https://www.facebook.com/learningcovepreschool/";;;;"x";"x";"x";"x";;;"http://www.learningcovepreschool.com/images/logo160426.png";"6:30AM -6PM";"6:30AM -6PM";"6:30AM -6PM";"6:30AM -6PM";"6:30AM -6PM";"Closed";"Closed";
1174886;"3 CIRCLE CHURCH NORTH CAMPUS";"10080 COUNTY ROAD 64";"DAPHNE";"AL";36526;"BALDWIN";"(251)510-0642";"https://www.3circlechurch.com/eastern-shore-north";"info@3CircleChurch.com";"3Circle Church is a church where you can come as you are, and a place where you will be reminded that you have value to God and other people.";"https://www.3circlechurch.com/kids";"https://www.facebook.com/3circlenorth/";;;;"x";"x";"x";"x";;;"https://www.3circlechurch.com/img/3c-logo-04.svg";;;;;;;;
1174887;"COASTAL CHURCH";"11101 COUNTY ROAD 64";"DAPHNE";"AL";36526;"BALDWIN";"(251)621-9555";"http://coastalchurch.tv/";"PC@COASTALCHURCH.TV";"The VISION of Coastal Church small groups is for the Gulf Coast to be saved by encountering the life-changing act of community.";"http://coastalchurch.tv/smallgroups/daphne/coastal-student-and-coastal-kids-groups/";"https://www.facebook.com/coastalchurchal/";;;;;;;;;;"https://scontent.fskp2-1.fna.fbcdn.net/v/t1.0-1/p200x200/19366635_1417048191717522_5843882187295189801_n.jpg?_nc_cat=0&oh=42c04d5f4682efad352c56cdcb602124&oe=5B823CF8";;;;;;;;
1174888;"GOOD BEGINNINGS COMMUNITY CENTER";"26120 EQUITY DRIVE";"DAPHNE";"AL";36526;"BALDWIN";"(251)316-5995";;;;;;;;;;;;;;;;;;;;;;;"License not renewed"
1174884;"EMPOWERMENT TABERNACLE CHRISTIAN CENTER";"3823 BOWDEN STREET";"FRISCO CITY";"AL";36445;"MONROE";"(251)368-5195";"http://empowermenttabcc.org/";"empowerment@frontiernet.net";;"http://empowermenttabcc.org/kidszone.html";"https://www.facebook.com/empowerment.tabernancle?fref=ts";;;;;;;;;;"http://empowermenttabcc.org/images/empowermentHeaderBanner.jpg";;;;;;;;
1174885;"KINGDOM BUILDERS MINISTRY #2";"41 MITCHELL LANE";"CHATOM";"AL";36518;"WASHINGTON";"(251)589-1070";;;;;"https://www.facebook.com/pages/Kingdom-Builders-World-Wide-Ministries/1145204832235148";;;;;;;;;;;;;;;;;;
1174900;"CELEBRATION CHURCH";"10 - HIGHWAY 43 SOUTH";"SARALAND";"AL";36571;"MOBILE";"(251)675-5433";;;"Day care and preschool and summer camp";;"https://www.facebook.com/GatewayBaptist/";;;;"x";"x";"x";"x";;"x";"https://scontent.fskp2-1.fna.fbcdn.net/v/t1.0-1/p200x200/28660814_1720975084608419_5447584201526214656_n.png?_nc_cat=0&oh=848e58122e744c403a2db0c32afe42eb&oe=5BC4E775";"6:30AM -6PM";"6:30AM -6PM";"6:30AM -6PM";"6:30AM -6PM";"6:30AM -6PM";"Closed";"Closed";
1174898;"ST. PATRICK'S CATHOLIC SCHOOL";"23035 HIGHWAY 59, NORTH";"ROBERTSDALE";"AL";36567;"BALDWIN";"(251)947-7395";"http://stpatcatholic.com/";"school@stpatcatholic.com";"St. Patrick School, rooted in the gospel values of love, respect, truth, justice and service, embodies the teachings of Jesus and the mission of the Church. Today and in the future, students will be provided opportunities for growth in personal prayer, sacramental preparation, liturgy planning and participation";"http://school.stpatcatholic.com/";"https://www.facebook.com/StPatCatholic";;"http://school.stpatcatholic.com/registration-information";"https://school.stpatcatholic.com/documents/2016/10/student-handbook-2014-2016.pdf";;;"x";"x";"x";;"http://school.stpatcatholic.com/pictures/2016/11/WebLogo-2.png";"7:30AM - 3:20PM";"7:30AM - 3:20PM";"7:30AM - 3:20PM";"7:30AM - 3:20PM";"7:30AM - 3:20PM";"Closed";"Closed";
1174899;"BRIDGEWAY ACADEMY, LLC";"825 SHELTON BEACH ROAD";"SARALAND";"AL";36571;"MOBILE";"(251345-4444 ";"http://thebridgewayacademy.com/index.htm";;"Bridgeway Academy offers a high quality, developmentally appropriate program for students in grades PK2-PK4";"http://thebridgewayacademy.com/contact%20us.htm";;;"http://thebridgewayacademy.com/index_htm_files/20171220135533394.pdf";"http://thebridgewayacademy.com/index_htm_files/20170710091438925.pdf";;;"x";"x";;;"http://thebridgewayacademy.com/index_htm_files/1741.jpg";"7AM - 2:30PM";"7AM - 2:30PM";"7AM - 2:30PM";"7AM - 2:30PM";"7AM - 2:30PM";"Closed";"Closed";
1174896;"CENTRAL COMMUNITY CHURCH";"17395 HIGHWAY 104 WEST";"ROBERTSDALE";"AL";36567;"BALDWIN";"(251)947-5043";"http://www.ccssaints.com/";"info@ccssaints.com";" Here at CCS a private K-12 school, we integrate the principles of God’s Word into our excellent academic program to provide a quality education and help develop solid Christian character in our students.  ";"http://www.ccssaints.com/";"https://www.facebook.com/CentralComChurch/";"https://www.facebook.com/ccssaints/";"http://www.ccssaints.com/Admissions";"http://www.ccssaints.com/Parent-Resources";;;"x";"x";;;"http://www.ccssaints.com/portals/centralchristian/centralname.png";"7AM - 4PM";"7AM - 4PM";"7AM - 4PM";"7AM - 4PM";"7AM - 4PM";"Closed";"Closed";
1174897;"OTTS FAMILY DAY CARE";"22192 COLLEGE AVE";"ROBERTSDALE";"AL";36567;"BALDWIN";"(251)550-7852";;;;;;;;;;;;;;;;;;;;;;;
1174895;"MILESTONES CHILD CARE CENTER";"1074 CYPRESS STREET";"LOXLEY";"AL";36551;"BALDWIN";"(251)960-1616";;;;;"https://www.facebook.com/pages/biz/child_care/Milestone-Child-Care-Center-LLC/153548818016398/";;;;;;;;;;;;;;;;;;
1174893;"LITTLE LEARNERS MINISTRIES";"708 WEST LAUREL AVENUE";"FOLEY";"AL";36535;"BALDWIN";"(251)923-7602";;;"We are a faith based daycare offering care for children as new as 6 weeks up to 5 yrs.! Children are a heritage of our Lord.";;"https://www.facebook.com/Little-Learners-Kiddie-School-1802444690040799/";;;;"x";"x";"x";"x";;;"https://scontent.fskp2-1.fna.fbcdn.net/v/t1.0-1/p200x200/17342767_1865843517034249_5673728280401402603_n.jpg?_nc_cat=0&oh=2415a3b8ccd5ba78fd3232a1af0ac389&oe=5B811BEF";"6:30AM - 5:30PM";"6:30AM - 5:30PM";"6:30AM - 5:30PM";"6:30AM - 5:30PM";"6:30AM - 5:30PM";"Closed";"Closed";
1174894;"LIGHTHOUSE ACADEMY OF EXCEL & ACHIEVE II";"4901 TOM WALLER ROAD";"GRAND BAY";"AL";36541;"MOBILE";"(251)957-2500";;;;;;;;;;;;;;;;;;;;;;;"License not renewed"
1174892;"KOLOR MY FUTURE";"8960 CO RD 65";"FOLEY";"AL";36535;"BALDWIN";"(251)943-5903";;;;;;;;;;;;;;;;;;;;;;;"License not renewed"
1174891;"FAIRHOPE/POINT CLEAR ROTARY YOUTH CLUB";"19128 YOUNG STREET";"FAIRHOPE";"AL";36532;"BALDWIN";"(251)928-9148";"https://rotaryyouthclub.org/";"info@rotaryyouthclub.org";"The Rotary Youth Club is a non-profit year-round development program for youth ages 5-18 in the Fairhope/Point Clear communities.";"https://rotaryyouthclub.org/";"https://www.facebook.com/rotaryyouthclub/";;;;;;;"x";"x";"x";"http://rotaryyouthclub.org/wp-content/uploads/2015/05/ryc-logo.png";"3PM - 6PM";"3PM - 6PM";"3PM - 6PM";"3PM - 6PM";"3PM - 6PM";"Closed";"Closed";
1174890;"CELEBRATION CHURCH";"8180 DYER ROAD";"FAIRHOPE";"AL";36532;"BALDWIN";"(251)752-4897";"http://www.fairhopechurch.com/";"info@fairhopechurch.com";"Each child is taught in an age-appropriate environment. From Nursery to grade fifth our desire is to see each child be cared for in an individual way";"http://www.fairhopechurch.com/ministries/";"https://www.facebook.com/celebratechurch/";;;;"x";"x";"x";"x";;;"http://www.fairhopechurch.com/mt-content/uploads/2017/05/thumbnails/arrow1_s_125x116.png";;;;;;;;
1174907;"LITTLE BO PEEP CHILD DEV. LEARNING CTR.";"18 PIERPOINT DRIVE";"MOBILE";"AL";36606;"MOBILE";"(251)442-1141";;;;;;;;;;;;;;;;;;;;;;;
1174908;"OUTBREAK CHRISTIAN MINISTRIES";"1365 Government St";"MOBILE";"AL";36606;"MOBILE";"(251)287-7059";"https://outbreakchristianministries.weebly.com/";;"This is a church where we learn, grow, and build together. OUTBREAK is a place for ALL people, from ALL walks of life.    Your kids will also have loads of fun in (O Kidz) , where we teach them on a level they can easily understand.";"https://outbreakchristianministries.weebly.com/";"https://www.facebook.com/OutbreakChristianMinistries/";;;;;;"x";"x";;;"https://scontent.fskp2-1.fna.fbcdn.net/v/t1.0-1/p200x200/23559446_1886916851323066_8621745605726655084_n.jpg?_nc_cat=0&oh=044bebfe73be3031fb1ef10e33b7e5b7&oe=5B7FB9BA";"6AM - 6PM";"6AM - 6PM";"6AM - 6PM";"6AM - 6PM";"6AM - 6PM";"Closed";"Closed";
1174909;"GATEWAY MINISTRIES";"660 WESTERN DRIVE";"MOBILE";"AL";36607;"MOBILE";"(251)295-0473";"https://www.churchangel.com/church/Gateway-Ministries-328891.htm";"Gatewayministriesmobile@gmail.com";"GATEWAY IS ON THE MOVE WE ARE GROWING EVERDAY SPIRITUALLY AND IN NUMBERS GOD HAS ELEVATED US TO OUR OWN LOCATION 660 WESTERN DR MOBILE";;"https://www.facebook.com/GATEWAY-MINISTRIES-155705914398/";;;;;;;;;;"https://scontent.fskp2-1.fna.fbcdn.net/v/t1.0-1/p200x200/13010740_10154136831194399_3759601083358929151_n.jpg?_nc_cat=0&oh=5fe1147ff1a960388da96451edd1fcb9&oe=5B8E73B2";;;;;;;;
1174906;"LIVING WORD CHRISTIAN CENTER";"1060 GOVERNMENT STREET";"MOBILE";"AL";36604;"MOBILE";"(251)471-2334";"http://www.lwccim.com/";"lwcc@lwccim.com";"Legacy Child Life Learning & Development Center is committed to providing an excellent, loving, and secure Christian environment where our children can develop spiritually, intellectually, emotionally, socially, and physically.";"http://www.lwccim.com/contact";;;;;"x";"x";"x";"x";;;;"6:30AM -6PM";"6:30AM -6PM";"6:30AM -6PM";"6:30AM -6PM";"6:30AM -6PM";"Closed";"Closed";
1174904;"KIDZ FIRST MINISTRIES";"304 SENGTAK STREET";"MOBILE";"AL";36603;"MOBILE";"(251)635-4098";;;;;;;;;;;;;;;;;;;;;;;
1174905;"CENTRAL PRESBYTERIAN CHURCH";"1260 DAUPHIN STREET";"MOBILE";"AL";36604;"MOBILE";"(251)432-0591";"http://cpcmidtown.com/";"cpcmob@cpcmidtown.com";"The Sunday school class for elementary age children is a hubbub of activity. Led by Wendi Ham & Mary DeWitt, who has a Masters in Christian Education, the classroom has centers for music, stories and crafts.";"http://cpcmidtown.com/?page_id=2758";"https://www.facebook.com/cpcmobile/";;;;;;;;;;"https://scontent.fskp2-1.fna.fbcdn.net/v/t1.0-1/c199.20.245.245/s200x200/183343_199106490119091_3431843_n.jpg?_nc_cat=0&oh=dde46fa4dcfb0df9197dec245b31e4ba&oe=5B7DF6DE";;;;;;;;
1174901;"KIMZ KIDZ CHILDCARE CENTER";"1650 SCHILLINGER ROAD N.";"SEMMES";"AL";36575;"MOBILE";"(251)645-6451";;;;;"https://www.facebook.com/pages/Kimz-Kidz-Child-Care-Center/165130990179651";;;;;;;;;;;;;;;;;;
1174902;"COUNTRY KIDS LEARNING CENTER";"35278 OGDEN AVENUE";"STAPLETON";"AL";36578;;"(251)263-1851";;;"Welcome to Country Kids Learning Center LLC... We are a small daycare/preschool center that's DHR licensed";;"https://www.facebook.com/Country-Kids-Learning-center-LLC-230371430698246/";;;;"x";"x";"x";"x";;;"https://scontent.fskp2-1.fna.fbcdn.net/v/t1.0-1/p200x200/14142004_230374300697959_363781788826222427_n.jpg?_nc_cat=0&oh=da2891e30cb36463c22481eecc2884dd&oe=5B8F1D39";"7AM - 5:30PM";"7AM - 5:30PM";"7AM - 5:30PM";"7AM - 5:30PM";"7AM - 5:30PM";"Closed";"Closed";
1174903;"DIVINE FELLOWSHIP CHRISTIAN CENTER";"58 SWEDETOWN ROAD";"THEODORE";"AL";36582;"MOBILE";"(251)458-7044";;;;;;;;;;;;;;;;;;;;;;;"License not renewed"
1174918;"REDEEMED COMMUNITY CHURCH";"6254 HOWELLS FERRY ROAD";"MOBILE";"AL";36618;"MOBILE";"(251)639-1900";"http://www.redeemedmobile.org/";" redeemedmobile@att.net ";"RCC's MISSION comes out of the Holy Bible from Matthew 28:19, which says ""Go therefore and make disciples of all nations, baptizing them in the name of the Father and of the Son and of the Holy Spirit, teaching them to observe all things that I have commanded you.";"http://www.redeemedmobile.org/";"https://www.facebook.com/PPastorwill/";;;;;;;;;;;;;;;;;;
1174917;"SAFE HAVEN CHRISTIAN CENTER, SITE V";"1903 BEARFORK ROAD";"WHISLER";"AL";36613;;"(251)307-5551";;;"Safe Haven ( Site 5 ) is a Daycare and learning Christian center . We are considered a 24/7 center and operate based on the needs of our parents .";;"https://www.facebook.com/safehavensite5/";;;;"x";"x";"x";"x";"x";"x";"https://scontent.fskp2-1.fna.fbcdn.net/v/t1.0-1/p200x200/14992000_204584323283908_1548092934118651483_n.jpg?_nc_cat=0&oh=59637e4b42a4789955ca5e3eaa84b504&oe=5B814F1A";"Open 24/7";"Open 24/7";"Open 24/7";"Open 24/7";"Open 24/7";"Open 24/7";"Open 24/7";
1174915;"TOT'S R US LEARNING & DEV. CENTER INC.";"324 SOUTH WILSON AVENUE";"PRICHARD";"AL";36610;"Mobile ";"(251)457-4440";;;;;;;;;;;;;;;;;;;;;;;"License not renewed"
1174916;"CHICKASAW HEAD START CENTER";"201 N CRAFT HIGHWAY";"CHICKASAW";"AL";36611;"Mobile ";"(251)436-2603";"https://www.chickasaw.net/";;"The Chickasaw Nation Early Childhood Development is a center-based federal and tribally funded program that promotes the school readiness of children from ages three to five years. The Early Childhood Development philosophy is based on the principle that early childhood education should address children’s needs in all areas of development: physical, social, emotional and cognitive";"https://www.chickasaw.net/Services/Chickasaw-Nation-Early-Childhood-Development-and-Head-Start.aspx";"https://www.facebook.com/TheChickasawNation";"https://www.chickasaw.net/Our-Nation/Careers.aspx";"https://www.chickasaw.net/getattachment/3761188b-9ec6-4ca9-b57f-b7ca6429de1e/Form_466.aspx";;;;"x";"x";;;;"Open 24/7";"Open 24/7";"Open 24/7";"Open 24/7";"Open 24/7";"Open 24/7";"Open 24/7";
1174914;"THE BUSH TOT SPOT";"612 GRANT AVENUE";"PRICHARD";"AL";36610;"Mobile ";"(251)307-5457";;;;;;;;;;;;;;;;;;;;;;;
1174911;"EMMANUEL SEVENTH-DAY ADVENTIST CHURCH";"520 GILBERT STREET";"PRICHARD";"AL";36610;"Mobile ";"(251)478-1140";"http://emmanuel39.adventistchurchconnect.org/";"haroldgoodloe@yahoo.com";"Emmanuel Seventh-day Adventist Church is the first black organized church in Mobile, Al.";"http://emmanuel39.adventistchurchconnect.org/article/12/kids-zone";"https://www.facebook.com/Emmanuel-Seventh-day-Adventist-Church-Mobile-243302325754729/";;;;;"x";"x";"x";;;;;;;;;;;
1174912;"LIGHTHOUSE ACADEMY OF EXC. & ACHVMT. III";"218 SOUTH WILSON AVENUE";"PRICHARD";"AL";36610;"Mobile ";"(251)725-0246";;;"Welcome to the new preschool in Prichard, Al, that is going to change the lives of many children! Come see what we have to offer!";;"https://www.facebook.com/Lighthouse-Academy-Of-Prichard-Shining-The-Light-On-Quality-Childcare-341372519582447/";;;;"x";"x";"x";"x";;;"https://scontent.fskp2-1.fna.fbcdn.net/v/t1.0-1/p200x200/29314451_565402827179414_7611445229840760832_n.jpg?_nc_cat=0&oh=8f2f1b4576e1056e4eccb09fcff7225f&oe=5B87AA60";;;;;;;;
1174913;"LITTLE ROCK BAPTIST CHURCH";"140 MEAHER AVENUE";"PRICHARD";"AL";36610;"Mobile ";"(251)423-9809";;;;;;;;;;;;;;;;;;;;;;;"License not renewed"
1174910;"NEW LIFE MISSIONARY BAPTIST CHURCH";"3861 Hilton Drive";"MOBILE";"AL";36608;"MOBILE";"(251)661-8214";"http://newlifemobile.org/";"NLCF@newlifemobile.org";"New Life Christian Fellowship is a multi-denominational group of believers who love God intimately and love the world, and each other openly.     ";"http://newlifemobile.org/ministries/childrens-ministry";"https://www.facebook.com/New-Life-Christian-Fellowship-164854716860763/";;;;"x";"x";"x";"x";;;"https://scontent.fskp2-1.fna.fbcdn.net/v/t1.0-1/p200x200/30704723_1895593550453529_557676914697830400_n.jpg?_nc_cat=0&oh=c8ad43f39c30b8bec97a41a4f64c4004&oe=5B7F5CE3";;;;;;;;
1174919;"ST. JOHN UNITED METHODIST CHURCH";"6215 OVERLOOK ROAD";"MOBILE";"AL";36618;"MOBILE";"(251)342-6666";"http://www.thevisioncenter.tv/";"stjohnumc@bellsouth.net";"St. John UMC is a multiethnic church serving the Mobile area by building relationships and strengthening those who seek God, to serve.";"http://www.thevisioncenter.tv/";"https://www.facebook.com/SaintJohnMobile/";;;;;;;;;;"https://scontent.fskp2-1.fna.fbcdn.net/v/t1.0-1/p200x200/18835812_779484588867576_4887496428613999872_n.jpg?_nc_cat=0&oh=362f20f17f0f1e95dbca766b0a0e416c&oe=5B82F021";;;;;;;;
1174922;"EDGEWOOD CHILD DEVELOPMENT CENTER";"709 HIGHLAND AVENUE";"SELMA";"AL";36701;"DALLAS";"(334)874-1643";"http://www.selmacityschools.org/";"lking@selmacityschools.org";"The mission at Edgewood Elementary School is to help each child, regardless of his potential, reach his utmost scholastically and develop socially to the point that may become a productive, self-disciplined, highly motivated, responsible individual.";"http://www.selmacityschools.org/edgewoodelementary_home.aspx";;"http://www.selmacityschools.org/PersonnelServices.aspx";;"https://www2.ed.gov/parents/landing.jhtml";;;"x";"x";;;"http://www.selmacityschools.org/sysimages/LOGO.jpg";"7:25AM - 3PM";"7:25AM - 3PM";"7:25AM - 3PM";"7:25AM - 3PM";"7:25AM - 3PM";"Closed";"Closed";
1174921;"COMMUNITY CHURCH MINISTRIES, INC. SITE I";"2258 HILLCREST ROAD";"MOBILE";"AL";36695;"MOBILE";"(251)308-8716";;;;;;;;;;;;;;;;;;;;;;;
1174920;"WATCH ME GROW CHILD DEV CENTER, INC.";"1809 WOLF RIDGE ROAD";"MOBILE";"AL";36618;"MOBILE";"(251)344-9793";;;;;"https://www.facebook.com/pages/Watch-Me-Grow-Child-Development-Center/103186153082059";;;;;;;;;;;;;;;;;;
1174923;"KNOX CHILD DEVELOPMENT CENTER";"1002 MABRY STREET";"SELMA";"AL";36701;"DALLAS";"(334)412-4531";"http://www.headstartprogram.us/city/al-selma";;;;;;;;;;;;;;;;;;;;;;
1174924;"LITTLE MIRACLES ACADEMY";"463 DEPOT STREET";"CAMDEN";"AL";36726;"WILCOX";"(334)682-9255";;;;;;;;;;;;;;;;;;;;;;;"License not renewed"
1174925;"FLAT ROCK FULL GOSPEL CHURCH";"1204 STALEY AVENUE";"OPELIKA";"AL";36801;"LEE";"(334)610-1967";;;;;;;;;;;;;;;;;;;;;;;"License not renewed"
1174926;"TKJ BY HIS GRACE MINISTRIES, SITE III";"311 SOUTH 6TH STREET";"OPELIKA";"AL";36801;"LEE";"(334)750-0309";"http://www.byhisgracedaycare.com/";" byhisgracedaycare@charter.net.";"We aim to be your first choice child care provider. To achieve this goal, we offer exceptional quality childcare in a compassionate learning environment.";"http://www.byhisgracedaycare.com/";;;;;"x";"x";"x";"x";;;;"5AM - 12PM";"5AM - 12PM";"5AM - 12PM";"5AM - 12PM";"5AM - 12PM";"Closed";"Closed";
1174927;"RAMPEY'S DAY CARE CENTER";"108 FIRST AVENUE, NW";"LAFAYETTE";"AL";36862;"CHAMBERS";"(334)864-8964";;;;;;;;;;;;;;;;;;;;;;;
1174928;"BELLAMY HEAD START";"39 CEDAR ROAD";"BELLAMY";"AL";36901;"Sumter ";"(205)392-4240";"http://www.headstartprogram.us/city/al-bellamy";;;;;;;;;;;;;;;;;;;;;;
1174933;"FOUNDATIONS EARLY LEARNING CENTER";"300 NORTH POPLAR STREET";"WINSTON-SALEM";"NC";27101;"FORSYTH";"(336) 283-6961";"http://foundationsearlylearningcenter.com/";"center207@foundationselc.com";"Our programs are created to help your child reach their full potential.  Foundations offers high quality infant, toddler, preschool, pre-K, school-age and summer camp programs. ";"http://foundationsearlylearningcenter.com/center/winston-salem/";"https://www.facebook.com/FoundationsEarlyLearningCenters/";;"http://foundationsearlylearningcenter.com/enrollment/";"http://foundationsearlylearningcenter.com/child-care-tuition-costs/";"x";"x";"x";"x";;;"http://foundationsearlylearningcenter.com/wp-content/uploads/2016/06/Foundations-ELC-Logo.png";"7AM - 6PM";"7AM - 6PM";"7AM - 6PM";"7AM - 6PM";"7AM - 6PM";"Closed";"Closed";
1174940;"CHILDCARE NETWORK #78B";"100 E HANOVER ROAD";"GRAHAM";"NC";27253;"ALAMANCE";"(336) 792-5847";"https://www.childcarenetwork.com/";"info@childcarenetwork.com";"Our mission at Childcare Network is to provide children with the highest quality early childcare and education, to serve as a supportive network and resource for families, strengthening the communities that we serve, and to work interactively with other responsive networks and services to ensure that high quality preschool education remains progressive, safe, and affordable for all families.";"https://www.childcarenetwork.com/find-a-school";"https://www.facebook.com/ChildcareNetworkSchools";"https://www.childcarenetworkjobs.com/";"https://www.childcarenetwork.com/programs";"https://50cb16144e927f9e6f6f-9f4946773be90d0bc170827895a58c68.ssl.cf1.rackcdn.com/App_Obout/HTMLEditor/DocumentsGallery/users_documents/Preschool%20Parent%20Guide.pdf";"x";"x";"x";"x";"x";"x";"https://scontent.fskp2-1.fna.fbcdn.net/v/t1.0-1/13716030_1364393870244681_1349631824670473422_n.jpg?_nc_cat=0&oh=7399224089c9eb625f74238d283700d9&oe=5BBDC9B9";"6:30AM -6PM";"6:30AM -6PM";"6:30AM -6PM";"6:30AM -6PM";"6:30AM -6PM";"Closed";"Closed";
1174939;"BOYS-N-GIRLS LEARNING CENTER, INC.";"520 Tucker St";"Burlington";"NC";27253;"ALAMANCE";"(336) 226-7200";;"boysandgirls_lc@yahoo.com";;;;;;;;;;;;;;;;;;;;;
1174937;"CHILDCARE NETWORK #297";"1010 WILLIAMSON AVE";"ELON";"NC";27244;"Alamance";"(336) 584-5678";"https://www.childcarenetwork.com/";"info@childcarenetwork.com";"Our mission at Childcare Network is to provide children with the highest quality early childcare and education, to serve as a supportive network and resource for families, strengthening the communities that we serve, and to work interactively with other responsive networks and services to ensure that high quality preschool education remains progressive, safe, and affordable for all families.";"https://www.childcarenetwork.com/find-a-school";"https://www.facebook.com/ChildcareNetworkSchools";"https://www.childcarenetworkjobs.com/";"https://www.childcarenetwork.com/programs";"https://50cb16144e927f9e6f6f-9f4946773be90d0bc170827895a58c68.ssl.cf1.rackcdn.com/App_Obout/HTMLEditor/DocumentsGallery/users_documents/Preschool%20Parent%20Guide.pdf";"x";"x";"x";"x";"x";"x";"https://scontent.fskp2-1.fna.fbcdn.net/v/t1.0-1/13716030_1364393870244681_1349631824670473422_n.jpg?_nc_cat=0&oh=7399224089c9eb625f74238d283700d9&oe=5BBDC9B9";"6:30AM -6PM";"6:30AM -6PM";"6:30AM -6PM";"6:30AM -6PM";"6:30AM -6PM";"Closed";"Closed";
1174946;"FUTURE SCHOLARS CHILD CARE AND DEVELOPMENT CENTER";"114 CORBIN ST";"HILLSBOROUGH";"NC";27278;"ORANGE";"(919) 245-2222";;"futurescholars16@gmail.com";"Beginning with the end in mind";;"https://www.facebook.com/futurescholarsdevelopment/";;;;"x";"x";"x";"x";;;"https://scontent.fskp2-1.fna.fbcdn.net/v/t1.0-1/p200x200/13230257_229898107389943_100431115600728568_n.jpg?_nc_cat=0&oh=7240bd4c88d04eef85e0eae326cc5b62&oe=5B84775A";"6AM - 6PM";"6AM - 6PM";"6AM - 6PM";"6AM - 6PM";"6AM - 6PM";"Closed";"Closed";
1174943;"APPLEVILLE ACADEMY";"2206 EASTCHESTER DRIVE";"HIGH POINT";"NC";27265;"GUILFORD";"(336) 882-2206";"http://www.applevilleacademy.com/";"applevilleacademy@gmail.com ";"We are a dedicated early childhood care center proudly serving families in High Point, NC and nearby areas. Our weekly program provides a guided learning experience for children ages 1-5, giving them a solid foundation for future learning.";"http://www.applevilleacademy.com/";;"https://www.facebook.com/applevilleacademy/";;;;"x";"x";"x";;;"https://scontent.fskp2-1.fna.fbcdn.net/v/t1.0-1/c22.0.200.200/p200x200/16425741_247020405741721_551439304849397340_n.jpg?_nc_cat=0&oh=5c9af1713e8332777f4146e34607f183&oe=5B8069D6";"6:30AM -6PM";"6:30AM -6PM";"6:30AM -6PM";"6:30AM -6PM";"6:30AM -6PM";"Closed";"Closed";
1174941;"ABOVE AND BEYOND II";"1510 EAST AVENUE";"HIGH POINT";"NC";27260;"GUILFORD";"(336) 821-3100";;"christnjanice@yahoo.com";;;;;;;;;;;;;;;;;;;;;
1174942;"JUST WHAT I NEEDED CHILD DEV. CENTER AT HIGH POINT";"700 GREENSBORO ROAD";"HIGH POINT";"NC";27260;"GUILFORD";"(336) 882-9331";;"jwincdchp@gmail.com";" Play is a child's way of engaging and making sense of the world";;"https://www.facebook.com/JWINCDC/";;;;"x";"x";"x";"x";;;"https://scontent.fskp2-1.fna.fbcdn.net/v/t1.0-1/p200x200/17553736_1749782741998984_4002011185277646977_n.png?_nc_cat=0&oh=cb13384a0d8eb3fbf9029c5964aa7d9d&oe=5BC1A399";"6AM - 6PM";"6AM - 6PM";"6AM - 6PM";"6AM - 6PM";"6AM - 6PM";"Closed";"Closed";
1174951;"LEARNING LEMON DROPS CHILD CARE CENTER";"854 EAST STREET";"PITTSBORO";"NC";27312;"CHATHAM";"(919) 542-3545";"https://sites.google.com/view/lemondrops/home";"lemondropschildcarecenter@gmail.com";"Child Care Center conveniently located beside the post office in Pittsboro. Providing care for infants-preschool.";"https://sites.google.com/view/lemondrops/home";"https://www.facebook.com/Learning-Lemon-Drops-Child-Care-Center-246049512489003/";;;;"x";"x";"x";"x";;;"https://scontent.fskp2-1.fna.fbcdn.net/v/t1.0-1/c0.0.200.200/p200x200/16299545_246049819155639_3830493337341837686_n.jpg?_nc_cat=0&oh=2fcfd97276100ce99c4a9d063a08a669&oe=5B7614F7";"7AM - 6PM";"7AM - 6PM";"7AM - 6PM";"7AM - 6PM";"7AM - 6PM";"Closed";"Closed";
1174949;"THE CHILD CARE CENTER";"10703 N HIGHWAY 109";"LEXINGTON";"NC";27292;"DAVIDSON";"(336) 313-8078";;"luckyy33@aol.com";"The Childcare Center is a safe place for children to go and have fun with other children. NC license, I accept County funding.";;"https://www.facebook.com/luckyy333/";;;;;;;;;;;"6AM - 6PM";"6AM - 6PM";"6AM - 6PM";"6AM - 6PM";"6AM - 6PM";"Closed";"Closed";
1174948;"THE CHILDREN'S COURTYARD";"1009 MASTEN DRIVE";"KERNERSVILLE";"NC";27284;"FORSYTH";"(336) 992-0797";"https://www.childrenscourtyard.com/";"3219@childrenscourtyard.com";"Our center offers Infant Care, Preschool and other early education programs, including before- and after-school options. We have an excellent team of teachers at our school – they have a combined experience of more than 100 years!";"https://www.childrenscourtyard.com/your-local-school/kernersville-nc-3219/";"https://www.facebook.com/ChildrensCourtyard";"https://www.childrenscourtyard.com/about-us/child-care-careers/";"https://www.childrenscourtyard.com/child-care-centers/enrollment/";;"x";"x";"x";"x";"x";;"https://scontent.fskp2-1.fna.fbcdn.net/v/t1.0-1/10460789_691824194185972_5643323398131909248_n.jpg?_nc_cat=0&oh=ab83e97e13932d7c9077e0fcb18a4156&oe=5BBC05AA";"7AM - 6PM";"7AM - 6PM";"7AM - 6PM";"7AM - 6PM";"7AM - 6PM";"Closed";"Closed";
1174947;"CHILDREN IN MOTION";"530 ARBOR HILL ROAD";"KERNERSVILLE";"NC";27284;"FORSYTH";"(336) 497-4912";"http://www.childreninmotionnc.com/";"childreninmotion2014@gmail.com";"Stay-at-home parenting is not an option for every family. Luckily, there’s an alternative: Children in Motion. Our child care center in Kernersville, NC is open 7 days a week. We provide day care and after school care to children up to 12 years old. ";"http://www.childreninmotionnc.com/";;;;"https://irp-cdn.multiscreensite.com/c0fe3edc/files/uploaded/Children%20In%20Motion%20%28Info%20Packet%29.pdf";"x";"x";"x";"x";"x";;"https://irp-cdn.multiscreensite.com/c0fe3edc/dms3rep/multi/mobile/logo-232x112.png";;;;;;;;
1174956;"MASON'S CHILD CARE CENTER";"422 NORTH DOGWOOD AVENUE";"SILER CITY";"NC";27344;"CHATHAM";"(919) 663-0083";;"masondaycare@yahoo.com";;;;;;;;;;;;;;;;;;;;;
1174957;"STAR ELEMENTARY SCHOOL AFTERSCHOOL";"302 SOUTH MAIN STREET";"STAR";"NC";27356;"MONTGOMERY";"(910) 428-4333";"https://www.montgomery.k12.nc.us/";"vance.thomas@montgomery.k12.nc.us";"We pledge to do our very best every day in every way.""";"https://www.montgomery.k12.nc.us/star";;;;"http://www.jostens.com/yearbooks/high-school-yearbooks.html";;;"x";"x";"x";;"https://www.montgomery.k12.nc.us/cms/lib/NC01000976/Centricity/Template/GlobalAssets/images///logos/Star%20Elementary%20Logo.png";;;;;;;;
1174954;"SHOOTING STARS LEARNING CENTER";"152 CHARLOTTE AVENUE";"SANFORD";"NC";27330;"LEE";"(919) 776-0190";"http://shootingstarslearningcenter.com/";"shootingstarslc@yahoo.com";"Shooting Stars Learning Center, Inc. in Sanford, NC is a 4-star child care facility offering child care services to busy parents and caregivers. We provide programs and services perfect for children ages 2 weeks to 12 years old.";"http://shootingstarslearningcenter.com/";;;;;"x";"x";"x";"x";;;;"6AM - 6PM";"6AM - 6PM";"6AM - 6PM";"6AM - 6PM";"6AM - 6PM";"Closed";"Closed";
1174952;"PITTSBORO ELEMENTARY SCHOOL PREK";"375 PITTSBORO ELEMENTARY SCHOOL ROA";"PITTSBORO";"NC";27312;"CHATHAM";"(919) 542-3987 ";"https://www.chatham.k12.nc.us/";"ceking@chatham.k12.nc.us";"Pittsboro Elementary is recognized by the state as a Positive Behavioral Interventions and Supports (PBIS) Model School";"https://www.chatham.k12.nc.us/pes";;;"https://www.chatham.k12.nc.us/site/Default.aspx?PageID=19081";;;;"x";"x";;;"https://www.chatham.k12.nc.us/cms/lib/NC01911141/Centricity/Template/GlobalAssets/images//logos/PES_panda_logo.png";;;;;;;;
1174961;"SUGARBABIES CHILD CARE";"809 WAUGH STREET";"GREENSBORO";"NC";27405;"GUILFORD";"(336) 275-4015";;"riabrah@aol.com";;;;;;;;;;;;;;;;;;;;;
1174960;"EDUCATIONAL PLAYTIME TOO! INC. #2";"3105 YANCEYVILLE STREET";"GREENSBORO";"NC";27405;"GUILFORD";"(336) 358-9177";"https://educationalplaytimetoo.com/";"eduplaytoo@gmail.com";"EDUCATIONAL PLAYTIME TOO! INC. began in 2005 as an in-home childcare facility. Over the years, the facility has grown in size and strength. In 2016, Educational Playtime Too blossomed and began serving families in 2 locations: 2300 Spring Garden Street and 3105 Yanceyville Street in Greensboro.";"https://educationalplaytimetoo.com/contact-us/";"https://www.facebook.com/educationalplaytoo/";;;;;;;"x";"x";"x";"https://wxlv165644sbp.wpengine.com/wp-content/uploads/2017/08/Educational-Playtime-Too-NEW-logo2017-copy.png";"6AM - 7PM";"6AM - 7PM";"6AM - 7PM";"6AM - 7PM";"6AM - 7PM";"Closed";"Closed";
1174959;"EDUCATIONAL PLAYTIME TOO! INC";"2300 SPRING GARDEN STREET";"GREENSBORO";"NC";27403;"GUILFORD";"(336) 315-8547";"https://educationalplaytimetoo.com/";"eduplaytoo@gmail.com";"EDUCATIONAL PLAYTIME TOO! INC. began in 2005 as an in-home childcare facility. Over the years, the facility has grown in size and strength. In 2016, Educational Playtime Too blossomed and began serving families in 2 locations: 2300 Spring Garden Street and 3105 Yanceyville Street in Greensboro.";"https://educationalplaytimetoo.com/contact-us/";"https://www.facebook.com/educationalplaytoo/";;;;;;;"x";"x";"x";"https://wxlv165644sbp.wpengine.com/wp-content/uploads/2017/08/Educational-Playtime-Too-NEW-logo2017-copy.png";"6AM - 7PM";"6AM - 7PM";"6AM - 7PM";"6AM - 7PM";"6AM - 7PM";"Closed";"Closed";
1174967;"CHILDCARE NETWORK #298";"5312 W FRIENDLY AVE";"GREENSBORO";"NC";27410;"GUILFORD";"(336) 851-5678";"https://www.childcarenetwork.com/";"info@childcarenetwork.com";"Our mission at Childcare Network is to provide children with the highest quality early childcare and education, to serve as a supportive network and resource for families, strengthening the communities that we serve, and to work interactively with other responsive networks and services to ensure that high quality preschool education remains progressive, safe, and affordable for all families.";"https://www.childcarenetwork.com/northcarolina-greensboro-nc-298/photogallery";"https://www.facebook.com/ChildcareNetworkSchools";"https://www.childcarenetworkjobs.com/";"https://www.childcarenetwork.com/applications/gen-eng-print.pdf";"https://50cb16144e927f9e6f6f-9f4946773be90d0bc170827895a58c68.ssl.cf1.rackcdn.com/App_Obout/HTMLEditor/DocumentsGallery/users_documents/Preschool%20Parent%20Guide.pdf";"x";"x";"x";"x";"x";"x";"https://scontent.fskp2-1.fna.fbcdn.net/v/t1.0-1/13716030_1364393870244681_1349631824670473422_n.jpg?_nc_cat=0&oh=7399224089c9eb625f74238d283700d9&oe=5BBDC9B9";"6:30AM -6PM";"6:30AM -6PM";"6:30AM -6PM";"6:30AM -6PM";"6:30AM -6PM";"Closed";"Closed";
1174968;"THE BABY HOUSE, LLC";"3231 HORSE PEN CREEK ROAD";"GREENSBORO";"NC";27410;"GUILFORD";"(336) 617-7700";;"rkohlerpag@cs.com";"A wonderful atmosphere for 6 wks - 2 1/2 yrs. Our amazing staff incorporates tenderness, kindness & knowledge in every moment of your child's day";;"https://www.facebook.com/ABabyHouse/";;;;"x";"x";"x";;;;"https://scontent.fskp2-1.fna.fbcdn.net/v/t1.0-1/p200x200/18156967_1588119497899260_7113665804072224869_n.jpg?_nc_cat=0&oh=2f57c4821749a9655f690a5ecc71ce9a&oe=5B7AF608";;;;;;;;
1174965;"THE WRIGHT PLACE CHILD DEVELOPMENT CENTER";"2804-U RANDLEMAN ROAD";"GREENSBORO";"NC";27406;"GUILFORD";"(336) 655-1141";"http://www.thewrightplacecdc.com/";"denise@thewrightplacecdc.com";" The Wright Place Child Development Center is focused on providing high-quality child care service and customer satisfaction - we will do everything we can to meet your expectations.";"http://www.thewrightplacecdc.com/";"https://www.facebook.com/thewrightplacecdc/";;;;"x";"x";"x";"x";;;"https://scontent.fskp2-1.fna.fbcdn.net/v/t1.0-1/p200x200/13925129_958140250963818_4148422319946516634_n.jpg?_nc_cat=0&oh=3f78c47077bc96481538fc459066652c&oe=5BBC59E5";"6:30AM -7:30PM";"6:30AM -7:30PM";"6:30AM -7:30PM";"6:30AM -7:30PM";"6:30AM -7:30PM";"Closed";"Closed";
1174975;"CAROLINA CREATIVE PLAYSCHOOL";"8800 SEAWELL SCHOOL RD";"CHAPEL HILL";"NC";27514;"ORANGE";"(919) 391-4406";"http://www.carolinacreativeplayschool.com/";"acarroll511@gmail.com";"At Carolina Creative Playschool we believe in promoting the growth and development of the whole child. A child's play is their very important work and through an enriched and thoughtfully planned and prepared environment we can foster social, emotional, and cognitive growth. ";"http://www.carolinacreativeplayschool.com/";"https://www.facebook.com/carolinacreativeplayschool/";;;;"x";"x";"x";"x";;;"http://www.carolinacreativeplayschool.com/assets/logo_white_background.jpg";"7:30AM -5:30PM";"7:30AM -5:30PM";"7:30AM -5:30PM";"7:30AM -5:30PM";"7:30AM -5:30PM";"Closed";"Closed";
1174974;"THE GODDARD SCHOOL";"1177 NW MAYNARD RD";"CARY";"NC";27513;"WAKE";"(919) 466-0008";"https://www.goddardschool.com/";"carync@goddardschools.com";"Looking for a warm, friendly environment with a great Early Childhood Program? Look no further. As an educator and proud owner of one of the finest early childhood programs in the area, my interest is to provide children with the most positive and nurturing learning environment at The Goddard School in Cary, NC. ";"https://www.goddardschool.com/raleigh-durham/cary-maynard-road-nc";"https://www.facebook.com/GoddardSchoolCaryNC/";"https://www.goddardschool.com/raleigh-durham/cary-maynard-road-nc/careers";;;;;;;"x";"x";"https://www.goddardschool.com/Image%20Library/Local/GoddardLogo_Icon_White-Web.png";"7AM - 6:30PM";"7AM - 6:30PM";"7AM - 6:30PM";"7AM - 6:30PM";"7AM - 6:30PM";"Closed";"Closed";
1174972;"AFTON NATURE SCHOOL";"109 HILLCREST AVE";"CARRBORO";"NC";27510;"ORANGE";"(919) 636-2836";"http://aftonnatureschool.com/";"AftonNatureSchool@gmail.com";"Afton Nature School is a Licensed NC program with a 5-Star rating for children ages 1 through 6. ";"http://aftonnatureschool.com/";"https://www.facebook.com/Afton-Nature-School-607752612602411/";"http://aftonnatureschool.com/";;;;"x";"x";"x";;"x";"http://aftonlittleschool.com/yahoo_site_admin/assets/images/AFTON_LOGO_med_copy.4770147_logo.jpg";"8:30AM - 3:30PM";"8:30AM - 3:30PM";"8:30AM - 3:30PM";"8:30AM - 3:30PM";"8:30AM - 3:30PM";"Closed";"Closed";
1174970;"MONTESSORI CREATIVE LEARNING SCHOOL";"402 UPCHURCH STREET";"APEX";"NC";27502;"WAKE";"(919) 372-8181";"https://www.montessoricreativelearningschool.com/";"teach.mcls@gmail.com";"Montessori Creative Learning School follows the Montessori Method of educating a child by providing hands-on learning experiences. Our school strives to challenge each child at his or her individual ability while providing numerous opportunities for intellectual, social and physical development. ";"https://www.montessoricreativelearningschool.com/";"https://www.facebook.com/MontessoriCreativeLearningSchool/";;"https://www.montessoricreativelearningschool.com/enrollment-process.html";"https://www.montessoricreativelearningschool.com/tuition-and-fees.html";;"x";"x";"x";;;"https://www.montessoricreativelearningschool.com/uploads/7/0/5/0/70507809/published/high-res-cropped.png?1493046540";"7:30AM -5:30PM";"7:30AM -5:30PM";"7:30AM -5:30PM";"7:30AM -5:30PM";"7:30AM -5:30PM";"Closed";"Closed";
1174980;"CLEVELAND ELEMENTARY SCHOOL";"10225 CLEVELAND ROAD";"CLAYTON";"NC";27520;"JOHNSTON";"(919) 550-2700";"https://www.johnston.k12.nc.us";"stallingskim@gmail.com";"Cleveland Elementary School will provide a learning environment which fosters teamwork between the home, school, and community where ALL children can learn through high standards and clear expectations to reach their true potential.";"https://www.johnston.k12.nc.us/cves";"https://www.facebook.com/clevelandstars/";"https://www.johnston.k12.nc.us/hr";;"https://docs.google.com/document/d/1F1NkBZaOJRjsIUG6pr5o1HhZULitrJ62xjj-MLmCMRM/edit";;;"x";"x";"x";;"https://www.johnston.k12.nc.us/cms/lib/NC02214550/Centricity/Template/GlobalAssets/images///Logos/LOGO_Cleveland_ES_65px.png";"8:20AM - 4:05PM";"8:20AM - 4:05PM";"8:20AM - 4:05PM";"8:20AM - 4:05PM";"8:20AM - 4:05PM";"Closed";"Closed";
1174976;"PRIMROSE SCHOOL OF CHAPEL HILL AT BRIAR CHAPEL";"81 FALLING SPRINGS DRIVE";"CHAPEL HILL";"NC";27516;"ORANGE";"(919) 441-0441";"https://www.primroseschools.com/";"bmart@primrosechapelhill.com";"Primrose Schools® is a national system of accredited private preschools that provides a premier early education and child care experience for children and families";"https://www.primroseschools.com/schools/chapel-hill-at-briar-chapel/";"https://www.facebook.com/PrimroseChapelHill/";"https://www.primroseschools.com/schools/chapel-hill-at-briar-chapel/careers/";;;"x";"x";"x";"x";"x";"x";"https://scontent.fskp2-1.fna.fbcdn.net/v/t1.0-1/p200x200/19059681_1901759313416553_7860243554249339642_n.png?_nc_cat=0&oh=bbf80b9ac9688561ac549fa0ac6369ee&oe=5B8C2B41";"7AM - 6PM";"7AM - 6PM";"7AM - 6PM";"7AM - 6PM";"7AM - 6PM";"Closed";"Closed";
1174988;"FIRST STEPS LEARNING CENTER, INC.";"942 JOEL JOHNSON RD";"LILLINGTON";"NC";27546;"HARNETT";"(910) 814-1041";;"firststeps942@aol.com";"Our mission at First Steps Learning Center is to strengthen the bridge between affordable, quality child care and working parents by creating a special place that supports both and make each child's first steps to learning enriched with fun!";;"https://www.facebook.com/First-Steps-Learning-Center-825039744310814/";;;;"x";"x";"x";"x";;;"https://scontent.fskp2-1.fna.fbcdn.net/v/t1.0-1/p200x200/18010265_825048650976590_1799723933049339045_n.png?_nc_cat=0&oh=f23a4ff1fac8f22a3c776a5a312cc53f&oe=5BBA9888";"6AM - 6PM";"6AM - 6PM";"6AM - 6PM";"6AM - 6PM";"6AM - 6PM";"Closed";"Closed";
1174985;"GREENGLO DAYCARE CENTER INC";"44 ALLEN ROAD";"HENDERSON";"NC";27537;"VANCE";"(252) 654-2164";"http://www.greenglodaycare.com/";"sheril.scott@greenglodaycare.com";"At Greenglo Daycare Center, we believe that child care should be an educational, enjoyable, and positive experience for children. We promise to get to know your daughter or son, to learn their particular physical, academic, and social needs, and to meet those needs with knowledge, patience, and kindness.";"http://www.greenglodaycare.com/";"https://www.facebook.com/greenglodaycare/";;"http://www.greenglodaycare.com/register";"http://www.greenglodaycare.com/parents";"x";"x";"x";"x";"x";"x";"https://static.wixstatic.com/media/d500fe_977ccbdaf6bc4d2682ed93c525e6f139~mv2.jpg/v1/fill/w_392,h_134,al_c,q_80,usm_0.66_1.00_0.01/d500fe_977ccbdaf6bc4d2682ed93c525e6f139~mv2.webp";;;;;;;;
1174995;"KIDZ R US CHILD CARE";"609 N WEBB ST";"SELMA";"NC";27576;"JOHNSTON";"(919) 351-4149";;"kidzrus609@gmail.com";"A safe, educational, and fun ""home away from home"" for children ages 6 weeks - 12 years.";;;"https://www.facebook.com/KidzRUsSelma/";;;"x";"x";"x";"x";;;"https://scontent.fskp2-1.fna.fbcdn.net/v/t1.0-1/p200x200/20800301_165836423963957_4094231449938936320_n.jpg?_nc_cat=0&oh=80f1b7be78a033957e635db51f21d4db&oe=5B78DF94";"6AM - 6PM";"6AM - 6PM";"6AM - 6PM";"6AM - 6PM";"6AM - 6PM";"Closed";"Closed";
1174993;"PINE LEVEL ELEMENTARY SCHOOL";"304 W BLANCHE ST";"PINE LEVEL";"NC";27568;"Columbus";"(919) 965-3323";"https://www.johnston.k12.nc.us/";"katielewis@ohnston.k12.nc.us";"Pine Level Elementary is committed to igniting the spark in every child that promotes a flame and love for successful learning. We hold all students and staff to the highest standards of excellence, believing that every child can learn when given the opportunity to perform at his/her level.";"https://www.johnston.k12.nc.us/ples";"https://www.facebook.com/jcsple";;"https://www.johnston.k12.nc.us/domain/7429";"https://www.johnston.k12.nc.us/domain/7439";;;"x";"x";;;"https://www.johnston.k12.nc.us/cms/lib/NC02214550/Centricity/Template/GlobalAssets/images///Logos/LOGO_Pine_Level_ES_65px.png";"8:15AM - 4PM";"8:15AM - 4PM";"8:15AM - 4PM";"8:15AM - 4PM";"8:15AM - 4PM";"Closed";"Closed";
1174992;"CHILDREN FIRST PRESCHOOL";"1224 COLLEGE ST";"OXFORD";"NC";27565;"GRANVILLE";"(919) 692-1224";;"Children1st16@yahoo.com";"Children First Pre-School Inc. will provide a safe learning environment for your child with a loving and understanding caregiver.";;"https://www.facebook.com/Children-First-Pre-School-Inc-556783547827662/";;;;"x";"x";"x";"x";;;;"6AM - 12PM";"6AM - 12PM";"6AM - 12PM";"6AM - 12PM";"6AM - 12PM";"Closed";"Closed";
1174990;"NORLINA CHRISTIAN SCHOOL";"305 OLD WARRENTON ROAD";"NORLINA";"NC";27563;"WARREN";"(252) 456-3385";"https://www.norlinachristianschool.net/";"sethmiller86@yahoo.com";"We are dedicated to teachings students about the sciences of the world from a Christian worldview. One of our goals is to make sure that regardless of the subject, we incorporate the Bible into our lesson plans.";"https://www.norlinachristianschool.net/";;"https://www.norlinachristianschool.net/employment";"https://www.norlinachristianschool.net/schedule-a-visit";"https://docs.wixstatic.com/ugd/4eb1d7_ae426ef10ce64a4d91f1b30bc3090a5e.pdf";;;;"x";;"x";"https://static.wixstatic.com/media/4eb1d7_7f5b24309f734a4f818ff701dcf30678~mv2.gif";;;;;;;;
1175001;"LITTLE PEOPLE PRESCHOOL L.L.C.";"4210 SAINT JAMES CHURCH RD";"RALEIGH";"NC";27604;"WAKE";"(919) 876-1761";"http://www.littlepeoplepreschoolnc.com/";"hello.littlepeoplepreschoolnc@gmail.com";"Our goal and mission is to foster a loving, thriving and progressive learning environment for your child(ren). We believe that with an encouraging environment; children are able to learn best";"http://www.littlepeoplepreschoolnc.com/";"https://www.facebook.com/LittlePeoplePreschoolsNC/";;;;;;"x";"x";;;"https://scontent.fskp2-1.fna.fbcdn.net/v/t1.0-1/p200x200/21192473_201010197102395_3147684454429978459_n.png?_nc_cat=0&oh=497031a4f1b7de8accdda1e78b0a91b0&oe=5BC162D5";"7AM - 6PM";"7AM - 6PM";"7AM - 6PM";"7AM - 6PM";"7AM - 6PM";"Closed";"Closed";
1174999;"THE LEARNING EXPERIENCE WAKE FOREST";"1200 CORPORATE CHAPLAIN DRIVE";"WAKE FOREST";"NC";27587;"WAKE";"(919) 562-1070";"https://www.thelearningexperience.com/";"wakeforest@tlechildcare.com";"At The Learning Experience®, we are dedicated to cultivating creative, compassionate and innovative young minds through our proprietary curriculum and enrichment programs that increase learning during six critical stages of early development. Our programs have been built to help children maximize their cognitive, physical and social potential";"https://www.thelearningexperience.com/our-centers/nc/wake-forest/wake-forest";"https://www.facebook.com/TheLearningExperienceWakeForest/";;;;"x";"x";"x";"x";"x";"x";"https://www.thelearningexperience.com/theme/TleBs3/img/header-tle-logo.png";"6:30AM -6:30PM";"6:30AM -6:30PM";"6:30AM -6:30PM";"6:30AM -6:30PM";"6:30AM -6:30PM";"Closed";"Closed";
1175006;"SOUTHEAST RALEIGH DAY CARE";"812 NEW BERN AVE";"RALEIGH";"NC";27610;"WAKE";"(919) 539-3747";;"southeastcc01@gmail.com";;;;;;;;;;;;;;;;;;;;;
1175005;"LEARNING WORLD CHILDCARE & PRESCHOOL";"1030 N ROGERS LANE SUITE 141";"RALEIGH";"NC";27610;"WAKE";"(919) 264-9838";"http://www.learningworldchildcare.com/";"creativegeniuselc@gmail.com";"The Learning World community is a vibrant tapestry made up of children, families, and employees who represent many different cultures, backgrounds, and experiences. At Learning World we care about the whole child. Our Well Aware program is designed to foster positive attitudes towards healthy living through modeling, experience, and activity.";"http://www.learningworldchildcare.com/";;;"http://www.learningworldchildcare.com/services/";;"x";"x";"x";"x";;;"http://www.learningworldchildcare.com/wp-content/uploads/2016/07/1469414394_package_games_kids.png";"Open 24/7";"Open 24/7";"Open 24/7";"Open 24/7";"Open 24/7";"Open 24/7";"Open 24/7";
1175003;"RAINBOW CHILD CARE CENTER";"321 SPRING FOREST ROAD";"RALEIGH";"NC";27609;"WAKE";"(919) 870-1704";"https://www.rainbowccc.com/";"raleigh@rainbowccc.com";"Our day care center staff is committed to providing a nurturing, educational and safe environment where your child can learn and grow. We want them to feel like they are at their ""home away from home.” We look forward to the opportunity to serve your family!";"https://www.rainbowccc.com/raleigh/";"http://www.facebook.com/rainbowccc";"https://www.rainbowccc.com/careers/";;;"x";"x";"x";"x";;;"https://www.rainbowccc.com/wp-content/uploads/2017/02/rainbow-logo-20170201.png";"7AM - 6PM";"7AM - 6PM";"7AM - 6PM";"7AM - 6PM";"7AM - 6PM";"Closed";"Closed";
1175010;"PRIMROSE SCHOOL AT BRIER CREEK";"11151 SALEM GLEN LANE";"RALEIGH";"NC";27617;"WAKE";"(919) 880-2416";"https://www.primroseschools.com/";"jen@primrosebriercreek.com";"Primrose Schools® is a national system of accredited private preschools that provides a premier early education and child care experience for children and families. Our Franchise Owners, Leadership Teams and School Staff partner with parents to help build the right foundation for future learning and in life.";"https://www.primroseschools.com/schools/brier-creek/";"https://www.facebook.com/PrimroseSchoolatBrierCreek/";"https://www.primroseschools.com/schools/brier-creek/careers/";;;"x";"x";"x";"x";"x";"x";"https://scontent.fskp2-1.fna.fbcdn.net/v/t1.0-1/p200x200/19105502_295650300881099_5603557253986784824_n.png?_nc_cat=0&oh=d74e2fccc7c60a330e6823f00dd6048f&oe=5BBB4E35";"7AM - 6PM";"7AM - 6PM";"7AM - 6PM";"7AM - 6PM";"7AM - 6PM";"Closed";"Closed";
1175023;"J&K'S II SPECIAL MOMENTS CHILDCARE CENTER";"1641 EAST RALEIGH BOULEVARD";"ROCKY MOUNT";"NC";27801;"EDGECOMBE";"(252) 407-8891";;"paulettedavis69.PD@gmail.com";;;;;;;;;;;;;;;;;;;;;
1175024;"ENGLEWOOD BAPTIST CHURCH WEEKDAY PRESCHOOL";"1350 S WINSTEAD AVENUE";"ROCKY MOUNT";"NC";27803;"EDGECOMBE";"(252) 937-9829";"http://www.englewoodbaptist.com/preschool/";"kristenlee@englewoodbaptist.com";"The Preschool Ministry desires to partner with parents in raising their children in homes that honor God. The preschool ministry is staffed by background-checked, trained, and loving followers of Jesus Christ.";"http://ebcpreschool.org/";;;"http://ebcpreschool.org/registration/";"http://ebcpreschool.org/hp_wordpress/wp-content/uploads/2017/10/WP-PARENT-HANDBOOK-2017-2018-online-version-Revised-Sept2017.pdf";"x";"x";"x";"x";;;"http://ebcpreschool.org/hp_wordpress/wp-content/uploads/2016/07/Weekday-Preschool-Logo-WHITE-NO-COLOR-BLOCK-01_logo.png";"8AM - 5:30PM";"8AM - 5:30PM";"8AM - 5:30PM";"8AM - 5:30PM";"8AM - 5:30PM";"Closed";"Closed";
1175025;"OLD CARRIAGE ROAD HEAD START";"222 NORTH OLD CARRIAGE ROAD";"ROCKY MOUNT";"NC";27804;"EDGECOMBE";"(252) 937-2729";"http://www.directionus.com/nc/rocky-mount/nashedgecombe-economic-development-inc-head-start-centers-old-carriage.html";;;;;;;;;;"x";"x";;;;;;;;;;;
1175026;"VICTORY LEARNING ACADEMY";"620 NORTH GRACE STREET";"ROCKY MOUNT";"NC";27804;"EDGECOMBE";"(252) 446-7154";;"victoryla620@gmail.com";"I strive to help all children develop spiritually, emotionally, physically, socially, intellectually, and physically, socially, and intellectually through role playing, independent and group participation, and other related activities.";;"https://www.facebook.com/VictoryLAinc/";;;;;;;;;;"https://scontent.fskp2-1.fna.fbcdn.net/v/t1.0-1/p200x200/17553946_1425277890875705_1026854741472576319_n.jpg?_nc_cat=0&oh=47687f0ce92dd48620d20dfb0b1376a3&oe=5BC47BC2";"6AM - 11:59PM";"12:01AM - 11:59PM";"12:01AM - 11:59PM";"12:01AM - 11:59PM";"12:01AM - 11:59PM";"Closed";"Closed";
1175022;"SPANISH LEARNING CENTER OF DURHAM";"2513 E NC HWY 54";"DURHAM";"NC";27713;"DURHAM";"(919) 748-3863";"http://spanishlearningcenterofdurham.squarespace.com/";" spanishlearningcenterofdurham@yahoo.com";"At SPANISH LEARNING CENTER OF DURHAM we believe that each child is a unique individual who has the right to a happy childhood, we think that each one holds in itself unlimited potential to learn and grow. ";"http://spanishlearningcenterofdurham.squarespace.com/";"https://www.facebook.com/spanishlearningcenter/";;"http://spanishlearningcenterofdurham.squarespace.com/enrollment/";;"x";"x";"x";"x";"x";;"http://static1.squarespace.com/static/574ae416d51cd43e7b7c657b/t/57506a64859fd016768d6cc4/1519750912445/?format=1500w";"7:30AM -5:30PM";"7:30AM -5:30PM";"7:30AM -5:30PM";"7:30AM -5:30PM";"7:30AM -5:30PM";"Closed";"Closed";
1175027;"NORTH EVERETTS HEAD START CENTER";"2115 EVERETTS ROAD";"EVERETTS";"NC";27825;"Martin";"(252) 789-1184";;"ubrown@eicinc.org";;;;;;;;;;;;;;;;;;;;;"License not renewed"
1175028;"KIPP ENC CHILDCARE";"318 PLEASANT HILL ROAD";"GARYSBURG";"NC";27832;"NORTHAMPTON";"(252) 578-2680";"http://kippenc.org/";"darthur@kippnc.org";;;;;;;;;;;;;;;;;;;;;
1175029;"DAWNSHA'S LOVING CHILDCARE CENTER";"712 MUMFORD ROAD";"GREENVILLE";"NC";27834;"PITT";"(252) 752-0865";;"msdawncox69@gmail.com";"Dawnsha's Loving Childcare Center. Where we teach and not babysit.";;;"https://www.facebook.com/Dawnshas-Loving-Childcare-Center-1269521666478240/";;;;;;;;;"https://scontent.fskp2-1.fna.fbcdn.net/v/t1.0-1/p200x200/17799488_1278386605591746_2751530872366768663_n.jpg?_nc_cat=0&oh=1366142e90bd3b70b307fd12a055bffd&oe=5B831B48";"6:30AM -6:30PM";"6:30AM -6:30PM";"6:30AM -6:30PM";"6:30AM -6:30PM";"6:30AM -6:30PM";"Closed";"Closed";
1175031;"CORINTH BAPTIST CHURCH DAYCARE";"2883 NORTH NC HWY 58";"NASHVILLE";"NC";27856;"NASH";"(252) 462-0501";;"cbcdaycare@embarqmail.com";"Corinth Baptist Daycare's goal is to provide a quality Christian daycare in which all children can grow spiritually, socially, emotionally and cognitively. We currently provide care for children ages 6 weeks to 5 years old.";;"https://www.facebook.com/corinthbaptistdaycare/";;;;"x";"x";"x";"x";;;"https://scontent.fskp2-1.fna.fbcdn.net/v/t1.0-1/p200x200/15541332_397597670578745_7263180597926726787_n.jpg?_nc_cat=0&oh=91e760881f921dc1a87ad765d0a6a1d5&oe=5BBE7D8D";"6AM - 6PM";"6AM - 6PM";"6AM - 6PM";"6AM - 6PM";"6AM - 6PM";"Closed";"Closed";
1175030;"PITT COUNTY HEAD START CENTER";"102 SCALES PLACE";"GREENVILLE";"NC";27834;"PITT";"(252)707-8022";"http://www.headstartprogram.us/";"ddixon@eicinc.org";;"http://www.headstartprogram.us/program/ecvc-head-start-center";;;;;;;"x";"x";;;"http://www.headstartprogram.us/images/logo.png";;;;;;;;
1175034;"PRINCEVILLE ELEMENTARY SCHOOL";"400 WEST HOPE LODGE STREET";"TARBORO";"NC";27886;"EDGECOMBE";"(252) 823-4718";"https://princeville.ecps.us/";"awalker@ecps.us";"The Edgecombe County Public School community will collaborate to graduate all students ready to achieve success in a rapidly changing world.";"https://princeville.ecps.us/";"https://www.facebook.com/edgecombeschools/";;;"https://princeville.ecps.us/apps/pages/index.jsp?uREC_ID=438605&type=d&pREC_ID=949268";;;"x";"x";;;"https://scontent.fskp2-1.fna.fbcdn.net/v/t1.0-1/p200x200/13902535_823105811124469_1682362919223920508_n.jpg?_nc_cat=0&oh=70803f2b8e701f3ae7de7ae4d24c4357&oe=5BB8E4CA";"7:20AM -3:10PM";"7:20AM -3:10PM";"7:20AM -3:10PM";"7:20AM -3:10PM";"7:20AM -3:10PM";"Closed";"Closed";
1175039;"HAPPY KIDS ACADEMY";"622 EAST BOULEVARD";"WILLIAMSTON";"NC";27892;"MARTIN";"(252) 792-3333";;"ynekarhodes@gmail.com";;;;;;;;;;;;;;;;;;;;;
1175040;"J & J CHILDREN'S CORNER";"211 EAST PENDER STREET";"WILSON";"NC";27893;"WILSON";"(252) 991-5727";;"jandjccdaycare@gmail.com";;;;;;;;;;;;;;;;;;;;;
1175037;"CADA HEAD START AT HALIFAX COMMUNITY COLLEGE";"100 COLLEGE DRIVE";"WELDON";"NC";27890;"HALIFAX";"(252) 536-7256";"http://www.halifaxcc.edu/";"krodwell733@halifaxcc.edu";"The Early Childhood Education curriculum prepares individuals to work with children from birth-8 in diverse learning environments. Students will combine learned theories with practice in actual settings with young children under the supervision of qualified teachers.";"http://www.halifaxcc.edu/StudntRe/earlychildhooded/index.htm";"https://www.facebook.com/halifaxcommunitycollege/";"http://halifaxcc.edu/CCP/";"http://halifaxcc.edu/StudntRe/Admission/index.htm";"http://halifaxcc.edu/StudntRe/Admission/tuition.htm";"x";"x";"x";"x";;;"http://www.halifaxcc.edu/images/headings/earlychildhoodheading.jpg";"8AM - 9PM";"8AM - 9PM";"8AM - 9PM";"8AM - 9PM";"8AM - 9PM";"Closed";"Closed";
1175035;"BEAUFORT HEAD START CENTER";"689 FLANDERS FILTER ROAD";"WASHINGTON";"NC";27889;"BEAUFORT";"(252) 940-1282";"http://www.headstartprogram.us/";"zbest@eicinc.org";;"http://www.headstartprogram.us/city/nc-washington";;;;;;;"x";"x";;;"http://www.headstartprogram.us/images/logo.png";;;;;;;;
1175044;"HEALTHY ENVIRONMENTS CHILD DEVELOPMENT CENTER KDH";"1484 COLINGTON ROAD";"KILL DEVIL HILLS";"NC";27948;"DARE";"(252)  946-5632";"http://www.hecdc.com/";"healthyenvironmentsinformation@gmail.com";"High Quality Loving Preschool/ Childcare where your child is our first priority!";"http://www.hecdc.com/";"https://www.facebook.com/HECDCKDHNC/";;;;;;"x";"x";;;;"7AM - 6PM";"7AM - 6PM";"7AM - 6PM";"7AM - 6PM";"7AM - 6PM";"Closed";"Closed";
1175041;"BUSY BEES ACADEMY, INC.";"2302 CEDAR RUN PLACE";"WILSON";"NC";27896;"WILSON";"(252) 206-1900";"http://www.busybeesacademyinc.com/";"busybeesacademy123@gmail.com";"Early learning opportunities lay the foundation for a child’s bright future. At Busy Bees Academy, Inc., we create an environment where young scholars can grow and develop emotionally, socially, cognitively, and physically.";"http://www.busybeesacademyinc.com/";;;"http://www.busybeesacademyinc.com/our-programs";"http://www.busybeesacademyinc.com/tuition-and-fees";"x";"x";"x";"x";;;"https://irp-cdn.multiscreensite.com/a5b5c4f5/dms3rep/multi/desktop/logooo-169x146.png";"6AM - 6PM";"6AM - 6PM";"6AM - 6PM";"6AM - 6PM";"6AM - 6PM";"Closed";"Closed";
1175050;"KIDS CORNER LEARNING CENTER LLC";"608 CONCORD ROAD";"ALBEMARLE";"NC";28001;"STANLY";"(704) 982-2000";;"hollib26@gmail.com";"Kids Corner Learning Center NOW ENROLLING INFANTS-12 YRS";;"https://www.facebook.com/Kids-Corner-Learning-Center-1888129391424092/";;;;"x";"x";"x";"x";;;"https://scontent.fskp2-1.fna.fbcdn.net/v/t31.0-8/28070706_2104569919780037_8071886256111104454_o.jpg?_nc_cat=0&oh=96af6060d648ebf170a8f2c6aab7e3f4&oe=5B8F971A";"6AM - 6PM";"6AM - 6PM";"6AM - 6PM";"6AM - 6PM";"6AM - 6PM";"Closed";"Closed";
1175051;"LOVE-N-CARE II";"1302 MOUNTAIN CREEK ROAD";"ALBEMARLE";"NC";28001;"STANLY";"(704) 982-1079";"https://love-n-care.com/";"director@love-n-care.com";"Stanly County's newest 5 STAR facilities! We Love Your Children";"https://love-n-care.com/";"https://www.facebook.com/Love-N-Care-Learning-Centers-122822201072556/";;;;"x";"x";"x";"x";;;"https://scontent.fskp2-1.fna.fbcdn.net/v/t1.0-1/p200x200/23471926_1613979741956787_6972513452310839594_n.jpg?_nc_cat=0&oh=f8760c943b3bf50d8c2f04f888b9f648&oe=5BBD1E50";"6:30AM -6PM";"6:30AM -6PM";"6:30AM -6PM";"6:30AM -6PM";"6:30AM -6PM";"Closed";"Closed";
1175052;"COMMUNITY CHRISTIAN ACADEMY";"616 ATHENIA PLACE";"BESSEMER CITY";"NC";28016;"GASTON";"(704) 629-2391";"https://www.ccabessemercity.org/";"ccabessemercity@gmail.com";"School is where we first begin to mold ourselves into adult human beings. Kindergarten through 12th grade is the most impactful thirteen years of a person's life. In public schools, they ask you to hang their families' values up at the door with their coats. At Community Christian Academy, we do not think that is good enough. A Christian school reinforces the beliefs we should all be practicing at school, at work, and at home.";"https://www.ccabessemercity.org/";"https://www.facebook.com/ccabessemercity";;"https://www.ccabessemercity.org/index.php/admissions-academics/admissions";"https://www.ccabessemercity.org/images/PDFs/CCA2016Handbook.pdf";"x";"x";"x";"x";;;"https://www.ccabessemercity.org/templates/cca_re_060917/images/logo-1364807814.png";"6AM - 6PM";"6AM - 6PM";"6AM - 6PM";"6AM - 6PM";"6AM - 6PM";"Closed";"Closed";
1175049;"ENDY SCHOOL PRE-K";"27670 BETTY ROAD";"ALBEMARLE";"NC";28001;"STANLY";"(704) 961-3300";"http://www.endy.stanlycountyschools.org/";"terri.scott@stanlycountyschools.org";"he Endy School community embraces the whole child, so they can be successful and make a difference.";"http://www.endy.stanlycountyschools.org/";;;;;;;"x";"x";;;"http://www.endy.stanlycountyschools.org/_/rsrc/1505953614643/config/customLogo.gif?revision=11";"7:35AM - 2:50PM";"7:35AM - 2:50PM";"7:35AM - 2:50PM";"7:35AM - 2:50PM";"7:35AM - 2:50PM";"Closed";"Closed";
1175048;"GRIGGS ELEMENTARY PRESCHOOL";"261 POPLAR BRANCH ROAD";"POPLAR BRANCH";"NC";27965;"CURRITUCK";"(252) 453-2700";"https://www.currituck.k12.nc.us/";"dsimmons@currituck.k12.nc.us";"Griggs Elementary School is located in Poplar Branch, NC, and is home to approximately 275 students in grades Kindergarten through Fifth Grade and also house one of two Pre-K classrooms for the district.  ";"https://www.currituck.k12.nc.us/Domain/571";;;;;;;"x";"x";;;"https://www.currituck.k12.nc.us/cms/lib/NC01001303/Centricity/Domain/571/Griggs%20Logo.png";;;;;;;;
1175047;"THE SANDBOX EARLY LEARNING CENTER, LLC.";"4913 SOUTH CROATAN HIGHWAY";"NAGS HEAD";"NC";27959;"DARE";"(252) 255-0808";"http://thesandboxobx.doodlekit.com/";"thesandboxobx@gmail.com";"The Sandbox Early Learning Center, LLC is a licensed child care facility located in Nags Head, North Carolina. We serve children ages 6 weeks through 5 years old. The Sandbox Early Learning Center encourages and facilitates learning through play during the early developmental years. We offer morning and afternoon snack and hot lunch in our tuition.";"http://thesandboxobx.doodlekit.com/";"https://www.facebook.com/thesandboxobx/";;;;"x";"x";"x";"x";;;"https://scontent.fskp2-1.fna.fbcdn.net/v/t1.0-1/p200x200/26166184_1992337120984696_3725174897608419525_n.png?_nc_cat=0&oh=343070ad645c4369af58448c58ecbe82&oe=5B7709C2";"7AM - 6PM";"7AM - 6PM";"7AM - 6PM";"7AM - 6PM";"7AM - 6PM";"Closed";"Closed";
1175046;"CURRITUCK COUNTY HEAD START CENTER";"1367 CARATOKE HIGHWAY";"MOYOCK";"NC";27958;"CURRITUCK";"(252) 232-1948";"http://www.headstartprogram.us/";"ubrown@eicinc.org";;"http://www.headstartprogram.us/city/nc-moyock";;;;;;;"x";"x";;;"http://www.headstartprogram.us/images/logo.png";;;;;;;;
1175055;"THE CHILDREN'S COURTYARD #3213";"9430 MOSS PLANTATION AVENUE NW";"CONCORD";"NC";28027;"CABARRUS";"(704) 743-5180";"https://www.childrenscourtyard.com/";"customerservice@learningcaregroup.com";"Welcome to The Children’s Courtyard educational daycare here in Concord, NC! My name is Kristen and I am the center director. We offer Infant Care, Toddler programs, Preschool and other early education options, including School-Age care.";"https://www.childrenscourtyard.com/your-local-school/concord-nc-3213/";"https://www.facebook.com/ChildrensCourtyard";"https://www.childrenscourtyard.com/about-us/child-care-careers/";"https://www.childrenscourtyard.com/child-care-centers/enrollment/";;"x";"x";"x";"x";"x";"x";;"6:30AM -6:30PM";"6:30AM -6:30PM";"6:30AM -6:30PM";"6:30AM -6:30PM";"6:30AM -6:30PM";"Closed";"Closed";
1175054;"KIDDIE CONNECTION";"339 DAVIDSON HIGHWAY";"CONCORD";"NC";28027;"CABARRUS";"(704) 786-0220";;"Danielle.Renck@aol.com";;;"https://www.facebook.com/KiddieConnectionDaycare/";;;;"x";"x";"x";"x";;;"https://scontent.fskp2-1.fna.fbcdn.net/v/t1.0-1/p200x200/14291767_317170068634583_1892330182613145543_n.png?_nc_cat=0&oh=470d1ca67e00020a6624c631cdfa3136&oe=5BC19EB6";"6:30AM -6PM";"6:30AM -6PM";"6:30AM -6PM";"6:30AM -6PM";"6:30AM -6PM";"Closed";"Closed";
1175053;"FUN-N-LEARNING 2";"4227 MT PLEASANT ROAD S";"CONCORD";"NC";28025;"CABARRUS";"(704) 788-6611";"http://www.fun-n-learning.com/";"FUNLEARNINGCENTER@GMAIL.COM";"The Mount Pleasant, NC facility has been serving East Cabarrus county since 1985.  It joined the Fun-N-Learning family with a change in ownership and a renovation in 2016.  This updated facility is 4,450 square feet.";"http://www.fun-n-learning.com/";;;"http://www.fun-n-learning.com/services/";;;;;;;;;"6:30AM -6:30PM";"6:30AM -6:30PM";"6:30AM -6:30PM";"6:30AM -6:30PM";"6:30AM -6:30PM";"Closed";"Closed";
1175059;"THE CHILDREN'S COURTYARD #3212";"3650 RUCKUS ROAD";"HARRISBURG";"NC";28075;"CABARRUS";"(704) 455-2533";"https://www.childrenscourtyard.com/";"customerservice@learningcaregroup.com";"Welcome to The Children’s Courtyard educational daycare here in Concord, NC! My name is Kristen and I am the center director. We offer Infant Care, Toddler programs, Preschool and other early education options, including School-Age care.";"https://www.childrenscourtyard.com/your-local-school/harrisburg-nc-3212/";"https://www.facebook.com/ChildrensCourtyard";"https://www.childrenscourtyard.com/about-us/child-care-careers/";"https://www.childrenscourtyard.com/child-care-centers/enrollment/";;"x";"x";"x";"x";"x";"x";;;;;;;;;
1175066;"BUTTERFLY EXPLOSION CHILD DEVELOPMENT CENTER, INC.";"14 NEW ENGLAND STREET";"PEACHLAND";"NC";28133;"ANSON";"(704) 290-9685";;"mrsmcclendon2003@yahoo.com";;;;;;;;;;;;;;;;;;;;;
1175063;"SELMA'S W.O.R.L.D. AFTER SCHOOL";"781 AGAPE DRIVE";"MOORESVILLE";"NC";28115;"IREDELL";"(704) 799-4035";"http://ci.mooresville.nc.us/";"mspencer@ci.mooresville.nc.us";" The Mooresville Graded School District Before and After School Program (BASP) is designed to provide family support with a school age child care program at conveniently located, well staffed sites throughout the district.  T";"https://www.mgsd.k12.nc.us/page.cfm?p=2537";"https://www.facebook.com/pages/Mooresville-Graded-School-District/363636213648549";"http://ci.mooresville.nc.us/191/Employment-Opportunities";"https://www.mgsd.k12.nc.us/page.cfm?p=2537#";"https://www.mgsd.k12.nc.us/uploaded/documents/Departments/BASP/Documents/2018_forms/K_Student_Handbook_Revision_2018-2019.pdf";;;"x";"x";"x";"x";"http://ci.mooresville.nc.us/ImageRepository/Document?documentID=3525";"6:30AM -6PM";"6:30AM -6PM";"6:30AM -6PM";"6:30AM -6PM";"6:30AM -6PM";"Closed";"Closed";
1175075;"LITTLE TOTS #3 EARLY LEARNING CENTER";"135 ELDER LANE";"TROUTMAN";"NC";28166;"IREDELL";"(704) 508-1715";;"ronicabowers@yahoo.com";"If you are looking for a quality childcare center with educated teachers and a loving, caring environment come to, Little Tots Early Learning Center #3!";;"https://www.facebook.com/littletotsearlylearningcenter/";;;;"x";"x";"x";"x";;;"https://scontent.fskp2-1.fna.fbcdn.net/v/t1.0-9/13263949_1628886314101377_186720252948754817_n.jpg?_nc_cat=0&oh=9c7117439687b6d54bd6f28b0122512f&oe=5B8B5855";"6:30AM -6:30PM";"6:30AM -6:30PM";"6:30AM -6:30PM";"6:30AM -6:30PM";"6:30AM -6:30PM";"Closed";"Closed";
1175074;"U AND I CHILD CARE CENTER";"733 OAKLAND ROAD";"SPINDALE";"NC";28160;"RUTHERFORD";"(828) 245-0800";;"a2450800@gmail.com";;;;;;;;;;;;;;;;;;;;;
1175073;"PRECIOUS RUBIES";"800 SOUTH POST ROAD";"SHELBY";"NC";28152;"CLEVELAND";"(704)466-5780";"https://preciousrubieschildcare.com/";"preciousrubieschildcare@gmail.com";"If you have a child that is in need of childcare or if you're looking for quality care for your child, then look no further! We at Precious Rubies seek to meet the needs of you and your child. Come join us as we are in the business of changing lives and growing families!!!";"https://preciousrubieschildcare.com/";"https://www.facebook.com/preciousrubieschildcare/";;;;"x";"x";"x";"x";"x";;"https://scontent.fskp2-1.fna.fbcdn.net/v/t1.0-1/p200x200/13645114_1011213255635503_1388724338831984963_n.jpg?_nc_cat=0&oh=585bc517c187442e4f5c4416b0626612&oe=5BB8D886";"6:30AM -6:30PM";"6:30AM -6:30PM";"6:30AM -6:30PM";"6:30AM -6:30PM";"6:30AM -6:30PM";"Closed";"Closed";
1175072;"LITTLE GEMS LEARNING ACADEMY";"607 MCBRAYER HOMESTEAD ROAD";"SHELBY";"NC";28152;"CLEVELAND";"(704) 313-7735";"http://www.littlegemschildcare.net/";"georgianaelise@yahoo.com";"Little Gems is a educational base Child care and preschool Centers Little Gems nurtures a strong foundation for children as they embark on discoveries and growth within our state-of-the-art campus. ";"http://www.littlegemschildcare.net/?page_id=314";"https://www.facebook.com/LittleGemsLearningAcademy/";;;;"x";"x";"x";"x";;;"http://www.littlegemschildcare.net/wp-content/uploads/2016/08/gemslogo-1.png";"6AM - 6PM";"6AM - 6PM";"6AM - 6PM";"6AM - 6PM";"6AM - 6PM";"Closed";"Closed";
1175069;"ANOINTED CHILDREN CHILDCARE ACADEMY, LLC";"915 FALLSTON ROAD";"SHELBY";"NC";28150;"CLEVELAND";"(704) 419-2377";;"sharnelle05tate@yahoo.com";"Our mission is to provide quality care and education to every child, every family, every day";;"https://www.facebook.com/AnointedChildrenChildcareAcademy/";;;;"x";"x";"x";"x";"x";;"https://scontent.fskp2-1.fna.fbcdn.net/v/t1.0-1/c0.0.200.200/p200x200/15401006_1694735910838278_4118163221613061317_n.jpg?_nc_cat=0&oh=b1b4a763ab3b75ac7a19534af0ee6c58&oe=5BB8E9E5";;;;;;;;
1175068;"PARTNERS IN LEARNING CHILD DEV. & FRC AT NOVANT";"519 BEST STREET";"SALISBURY";"NC";28144;"ROWAN";"(704) 216-1502";"http://epartnersinlearning.org/";"norma@epartnersinlearning.org";"What you’re looking for in early care and education is right here, from our classrooms, NC Pre-K classrooms, after school care, and summer enrichment camp, to family resources, college internships and volunteer opportunities";"http://epartnersinlearning.org/";"https://www.facebook.com/PartnersInLearn/";"http://epartnersinlearning.org/careers/";"http://epartnersinlearning.org/enrollment/";;"x";"x";"x";"x";;;"http://epartnersinlearning.org/wp-content/uploads/2017/02/PIL-and-NAEYC-logo.png";"6:30AM -6PM";"6:30AM -6PM";"6:30AM -6PM";"6:30AM -6PM";"6:30AM -6PM";"Closed";"Closed";
1175067;"A MOTHER'S CHOICE CHILDCARE CENTER";"1319 STANDISH STREET";"SALISBURY";"NC";28144;"ROWAN";"(980) 330-3011";;"amcc.center@gmail.com";"Our mission is to prepare children for their future educational endeavors by making learning fun and exciting.";;"https://www.facebook.com/amotherschoice/";;;;;;;;;;;"Open 24/7";"Open 24/7";"Open 24/7";"Open 24/7";"Open 24/7";"Open 24/7";"Open 24/7";
1175080;"CENTER OF HOPE HEAD START";"534 SPRATT STREET";"CHARLOTTE";"NC";28206;"MECKLENBURG";"(704) 371-7412";"http://www.salvationarmycharlotte.org/";"tedwards@bethlemcenter.org";"The Salvation Army, an international movement, is an evangelical part of the universal Christian Church. Its message is based on the Bible. Its ministry is motivated by the love of God. Its mission is to preach the gospel of Jesus Christ and to meet human needs in His name without discrimination.";"https://www.salvationarmycarolinas.org/bgccharlotte";"https://www.facebook.com/cohclt/";"https://www.salvationarmycarolinas.org/charlotte/get-to-know-us/careers";"https://www.salvationarmycarolinas.org/assets/mediasources/charlotte/documents/March%202017.pdf";;;;"x";"x";;;"https://scontent.fskp2-1.fna.fbcdn.net/v/t1.0-1/p200x200/14650216_978675728921121_3699437133754980952_n.jpg?_nc_cat=0&oh=c8a362dbed131dd5f00789a1365b7ab7&oe=5B830BC4";;;;;;;;
1175079;"THE LEARNING COLLABORATIVE";"3241 SAM DRENAN ROAD";"CHARLOTTE";"NC";28205;"MECKLENBURG";"(704) 377-8076";"http://www.tlccharlotte.org/";"jcarter@tlccharlotte.org";"The Learning Collaborative is a comprehensive pre-school program with hands-on involvement between teachers, students, families, patrons and the community. Providing transportation, hot meals, speech language and literacy development, and intensive family support, we have a long and successful history of developing children who are ready and excited to learn upon entering kindergarten, while coaching parents to participate in their child’s education as both teacher and advocate.";"http://www.tlccharlotte.org/";"https://www.facebook.com/TLCCharlotte704/";;"http://www.tlccharlotte.org/index.php/tlc-progrms/applying-to-tlc";;;;"x";"x";;;"http://www.tlccharlotte.org/images/logo.png";"8:15AM - 2:45PM";"8:15AM - 2:45PM";"8:15AM - 2:45PM";"8:15AM - 2:45PM";"8:15AM - 2:45PM";"Closed";"Closed";
1175085;"TENDER LOVE & CARE CHILD DEVELOPMENT CENTER";"2701 ASHLEY ROAD";"CHARLOTTE";"NC";28208;"MECKLENBURG";"(980) 263-9283";;"tlccdc123@gmail.com";"Where the advanture begins";;"https://www.facebook.com/TLCCDC/";;;;;;;;;;"https://scontent.fskp2-1.fna.fbcdn.net/v/t1.0-1/p200x200/22489989_1992512071006259_1751238138239639696_n.jpg?_nc_cat=0&oh=12528bb8be6cd31b4ee6a32747a2d02e&oe=5B8CF0B4";"6:30AM -6PM";"6:30AM -6PM";"6:30AM -6PM";"6:30AM -6PM";"6:30AM -6PM";"Closed";"Closed";
1175083;"KIDZ ROCK PREPARATORY ACADEMY WEST";"8824-E Bellhaven Blvd";"CHARLOTTE";"NC";28208;"MECKLENBURG";"(704)200-9021";"http://www.kidzrockcdc.com/";"kidzrockstaff@hotmail.com";"Kidz Rock is a place where children, ages 5 -12, will engage in lots of fun, structure and love, They will develop a sense of self worth, confidence, support, friendship and receive the proper guidance on their journey to success. We take pride in our programs and strive to provide quality care where parents will have the security in knowing their child is in a safe and nurturing environment.";"http://www.kidzrockcdc.com/";;"http://www.kidzrockcdc.com/employment-opportunities/";"http://www.kidzrockcdc.com/programs/";"http://www.kidzrockcdc.com/pay-tuition-online/";;;;;"x";"x";"http://www.kidzrockcdc.com/s/cc_images/cache_851480404.png?t=1369344919";"7AM - 6:30PM";"7AM - 6:30PM";"7AM - 6:30PM";"7AM - 6:30PM";"7AM - 6:30PM";"Closed";"Closed";
1175082;"CYRUS CHILDHOOD ACADEMY (CCA)";"2200 WEST BOULEVARD";"CHARLOTTE";"NC";28208;"MECKLENBURG";"(704) 910-6047";"http://www.cca3academy.com/";" cca3academy@gmail.com";"Our mission at Cyrus Childhood Daycare is simple: to provide your children with a healthy environment promoting foundations in social, cognitive and creative abilities.";"http://www.cca3academy.com/";"https://www.facebook.com/ccacare/";;;;"x";"x";"x";"x";;;"http://static1.squarespace.com/static/57cdef3e46c3c401375c6077/t/59a44b0fbebafb94445f2e03/1503533595502/?format=1500w";"6AM - 11PM";"6AM - 11PM";"6AM - 11PM";"6AM - 11PM";"6AM - 11PM";"Closed";"Closed";
1175090;"NANA'S PLACE UNIVERSITY, LLC";"1825 BACK CREEK DRIVE";"CHARLOTTE";"NC";28213;"MECKLENBURG";"(704)566-0195";"https://www.nanasplaceinc.com/";"karensmith-jones@nanasplaceinc.com ";"At Nana’s Place, children have the opportunity to gain practice in cognition, language, fine motor, large motor, social emotional, and self help skills through Developmentally Appropriate Practice and techniques. These skills will help your child build his/her self-esteem and prepare him/her for future skills. Each child is treated with respect and love and is offered a positive learning atmosphere that includes a spiritual environment.";"https://www.nanasplaceinc.com/";"https://www.facebook.com/NanasPlaceLearningCenter/";;;"https://www.nanasplaceinc.com/parent-resources";"x";"x";"x";"x";;;"https://static.wixstatic.com/media/e5d691_bc9e6a25b4a749218c1d45ac59a53290.jpg/v1/fill/w_950,h_283,al_c,q_80,usm_0.66_1.00_0.01/e5d691_bc9e6a25b4a749218c1d45ac59a53290.webp";"6:30AM -6PM";"6:30AM -6PM";"6:30AM -6PM";"6:30AM -6PM";"6:30AM -6PM";"Closed";"Closed";
1175089;"CREATIVE KIDS LEARNING ACADEMY LLC";"932 WEST SUGAR CREEK ROAD";"CHARLOTTE";"NC";28213;"MECKLENBURG";"(704) 598-8070";;"creativk@bellsouth.net";;;;;;;;;;;;;;;;;;;;;
1175097;"MS. CHOP #2 ACADEMY";"5950 THE PLAZA";"CHARLOTTE";"NC";28215;"MECKLENBURG";"(704) 819-9100";;"ms_chopsdaycare@yahoo.com";"Ms. Chop's Childcare has been a top rated daycare in Charlotte for years.Now after popular demand Brenetta Taylor has opened a second location on The Plaza";;"https://www.facebook.com/MsChops2/";;;;;;;;;;"https://scontent.fskp2-1.fna.fbcdn.net/v/t1.0-1/c27.0.200.200/p200x200/16998112_1252322901483940_694702214755329580_n.jpg?_nc_cat=0&oh=d9d3a7dc2a4cf5412681198a10db10a6&oe=5BC263DA";;;;;;;;
1175103;"CREATIVE LEARNING CHILD DEVELOPMENT CENTER";"3316 NEVIN ROAD";"CHARLOTTE";"NC";28269;"MECKLENBURG";"(980) 938-5188";;"creativelearningcdc@gmail.com";;;;;;;;;;;;;;;;;;;;;
1175100;"SUNSHINE KIDS LEARNING ACADEMY, INC.";"532 INGLE STREET";"CHARLOTTE";"NC";28216;"MECKLENBURG";"(704) 398-1365";;"netta115@aol.com";;;;;;;;;;;;;;;;;;;;;
1175106;"CENTRAL WEEKDAY PRESCHOOL";"5301 SARDIS ROAD";"CHARLOTTE";"NC";28270;"MECKLENBURG";"(704) 295-1470";"https://www.centralnc.org/";"carlas@centralnc.org";"Central Weekday Preschool promotes an atmosphere in which a child will be excited to learn, explore and grow. Our classrooms have small teacher-to-student ratios, and are taught with age-appropriate curriculum, using a variety of methods, manipulatives and centers. All students from ages 2-5 participate in various enrichment programs, such as Traveling Tumblebugs, art, chapel and music. Parents are kept up-to-date with a monthly class curriculum calendar filled with special events as well as academic topics covered in class.";"https://www.centralnc.org/locations/charlotte-campus/weekday-preschool/";"https://www.facebook.com/centralweekdaypreschool/";;;;;;"x";"x";;;"https://scontent.fskp2-1.fna.fbcdn.net/v/t1.0-1/p200x200/10003390_504375426341330_2112473066_n.jpg?_nc_cat=0&oh=72805d56a2244e569711989f89815252&oe=5B799B5A";;;;;;;;
1175105;"PROSPERITY GUIDEPOST MONTESSORI";"4755 PROSPERITY CHURCH ROAD";"CHARLOTTE";"NC";28269;"MECKLENBURG";"(704) 503-6000";"https://guidepostmontessori.com/";"prosperity@guidepostmontessori.com";"Guidepost Montessori Prosperity is a welcoming, diverse community in a thriving corner of Charlotte, North Carolina. Our campus is located on expansive grounds, with plenty of room for children to spread out and explore. Our families from all around the globe are representative of the vibrant neighborhood surrounding our school. They are united by their belief and investment in the incredible benefits of a Montessori education, along with their passion for sharing ideas and connecting with like-minded parents.";"https://guidepostmontessori.com/prosperity/";"https://www.facebook.com/pgpadmissions/";"https://guidepostmontessori.com/prosperity/careers";"https://guidepostmontessori.com/prosperity/admissions";;"x";"x";"x";"x";;;"https://scontent.fskp2-1.fna.fbcdn.net/v/t1.0-1/p200x200/15178302_1045804718865139_7712376469989590336_n.png?_nc_cat=0&oh=c82454c7622c92975716b2860a559f3c&oe=5B851A1D";"7AM - 6PM";"7AM - 6PM";"7AM - 6PM";"7AM - 6PM";"7AM - 6PM";"Closed";"Closed";
1175115;"CHILDCARE NETWORK #109B";"5795 PEPPERBUSH DRIVE";"FAYETTEVILLE";"NC";28304;"CUMBERLAND";"(910) 424-0576";"https://www.childcarenetwork.com/";"info@childcarenetwork.com";"Our 5-Star school offers a unique program to prepare your child for life after preschool through the Kindergarten Prep Academy , our Young Achievers Club, and Adventure Summer Camp. Our Kindergarten Prep Academy prepares your child for kindergarten through a full day program with easy to understand family connection components. I have a school ager that attends Childcare Network";"https://www.childcarenetwork.com/northcarolina-fayetteville-nc-109";"https://www.facebook.com/ChildcareNetworkSchools";"https://www.childcarenetworkjobs.com/";;"https://50cb16144e927f9e6f6f-9f4946773be90d0bc170827895a58c68.ssl.cf1.rackcdn.com/App_Obout/HTMLEditor/DocumentsGallery/users_documents/Preschool%20Parent%20Guide.pdf";"x";"x";"x";"x";;;"https://scontent.fskp2-1.fna.fbcdn.net/v/t1.0-1/13716030_1364393870244681_1349631824670473422_n.jpg?_nc_cat=0&oh=7399224089c9eb625f74238d283700d9&oe=5BBDC9B9";"5AM - 6:30PM";"5AM - 6:30PM";"5AM - 6:30PM";"5AM - 6:30PM";"5AM - 6:30PM";"Closed";"Closed";
1175110;"IT TAKES A VILLAGE CHILDCARE & EDUCATIONAL CENTER";"1019 PAMALEE DRIVE";"FAYETTEVILLE";"NC";28303;"CUMBERLAND";"(910) 867-2224";"http://villagechildcarecenter.homestead.com/";"info@chapmansmangementco.com";"It Takes a Village Child Care & Educational Center takes special care to understand the unique needs of each of child. Our staff makes every effort to ensure that every parent is 100% satisfied.";"http://villagechildcarecenter.homestead.com/";"https://www.facebook.com/villagechildcarenc/";"http://villagechildcarecenter.homestead.com/Jobs.html";;;"x";"x";"x";"x";;;"https://scontent.fskp2-1.fna.fbcdn.net/v/t1.0-1/c45.0.200.200/p200x200/14729271_210146479419039_1469345637271911072_n.jpg?_nc_cat=0&oh=b004281c9e34d99d4f563e1876875856&oe=5BB9288A";"Open 24/7";"Open 24/7";"Open 24/7";"Open 24/7";"Open 24/7";"5:30AM -11PM";"Closed";
1175111;"MARY JANE DAY CARE";"506 BOBWHITE CT";"FAYETTEVILLE";"NC";28303;"CUMBERLAND";"(910) 867-5649";;"nakiamccarthy37@gmail.com";"Mary Jane Creative School is committed to improve the quality of life for children and families by serving as a support system. It is our goal to provide n environment in which a child can grow physically, socially, mentally and emotionally to have a healthy beginning.";;"https://www.facebook.com/MaryJaneCreativeSchool/";;;;;;;;;;;;;;;;;;
1175112;"NEXT STEP DEVELOPMENTAL LEARNING CHILD CARE CENTER";"566 N REILLY ROAD";"FAYETTEVILLE";"NC";28303;"CUMBERLAND";"(910) 860-4556";;"nextstepcenter@nc.rr.com";;;;;;;;;;;;;;;;;;;;;
1175119;"ANCHOR ACADEMY";"103 CHESTNUT STREET";"BLADENBORO";"NC";28320;"BLADEN";"(910) 863-3582";"https://newlightchurch.info/";" contactus@newlightchurch.info";"Anchor Academy is a Day-School for 3 & 4 Year Old Kids";"https://newlightchurch.info/anchor-academy";"https://www.facebook.com/pg/nlcanchoracademy/about/";;"https://s3.amazonaws.com/content.sitezoogle.com/u/38537/57ca879683bfe06a8e61ce3791f1c6ba003876c1/original/doc022711.pdf?response-content-type=application/pdf&scheme=&X-Amz-Expires=7200&X-Amz-Date=20180529T182420Z&X-Amz-Algorithm=AWS4-HMAC-SHA256&X-Amz-Credential=AKIAJUKM2ICUMTYS6ISA/20180529/us-east-1/s3/aws4_request&X-Amz-SignedHeaders=host&X-Amz-Signature=6154bae68d6d751670a5118342ac91a94581a7f0bb2e98f5c57b473bd95bf6a0";;;;"x";"x";;;"https://scontent.fskp2-1.fna.fbcdn.net/v/t1.0-1/p200x200/10659455_378786165580052_3387588558186155842_n.jpg?_nc_cat=0&oh=cfc6380d6de0cdb63703873dced2ad14&oe=5B878B4F";;;;;;;;
1175118;"SUMMERS CHILD CARE CENTER";"1182 CURRY FORD DR";"FAYETTEVILLE";"NC";28314;"CUMBERLAND";"(910) 867-1349";;"hym8nce1@yahoo.com";;;;;;;;;;;;;;;;;;;;;
1175117;"EVERYTHING CHILDCARE";"6869 CLIFFDALE RD";"FAYETTEVILLE";"NC";28314;"CUMBERLAND";"(910) 229-5021";;"everythingchildcarenc@gmail.com";"Everything Childcare Care is a parents One Stop Shop. We assist parents with all their childcare needs.";;"https://www.facebook.com/everythingchildcarellc/";;;;;;"x";"x";;;"https://scontent.fskp2-1.fna.fbcdn.net/v/t1.0-9/13626973_1127178254017234_3236603464406825393_n.jpg?_nc_cat=0&oh=ce3ba96e763c1658af2fc75eaec41327&oe=5B878EEB";"6AM - 7PM";"6AM - 8PM";"6AM - 8PM";"6AM - 8PM";"6AM - 8PM";"8AM - 6PM";"Closed";
1175123;"CLASSY KIDZ CHILD CARE CENTER INC.";"405 LIBSON ST";"CLINTON";"NC";28329;"SAMPSON";"(910) 299-0744";"http://www.classykidz.net/";"torwannac@msn.com";"At Classy Kidz Child Care Center, Inc. we value the importance of education. All teaching staff have Early Childhood degrees or they are currently working towards completing their degrees. The more education the teachers have, the more your child(ren) will benefit. All of our staff have several years of working with children and are dedicated to their safety and well-being. ";"http://www.classykidz.net/";"https://www.facebook.com/Classy-Kidz-Child-Care-Center-Inc-1442583385804176/";"http://www.classykidz.net/employment.htm";"http://www.classykidz.net/forms.htm";"http://www.classykidz.net/forms.htm";"x";"x";"x";"x";;;"http://www.classykidz.net/images/images/finalhome_revised4_02.jpg";;;;;;;;
1175124;"ON YOUR MARKS INC.";"3105 PLAINVIEW HWY";"DUNN";"NC";28334;"HARNETT";"(910) 892-4040";;"mjayeslady@gmail.com";;;;;;;;;;;;;;;;;;;;;
1175130;"OPEN ARMS CHRISTIAN DAYCARE";"503 NORTH WILLOW STREET";"LUMBERTON";"NC";28358;"ROBESON";"(910) 618-6423";;"johnaevers1@yahoo.com";"We are a Christian daycare center for ages 0 to 10 years old.";;"https://www.facebook.com/Open-Arms-Christian-Daycare-105718136515588/";;;;"x";"x";"x";"x";;;"https://scontent.fskp2-1.fna.fbcdn.net/v/t1.0-1/p200x200/13260224_105791086508293_2665511694552373290_n.jpg?_nc_cat=0&oh=d7c454dfb054356c269a1e729a4215b1&oe=5B7E8A5A";"7AM - 6PM";"7AM - 6PM";"7AM - 6PM";"7AM - 6PM";"7AM - 6PM";"Closed";"Closed";
1175128;"CHRIST THE CORNERSTONE PRESCHOOL";"10401 MCCOLL ROAD";"LAURINBURG";"NC";28352;"SCOTLAND";"(910) 277-0077";"http://www.christthecornerstone.org/";"ebaines.eb@gmail.com";"The mission of Christ the Cornerstone Academy at Stewartsville Baptist Church is to assist families in developing committed disciples of Jesus Christ through spiritual growth and academic excellence.";"http://www.christthecornerstone.org/";"https://www.facebook.com/ctcanews/";"http://www.christthecornerstone.org/applications.html";"http://www.christthecornerstone.org/applications.html";"http://www.christthecornerstone.org/applications.html";;;"x";"x";;;"https://scontent.fskp2-1.fna.fbcdn.net/v/t1.0-1/c33.0.200.200/p200x200/1912228_640379936032070_346706701_n.jpg?_nc_cat=0&oh=dee7e0a445602cc4a20dfd78e7c34581&oe=5B82DB06";"7:30AM - 3:30PM";"7:30AM - 3:30PM";"7:30AM - 3:30PM";"7:30AM - 3:30PM";"7:30AM - 3:30PM";"Closed";"Closed";
1175127;"FLAMING SWORD DAYCARE - EARLY LEARNING CENTER";"3230 LEGION RD";"HOPE MILLS";"NC";28348;"CUMBERLAND";"(910) 764-3500";"http://www.flamingswordcampus.org/";"jsifford15@gmail.com";"Flaming Sword Campus admits children of any race, color, national origin, or ethnicity to all of the rights, privileges, programs and activities made available to the daycare/preschool.";"http://www.flamingswordcampus.org/daycare";"https://www.facebook.com/FlamingSwordCampus/";"http://www.flamingswordcampus.org/join-our-team";"http://www.flamingswordcampus.org/forms";"http://www.flamingswordcampus.org/forms";"x";"x";"x";"x";"x";"x";"https://scontent.fskp2-1.fna.fbcdn.net/v/t1.0-1/c21.21.259.259/s200x200/18594_495700447155252_1625373161_n.jpg?_nc_cat=0&oh=f88d07042a33cdc9d26bd30bc41fe6b4&oe=5B8B56A1";"6AM - 6PM";"6AM - 6PM";"6AM - 6PM";"6AM - 6PM";"6AM - 6PM";"Closed";"Closed";
1175126;"BREEZEWOOD BEFORE & AFTERSCHOOL";"3337 LEGION RD";"HOPE MILLS";"NC";28348;"CUMBERLAND";"(910) 425-3096";"http://www.breezewoodchurch.org/";"mariesuggs1277@gmail.com";"We would love to care for your child!  For more than 40 years, Breezewood has offered quality Christian childcare in many forms. We are now providing before and after school care for families with children ages 5 to 12! At Breezewood, children will be in a Christ-centered environment with loving teachers, devotions, and chapel once a week.";"http://www.breezewoodchurch.org/beforeandafterschoolcare";;;;;;;;"x";"x";;"https://static.wixstatic.com/media/dba473_47ca23ebca6143a587443df1c9b5eaa2.png/v1/fill/w_491,h_185,al_c,usm_0.66_1.00_0.01/dba473_47ca23ebca6143a587443df1c9b5eaa2.png";"6AM - 6PM";"6AM - 6PM";"6AM - 6PM";"6AM - 6PM";"6AM - 6PM";"Closed";"Closed";
1175133;"YOUNG @ HEART CHRISTIAN CHILDCARE";"6627 HIGHWAY 72 WEST";"PEMBROKE";"NC";28372;"ROBESON";"(910) 775-9443";;"youngatheartcc@gmail.com";"A local owned and operated Christian Childcare. We teach our children about the love of Jesus.";;"https://www.facebook.com/youngatheartcc/";;;;"x";"x";"x";"x";;;"https://scontent.fskp2-1.fna.fbcdn.net/v/t31.0-8/13735175_594209500752598_5420369371485397964_o.jpg?_nc_cat=0&oh=14f05167cc653e6ed80d7fc52502c15b&oe=5B8D88F1";"6:30AM -5:15PM";"6:30AM -5:15PM";"6:30AM -5:15PM";"6:30AM -5:15PM";"6:30AM -5:15PM";"Closed";"Closed";
1175131;"KIDS CAMPUS";"497 Produce Market Rd";"Laurinburg";"NC";28364;"ROBESON";"(910) 844-5000";;"lecontractorsl@roadrunner.com";"Kids' Campus mission is to provide a secure, nurturing, loving and stimulating environment that encourages and promotes developmental growth in all areas of learning as well as help children to develop to their fullest potential. We are committed to providing the highest quality childcare, early education, and work/life solutions in the nation.";;"https://www.facebook.com/Kids-Campus-393369457429256/";"https://m.facebook.com/profile.php?id=393369457429256&ref=content_filter";;;;;;;;;;"Open 24/7";"Open 24/7";"Open 24/7";"Open 24/7";"Open 24/7";"Open 24/7";"Open 24/7";
1175139;"GREGORY AFTER SCHOOL PROGRAM";"1106 ANN STREET";"WILMINGTON";"NC";28401;"NEW HANOVER";"(910) 251-6185";"http://www.nhcs.net/gregory/";"angela.deaver@nhcs.net";"The After School Program looks forward to the 2017-2018 school year with our Dynamic Dolphins! This is the After School Program's second year of operating at the International School at Gregory. We look forward to welcoming new students and catching up with continuing students as the program grows in capacity. The tabs in the upper-right corner of the screen will help you navigate throughout our website. Brief announcements will be shared below as the year begins and continues, from payment notifications, to any change in location we may experience, to celebrations of children's successes.";"https://sites.google.com/a/nhcs.net/gregoryasp/";"https://www.facebook.com/spanishimmersionmagnet/";;"https://sites.google.com/a/nhcs.net/gregoryasp/application-documents";"https://drive.google.com/file/d/0B_hfFQ_aIU9xRDVBcEJ2U09oMm8/view";;;"x";"x";"x";;"https://scontent.fskp2-1.fna.fbcdn.net/v/t1.0-1/c7.0.200.200/p200x200/13716167_302552813422452_2418309916748018320_n.jpg?_nc_cat=0&oh=ee698c5b4aca6bdb8d5b805371ac19a0&oe=5B78C5D4";"3:30AM - 6PM";"3:30AM - 6PM";"3:30AM - 6PM";"3:30AM - 6PM";"3:30AM - 6PM";"Closed";"Closed";
1175138;"AUNT SANDI'S LEARNING CENTER";"621 SW SERVICE ROAD";"SOUTHERN PINES";"NC";28387;"MOORE";"(910) 695-8600";;"auntsandislearningcenter@Gmail.com";;;"https://www.facebook.com/Aunt-Sandis-Learning-Center-1535470056670170/";;;;;;;;;;;;;;;;;;
1175137;"THE POINT CHRISTIAN ACADEMY";"102 EAST COLLEGE STREET";"SALEMBURG";"NC";28385;"SAMPSON";"(910) 525-3603";"https://www.thepointchristianacademy.com/";"thepointchristianacademy@gmail.com";"At our school we focus on academics as well as God. We want students to know that Reading, Math, Science and Social Studies are important but we also want them to understand that true learning can not take place if God is not the focus of our studies.";"https://www.thepointchristianacademy.com/";"https://www.facebook.com/thepointchristianacademy";;"https://www.thepointchristianacademy.com/pre-k-through-5th";"https://www.thepointchristianacademy.com/scholarship";;;"x";"x";"x";"x";"https://static.wixstatic.com/media/8843bb_fc335abcd86b404fb2275385f937264c.png/v1/fill/w_292,h_110,al_c,usm_0.66_1.00_0.01/8843bb_fc335abcd86b404fb2275385f937264c.png";;;;;;;;
1175145;"KIDDIE ACADEMY OF WILMINGTON";"7633 MARKET STREET";"WILMINGTON";"NC";28411;"NEW HANOVER";"(910) 742-4344";"https://kiddieacademy.com/";"wilmington@kiddieacademy.net";"We provide educational daycare in the greater Wilmington, NC area that focuses on days filled with learning and fun, the key ingredients of our Life Essentials® educational philosophy. The smiles you’ll see on our children’s faces as they learn, share family style meals with other children, and grow socially will delight you. The words from our children’s parents about our program, safety and facility will impress you.";"https://kiddieacademy.com/academies/wilmington/";"https://www.facebook.com/KiddieAcademyofWilmington/";"https://kiddieacademy.com/academies/wilmington/join/";;"https://kiddieacademy.com/academies/wilmington/resources/";"x";"x";"x";"x";"x";"x";"https://kiddieacademy.com/academies/wp-content/themes/kiddieacademy/assets/svg/kiddieacademy-logo.svg";"6:30AM -6PM";"6:30AM -6PM";"6:30AM -6PM";"6:30AM -6PM";"6:30AM -6PM";"Closed";"Closed";
1175143;"YOUNG MEMORIES LEARNING CENTER LLC";"118 OLD DAIRY ROAD";"WILMINGTON";"NC";28405;"NEW HANOVER";"(910) 313-2590";;"youngmemorieslearningcenter@yahoo.com";;;;;;;;;;;;;;;;;;;;;
1175142;"SMART CREATIONS, INC.";"3101 PRINCESS PLACE DRIVE";"WILMINGTON";"NC";28405;"NEW HANOVER";"(910) 769-0528";;"smartcreats@aol.com";;;;;;;;;;;;;;;;;;;;;
1175141;"RISING STARS OF WILMINGTON";"6743 AMSTERDAM WAY";"WILMINGTON";"NC";28405;"NEW HANOVER";"(910) 452-2231";"https://risingstarsofwilm.com/";"risingstarsofwilmington@gmail.com";"The Mission of RSOW is to provide a safe and developmentally appropriate environment for every child. Our focus is to provide a stimulating and educational experience that promotes each child's Social/Emotional, Physical, and Cognitive Development. Our goal is to provide Quality Child Care and support children's desires to be life-long learners!";"https://risingstarsofwilm.com/";"https://www.facebook.com/RisingStarsOfWilmington/";;;;"x";"x";"x";"x";"x";"x";"https://scontent.fskp2-1.fna.fbcdn.net/v/t1.0-1/p200x200/17264189_443352962670158_6397878938231250964_n.jpg?_nc_cat=0&oh=abb0e100d8416fd1ccc4a939e80224a4&oe=5B7753DE";"6:30AM -6PM";"6:30AM -6PM";"6:30AM -6PM";"6:30AM -6PM";"6:30AM -6PM";"Closed";"Closed";
1175140;"YWCA @ WESLEY YOUTH ENRICHMENT PROGRAM";"1401 S COLLEGE ROAD";"WILMINGTON";"NC";28403;"NEW HANOVER";"(910) 777-3257";"http://www.ywca-lowercapefear.org";"wesley@ywca-lowercapefear.org";"The YWCA After School Program provides childcare for individuals ages 5 to 12 from 3:00pm to 6:00pm. The YWCA provides safe transportation from most area schools. Participants receive homework assistance from certified teachers, a nutritious snack and participate in enrichment activities such as swimming, musical & dramatic play, Girls Circle and field trips. ";"http://www.ywca-lowercapefear.org/site/apps/nlnet/content2.aspx?c=duLQKaORLkKaE&b=8090581&ct=13973937";"https://www.facebook.com/ywcalowercapefear";;;;;;;"x";"x";"x";"http://www.ywca-lowercapefear.org/atf/cf/%7B9459454A-8450-426E-9DE3-3765CCF6D065%7D/logo_YWCA_int.png";;;;;;;;
1175146;"COLUMBUS CHRISTIAN ACADEMY PRESCHOOL";"623 WARRIOR TRAIL";"WHITEVILLE";"NC";28472;"COLUMBUS";"(910) 642-6196";"http://www.columbuschristianacademy.com/";"office@columbuschristianacademy.us";"Columbus Christian Academy is an educational institution which strives to assist parents and Bible believing churches in the task of training young people in reaching their fullest potential, spiritually, academically, socially and physically. Columbus Christian Academy promotes a Biblically based philosophy that guides young people in developing a personal, loving, and trusting relationship with Jesus Christ which will impact an ever changing world";"http://www.columbuschristianacademy.com/";"https://www.facebook.com/ccapacers/";"http://www.columbuschristianacademy.com/employment.html";"http://www.columbuschristianacademy.com/applications.html";"http://www.columbuschristianacademy.com/tuition-and-fees.html";;;"x";"x";;;"http://www.columbuschristianacademy.com/uploads/4/1/0/8/41085477/published/1471915192.png?1517242667";"8AM - 4PM";"8AM - 4PM";"8AM - 4PM";"8AM - 4PM";"8AM - 4PM";"Closed";"Closed";
1175147;"LITTLE FOOTPRINTS CHRISTIAN CHILDCARE";"2023 hwy 1155 south ";"KINSTON";"NC";28504;"LENOIR";"(252) 208-7711";;"kadeshadunn@yahoo.com";"Quality Childcare Center in Kinston NC";;"https://www.facebook.com/Little-Footprints-Christian-Childcare-1518497395090079/";;;;;;;;;;"https://scontent.fskp2-1.fna.fbcdn.net/v/t1.0-9/14441082_1753106691629147_4683418376517393462_n.jpg?_nc_cat=0&oh=02a29a8e182ec50f7b01c1438e419b7f&oe=5B89CC76";"5AM - 2AM";"5AM - 2AM";"5AM - 2AM";"5AM - 2AM";"5AM - 2AM";"Closed";"Closed";
1175148;"AYDEN HEAD START CENTER #2";"4257 EAST AVENUE";"AYDEN";"NC";28513;"PITT";"(252) 746-1075";"https://headstartprograms.org/center-186323.html";"zbest@eicinc.org";;;;;;;;;;;;;;;;;;;;;
1175149;"KIDS & COMPANY CHILDCARE CENTER OF JUANITA AVE INC";"4273 JUANITA AVENUE";"AYDEN";"NC";28513;"PITT";"(252) 746-3536";"http://www.kidconc.com";"kidscompanyjuanita@gmail.com";"Our Juanita Ave school in Ayden offers PT preschool and After School care.   After School pickup is available at most area schools.  ​We have experienced and credentialed staff.  This location uses the Creative Curriculum. Our dietician prepares hot, nutritious meals and snacks, which are included in the regular tuition rate.";"http://www.kidconc.com/our-locations";"https://www.facebook.com/kidcocollege/";;;"http://www.kidconc.com/parents-page";;;"x";"x";"x";;"http://static.sites.yp.com/var/m_7/74/744/11177116/1100584-logo.jpg";"6:30AM -6PM";"6:30AM -6PM";"6:30AM -6PM";"6:30AM -6PM";"6:30AM -6PM";"Closed";"Closed";
1175151;"EMBRACING DIFFERENCES CHILD CARE AND AFTER SCHOOL";"600 D FONTANA BLVD";"HAVELOCK";"NC";28532;"CRAVEN";"(252) 657-8931";;"director@embracingkids.com";"Full time care is $128.50 weekly, Part-time is based on number of hours needed. We also provide afterschool care at the cost of $60.00 per week. ";;"https://www.facebook.com/embracingdifferenceschildcare/";;;;;"x";"x";"x";"x";;"https://scontent.fskp2-1.fna.fbcdn.net/v/t1.0-1/c50.0.200.200/p200x200/10151780_421387068065219_639126378608227241_n.jpg?_nc_cat=0&oh=cdf39b1a087ff2e8f5d3ea1f77891d6a&oe=5BBD264A";"6AM - 7PM";"6AM - 7PM";"6AM - 7PM";"6AM - 7PM";"6AM - 7PM";"6AM - 7PM";"Closed";
1175152;"BRIGHTER BEGINNINGS CDC";"19 DORIS AVE E";"JACKSONVILLE";"NC";28540;"ONSLOW";"(910) 378-7530";"https://www.brighterbeginningscdc.com/";"brighterbeginningscdc14@gmail.com";"Brighter Beginnings Child Development Center in Jacksonville, NC provides your children with a safe, friendly and educational environment. Our mission is to provide a brighter beginning to your child's early education in the classroom and outdoors.";"https://www.brighterbeginningscdc.com/";"https://www.facebook.com/Brighter-Beginnings-Child-Development-Center-771650836315391/?ref=page_internal";;"https://www.brighterbeginningscdc.com/forms.html";;;;;;;;"https://cdn.website.thryv.com/9733e8f0fef6466aab3dd173fa4c7c8f/DESKTOP/png/790.png";"6AM - 6PM";"6AM - 6PM";"6AM - 6PM";"6AM - 6PM";"6AM - 6PM";"Closed";"Closed";
1175154;"MILESTONES PRESCHOOL & ENRICHMENT CENTER";"3605 HENDERSON DRIVE";"JACKSONVILLE";"NC";28546;"ONSLOW";"(910) 455-6928";"https://educateonslow.com/";"jamie@educateonslow.com";"Milestones Preschool and Enrichment center is focused on delivering quality instruction designed to ensure students are prepared for Kindergarten.";"https://educateonslow.com/";"https://www.facebook.com/milestonesjacksonville";;;"https://drive.google.com/file/d/0Bz76NBpzeg9XUDBaUW5WNHJTLWs/view";;;"x";"x";;;"https://img1.wsimg.com/isteam/ip/2d1c1c6f-ac4f-4b35-9643-4525e16bf18e/logo/ad3296c1-c54e-4a58-b2bf-92318b5c3d39.png/:/rs=h:100";"6:30AM -6PM";"6:30AM -6PM";"6:30AM -6PM";"6:30AM -6PM";"6:30AM -6PM";"Closed";"Closed";
1175156;"A STEP ABOVE LEARNING ACADEMY";"603 GASTON BLVD";"NEW BERN";"NC";28560;"CRAVEN";"(252) 634-1734";;"marthaevans304@gmail.com";;;;;;;;;;;;;;;;;;;;;
1175161;"SUNNY SIDE DAYCARE";"8100 VALLEY BLVD";"BLOWING ROCK";"NC";28605;"WATAUGA";"(828) 773-1784";;"amber.fairbetter09@aol.com";"Our mission is to provide an early care and education program of the highest quality. We strive to create a flexible program that respects individual differences in families and children.";;"https://www.facebook.com/Sunny-Side-Daycare-147134282069766/";;;;"x";"x";"x";"x";;;;"7AM - 5:30PM";"7AM - 5:30PM";"7AM - 5:30PM";"7AM - 5:30PM";"7AM - 5:30PM";"Closed";"Closed";
1175162;"Sipe's Orchard Home";"4431 COUNTY HOME RD";"CONOVER";"NC";28613;"CATAWBA";"(828) 256-5056";"https://www.sipesorchardhome.org/";"SIPES@SIPESORCHARDHOME.ORG";"Since the 1940's, Sipe's Orchard Home has been a safe & caring place for children. Today, the Orchard serves children through a variety of programs";"https://www.sipesorchardhome.org/";"https://www.facebook.com/SipesOrchardHomePage/";"https://www.sipesorchardhome.org/employment-application/";;;;;"x";"x";"x";"x";"https://www.sipesorchardhome.org/wp-content/themes/sipesorchard/pics/sipes_icon.png";;;;;;;;
1175163;"SHUFORD PRE-SCHOOL";"810 HUNSUCKER DRIVE";"CONOVER";"NC";28613;"CATAWBA";"(828) 464-1973";"https://ses.newton-conover.org/";"patrick.nelson@n-ccs.org";"At Shuford Elementary School, we are here to reach and teach all students. We are inspiring young minds to be prepared and successful in the 21st Century.";"https://ses.newton-conover.org/";"https://www.facebook.com/pages/Shuford-Elementary-School/106039919440794";;;"https://1.cdn.edl.io/gnxp4oIFyinlczizUUPNPo7jVooFvcVR9RnuZuwoThhs29ga.pdf";;;"x";"x";;;;"8AM - 3:30PM";"8AM - 3:30PM";"8AM - 3:30PM";"8AM - 3:30PM";"8AM - 3:30PM";"Closed";"Closed";
1175165;"DAVENPORT ELEMENTARY PRE-K";"901 COLLEGE AVE SW";"LENOIR";"NC";28645;"CALDWELL";"(828) 754-6941";"https://www.caldwellschools.com/ccshome";"kelsmith@caldwellschools.com";"Located in the scenic foothills of the Appalachian Mountains in western North Carolina, our school serves students in grades Pre-K-5. Our mission is to provide a total learning environment to enable students to achieve academic and life skills. We are an A+ School ; one of NC's original 25 schools selected to receive a grant from the Keanan Institute to integrate Arts instruction with the curriculum, based on Howard Gardner's Theory of Multiple Intelligences";"https://www.caldwellschools.com/des";;;;"https://www.caldwellschools.com/domain/3293";;;"x";"x";;;"https://www.caldwellschools.com/cms/lib/NC01811136/Centricity/Template/GlobalAssets/images///Logos/DavenportE.png";;;;;;;;
1175166;"ENOLA GROUP EARLY LEARNING CENTER";"609 HARPER AVENUE SW";"LENOIR";"NC";28645;"CALDWELL";"(828) 757-8632";"http://enolagroup.org/";"kristen.poarch@enolagroup.org";"Our Early Head Start Child Development Classrooms are funded by The Office of Head Start to serve infants and toddlers in Alexander, Burke, and Caldwell counties.  Early childhood educators promote the healthy growth and development of young children in partership with families";"http://enolagroup.org/child-development-centers";"https://www.facebook.com/caldwellehs";"http://enolagroup.org/forms-and-applications";"http://enolagroup.org/forms-and-applications";;"x";"x";"x";"x";;;"http://enolagroup.org/assets/images/header.jpg";;;;;;;;
1175167;"FOREVER YOUNG CHILD DEVELOPMENT CENTER";"405 VANCE STREET";"LENOIR";"NC";28645;"CALDWELL";"(828) 726-3755";;;"This is a new child care center located in Lenoir, North Carolina. We officially opened on August 29th 2016. Please call us if you have any questions!";;"https://www.facebook.com/foreveryoungcdc/";;;;"x";"x";"x";"x";;;"https://scontent.fskp2-1.fna.fbcdn.net/v/t1.0-1/p200x200/13438809_1223046827708083_7342811911967172470_n.jpg?_nc_cat=0&oh=483a35910c56bbbcd3a1d5ad8d62787f&oe=5B88221A";"5:30AM - 5:30PM";"5:30AM - 5:30PM";"5:30AM - 5:30PM";"5:30AM - 5:30PM";"5:30AM - 5:30PM";"Closed";"Closed";
1175168;"NORTH NEWTON ELEMENTARY PRE-SCHOOL";"221 WEST 26TH STREET";"NEWTON";"NC";28658;"CATAWBA";"(828) 464-2631";"https://nne.newton-conover.org/";"shane.whitener@n-ccs.org";"Our goal is for each child to have a successful learning experience. For this to happen, it is important that the school staff, the community and families work together.";"https://nne.newton-conover.org/";"https://www.facebook.com/pages/North-Newton-Elementary-School/654545884556693";;;"https://1.cdn.edl.io/ncdKQV3dv0T8VLATh2jJzrNIUuwaei86AK8ooS7ynR0ClBhm.pdf";;;"x";"x";;;;"7:35AM - 3:25PM";"7:35AM - 3:25PM";"7:35AM - 3:25PM";"7:35AM - 3:25PM";"7:35AM - 3:25PM";"Closed";"Closed";
1175169;"SOUTH NEWTON PRE-SCHOOL";"306 WEST I STREET";"NEWTON";"NC";28658;"CATAWBA";"(828) 464-4061";"http://newtonsouthpreschoolprogram.weebly.com/";"amber.humphrey@n-ccs.org";"Our preschool is a child development lab school and is part of the Family and Consumer Sciences Department at Newton South High School.";"http://newtonsouthpreschoolprogram.weebly.com/";"https://www.facebook.com/South-Newton-Preschool-1655229324753466/";;"http://newtonsouthpreschoolprogram.weebly.com/how-to-apply.html";;;;"x";"x";;;"http://newtonsouthpreschoolprogram.weebly.com/uploads/7/7/8/7/7787163/4444163.png";"7AM - 4PM";"7AM - 4PM";"7AM - 4PM";"7AM - 4PM";"7AM - 4PM";"Closed";"Closed";
1175170;"PLAYWORKS EARLY CARE & LEARNING CENTER";"306 D STREET";"NORTH WILKESBORO";"NC";28659;"WILKES";"(336) 818-2000";;"playworks2000@gmail.com";"PlayWorks Early Care & Learning Center promotes the optimal development of young children by providing quality care and unique services to the Wilkes County community.";;"https://www.facebook.com/PlayWorks-Early-Care-Learning-Center-343719619043042/";;;;;;"x";"x";;;"https://scontent.fskp2-1.fna.fbcdn.net/v/t1.0-1/p200x200/10603783_692038300877837_2270496326800298216_n.png?_nc_cat=0&oh=8ed96632e506cbf27b4dbb1cb947304e&oe=5BB9607F";"6:45AM - 5:30PM";"6:45AM - 5:30PM";"6:45AM - 5:30PM";"6:45AM - 5:30PM";"6:45AM - 5:30PM";"Closed";"Closed";
1175172;"DEBBIE'S DAYCARE PRESCHOOL";"631 MALCOLM BLVD";"RUTHERFORD COLLEGE";"NC";28671;"Burke";"(828) 879-9700";;"daycaredebbie301@yahoo.com";;;;;;;;;;;;;;;;;;;;;
1175174;"THE LEMONADE STAND CHILD CARE & PRESCHOOL";"236 BARIUM SPRINGS DRIVE";"STATESVILLE";"NC";28677;"IREDELL";"(704) 980-1070";;"lemonadestand46@yahoo.com";"The Lemonade Stand Child Care & Preschool cares for children ages 6 wks through 12 yrs. Stop in today for a tour or visit us online";;"https://www.facebook.com/lemonadestandchildcare/";;;;"x";"x";"x";"x";;;"https://scontent.fskp2-1.fna.fbcdn.net/v/t1.0-1/p200x200/13239996_114302678986153_5118504707505176367_n.jpg?_nc_cat=0&oh=f2e48303476660c57a276e6802a4061c&oe=5BC174A2";"6AM - 10PM";"6AM - 10PM";"6AM - 10PM";"6AM - 10PM";"6AM - 10PM";"Closed";"Closed";
1175177;"UNION GROVE HEAD START";"1314 SLOANS MILL ROAD";"UNION GROVE";"NC";28689;"IREDELL";"(704) 539-4354";"http://www.headstartprogram.us/city/nc-union_grove";"kjames@iss.k12.nc.us";"Union Grove Elementary School is part of Iredell-Statesville Schools and serves approximately 270 students in grade K-5. This is the official Facebook page for Union Grove Elementary School.";"https://www.iss.k12.nc.us/uniongrove";"https://www.facebook.com/UnionGroveElementarySchool/";;;"https://www.iss.k12.nc.us/site/Default.aspx?PageID=1598";;;"x";"x";;;"https://www.iss.k12.nc.us/cms/lib/NC01000579/Centricity/template/globalassets/images/uniongrove-accent-images/mascots.png";;;;;;;;
1175180;"PLAYWORKS2";"707 WALKER STREET";"WILKESBORO";"NC";28697;"WILKES";"(336) 818-2016";;"playworks2000@gmail.com";"PlayWorks Early Care & Learning Center promotes the optimal development of young children by providing quality care and unique services to the Wilkes County community.";;"https://www.facebook.com/PlayWorks-Early-Care-Learning-Center-343719619043042/";;;;;;;;;;"https://scontent.fskp2-1.fna.fbcdn.net/v/t1.0-1/p200x200/10603783_692038300877837_2270496326800298216_n.png?_nc_cat=0&oh=8ed96632e506cbf27b4dbb1cb947304e&oe=5BB9607F";"6:45AM - 5:30PM";"6:45AM - 5:30PM";"6:45AM - 5:30PM";"6:45AM - 5:30PM";"6:45AM - 5:30PM";"Closed";"Closed";
1175181;"SONSHINE CHILDCARE CENTER";"1740 CURTIS BRIDGE ROAD";"WILKESBORO";"NC";28697;"WILKES";"(336) 818-1790";"http://sonshinechildren.com/";"sonshinecarecenter@gmail.com";"The SonShine Childcare Center is fulltime religious/faith based care facility for children ages six weeks to five years.";"http://sonshinechildren.com/";"https://www.facebook.com/SonShine-Childcare-Center-840407249424443/";;;;"x";"x";"x";"x";;;"https://scontent.fskp2-1.fna.fbcdn.net/v/t1.0-1/c0.0.200.200/p200x200/13418740_840447416087093_7820968161501529223_n.jpg?_nc_cat=0&oh=80a34c569203ff2d502b3e46a4efb78c&oe=5B8689FA";"7AM - 6PM";"7AM - 6PM";"7AM - 6PM";"7AM - 6PM";"7AM - 6PM";"Closed";"Closed";
1175182;"MONTESSORI FOOTPRINTS LEARNING CENTER";"158 BRADLEY BRANCH ROAD";"ARDEN";"NC";28704;"BUNCOMBE";"(828) 483-6869";"http://montessorifootprints.com/";"admin@montessorifootprints.org";"Montessori Footprints is a place where we foster independence and guide children for their love of learning through Maria Montessori's philosophy.";"http://montessorifootprints.com/";"https://www.facebook.com/MontessoriFootprints/";"http://montessorifootprints.com/employment-opprotunities/";"http://montessorifootprints.com/documents/";"http://montessorifootprints.com/documents/";;"x";"x";"x";"x";"x";"http://montessorifootprints.com/wp-content/uploads/2018/02/logo-copy-1.png";"7:35AM - 5:45PM";"7:35AM - 5:45PM";"7:35AM - 5:45PM";"7:35AM - 5:45PM";"7:35AM - 5:45PM";"Closed";"Closed";
1175183;"BREVARD CHILDREN'S SERVICES";"601 GREENVILLE HIGHWAY";"BREVARD";"NC";28712;"TRANSYLVANIA";"(828) 884-2001";"https://www.tcsnc.org/";"mharris@tcsnc.org";"Brevard Elementary School will be a model for educational excellence. It will be a place where a foundation is created for good citizenship and a lifelong love of learning.";"https://www.tcsnc.org/Domain/13";;;;"https://tcsnc.powerschool.com/public/home.html";;;"x";"x";;;"https://www.tcsnc.org/cms/lib/NC01910389/Centricity/Template/GlobalAssets/images//logos/BES%20runner3.png";;;;;;;;
1175186;"GENESIS ACADEMY, INC";"428 GEORGES FORK ROAD";"BURNSVILLE";"NC";28714;"YANCEY";"(828) 536-4819";;"genesisacademy@hotmail.com";"Genesis Academy is a Christian non-profit, Preschool, Kindergarten thru 6 grade with an after school program.";;"https://www.facebook.com/GenesisAcademyNC/";;;;;;;;;;"https://scontent.fskp2-1.fna.fbcdn.net/v/t1.0-1/p200x200/13434689_612533585575329_2846701066477030954_n.jpg?_nc_cat=0&oh=a2bfc055b3c30abd2336e2dbb64f2462&oe=5BBDA97D";"6AM - 5:30PM";"6AM - 5:30PM";"6AM - 5:30PM";"6AM - 5:30PM";"6AM - 5:30PM";"Closed";"Closed";
1175189;"GRACE LUTHERAN PRESCHOOL";"1245 6TH AVENUE WEST";"HENDERSONVILLE";"NC";28739;"HENDERSON";"(828) 693-4972";"http://gracehendersonville.com/";" balehr@gracehendersonville.com";"Grace Lutheran Preschool creates a Christian atmosphere that fosters learning for young children. Our philosophy is that children learn by doing.";"http://gracehendersonville.com/preschool/";"https://www.facebook.com/gracepreschoolhendersonville/";;"http://gracehendersonville.com/preschool/registration/";"http://gracehendersonville.com/parent-handbook-2017-final-copy/";;;"x";"x";;;"https://scontent.fskp2-1.fna.fbcdn.net/v/t1.0-1/c0.0.200.200/p200x200/1381476_451622341624300_583610866_n.jpg?_nc_cat=0&oh=0d0060bd841b7c3caaf825de065a08c1&oe=5B761118";"8:30AM - 1:30PM";"8:30AM - 1:30PM";"8:30AM - 1:30PM";"8:30AM - 1:30PM";"8:30AM - 1:30PM";"Closed";"Closed";
1175191;"CHILDREN'S LEARNING CENTER";"357 NORTH RAILROAD STREET";"OLD FORT";"NC";28762;"MCDOWELL";"(828) 668-1369";;"beclaws8@aol.com";"We provide childcare for children ages 1year to 6 years of ages";;"https://www.facebook.com/childrenscenterofoldfort/";;;;;"x";"x";"x";;;;;;;;;;;
1175192;"CHEKELELEE CHILD DEVELOPMENT";"347 RODNEY ORR BYPASS";"ROBBINSVILLE";"NC";28771;"GRAHAM";"(828) 346-0688";;"brittney.chekelelee@gmail.com";"To enrich the minds of our youth, while spreading the truth of the Gospel.";;"https://www.facebook.com/Chekelelee-Child-Development-Inc-1509562286037981/";;;;"x";"x";"x";"x";"x";"x";;"6AM - 6PM";"6AM - 6PM";"6AM - 6PM";"6AM - 6PM";"6AM - 6PM";"7AM - 3PM";"Closed";
1175194;"EAGLE'S NEST EARLY LEARNING CENTER AND PRESCHOOL";"1358 SULPHUR SPRINGS ROAD";"WAYNESVILLE";"NC";28786;"HAYWOOD";"(828) 476-5133";;"nsmith@eaglesnestchildcare.org";"Child care service and preschool";;"https://www.facebook.com/Eagles-Nest-Early-Learning-Center-Preschool-315668148766325/";;;;"x";"x";"x";"x";;;"https://scontent.fskp2-1.fna.fbcdn.net/v/t1.0-1/c1.0.200.200/p200x200/13903221_315681042098369_6188888490167076641_n.jpg?_nc_cat=0&oh=c49948ad116367d2bd17f44019fa324a&oe=5B8E15DF";;;;;;;;
1175195;"ISAAC DICKSON PRE K";"125 HILL STREET";"ASHEVILLE";"NC";28801;"BUNCOMBE";"(828) 350-6800";"http://dickson.ashevillecityschools.net/";"dawn.meskil@acsgmail.net";"Our school is a community of engaged, active, hands-on learners, and we strive for academic excellence. We value the individual strengths and potential of each student, and work to tailor each child’s learning experience to enhance that value.";"http://dickson.ashevillecityschools.net/pages/Isaac_Dickson_Elementary";"https://www.facebook.com/IsaacDicksonElementary/";;;"http://dickson.ashevillecityschools.net/pages/Isaac_Dickson_Elementary/Parents/17-18_IDES_Student_Parent_Hand";;;"x";"x";;;"http://dickson.ashevillecityschools.net/dynimg/_oeAAA_/docid/0x08EF06707E3400B4/11/Isaac-Dickson.png";"7:30AM - 3:30PM";"7:30AM - 3:30PM";"7:30AM - 3:30PM";"7:30AM - 3:30PM";"7:30AM - 3:30PM";"Closed";"Closed";
1175196;"JONES PRE K";"544 KIMBERLY AVENUE";"ASHEVILLE";"NC";28804;"BUNCOMBE";"(828) 350-6700";"http://jones.ashevillecityschools.net";"sarah.cain@asheville.k12.nc.us";"The Ira B. Jones learning community is committed to empowering students to become highly successful global citizens.";"http://jones.ashevillecityschools.net/pages/Ira_B__Jones_Elementary";"https://www.facebook.com/irabjones/";;;"https://drive.google.com/file/d/1ThDpthJAtciq01q_NE7S-n307xefB1fL/view";;;"x";"x";;;"http://jones.ashevillecityschools.net/dynimg/_oeAAA_/docid/0x0DB306707FF1FB74/20/JonesMortar.png";"8AM - 2:55PM";"8AM - 2:55PM";"8AM - 2:55PM";"8AM - 2:55PM";"8AM - 2:55PM";"Closed";"Closed";
1175198;"VERNER-CENTRAL";"441 HAYWOOD ROAD";"ASHEVILLE";"NC";28806;"BUNCOMBE";"(828) 298-0808";"https://www.vernerearlylearning.org/";"info@verneremail.org";"​Verner is a nonprofit agency providing high quality, affordable early care and education to children birth to five years old throughout Buncombe County, North Carolina.";"https://www.vernerearlylearning.org/contact.html";"https://www.facebook.com/vernerlearning/";;"https://www.vernerearlylearning.org/enrollment-process-and-application.html";"https://www.vernerearlylearning.org/tuition-information.html";"x";"x";"x";"x";;;"https://www.vernerearlylearning.org/uploads/1/1/4/1/114129345/published/04ec5a-9e3286f35d9546409e9b3dd9e311edf7-mv2.png?1522251863";"7:30AM - 5:30PM";"7:30AM - 5:30PM";"7:30AM - 5:30PM";"7:30AM - 5:30PM";"7:30AM - 5:30PM";"Closed";"Closed";
1175199;"ANDREWS ELEMENTARY AFTER SCHOOL";"205 JEAN CHRISTY AVENUE";"ANDREWS";"NC";28901;"CHEROKEE";"(828) 321-4415";"http://cherokeeschools.wixsite.com/aes1";"AES@cherokee.k12.nc.us";"Andrews Elementary School serves students in grades Pre-K-5th grade, nestled in the mountains of Andrews, North Carolina.";"http://cherokeeschools.wixsite.com/aes1";"https://www.facebook.com/andrewselem/?ref=page_internal";;"http://cherokeeschools.wixsite.com/aes1/projects";;;;"x";"x";"x";;"https://static.wixstatic.com/media/41d000_e46aa87d6b7609392f5abce1f5c47645.png/v1/fill/w_59,h_60,al_c,usm_0.66_1.00_0.01/41d000_e46aa87d6b7609392f5abce1f5c47645.png";"7:30AM - 5PM";"7:30AM - 5PM";"7:30AM - 5PM";"7:30AM - 5PM";"7:30AM - 5PM";"Closed";"Closed";
1175200;"MARTINS CREEK ELEMENTARY AFTER SCHOOL";"1459 TOBE STALCUP ROAD";"MURPHY";"NC";28906;"CHEROKEE";"(828) 837-2831";"http://cherokeeschools.wixsite.com/mcems";"paul.wilson@cherokee.k12.nc.us";"MCS is a PK-8 grade school nestled in the mountains of the Martins Creek community of Cherokee County. We invite parents, students, and friends to visit";"http://cherokeeschools.wixsite.com/mcems";"https://www.facebook.com/Martins-Creek-School-1497866110226864/";;;;;;"x";"x";"x";;;;;;;;;;
1176038;"West Annapolis Child Care Program";"505 Melvin Avenue";"Annapolis";"MD";21401;"ANNE ARUNDEL";"(410) )222-1635";"https://www.aacps.org/";"jlbennett3@aacps.org";"Classes at West Annapolis range from kindergarten to fifth grade; the school serves as a feeder school for Bates Middle School and Annapolis High School.   In 1999, West Annapolis was designated a Blue Ribbon School of Excellence. West Annapolis has a proud tradition of academic excellence, parent involvement and community support.";"https://www.aacps.org/domain/1473";"https://www.facebook.com/aacps";;"https://www.aacps.org/site/Default.aspx?PageID=1014";"https://www.aacps.org/site/handlers/filedownload.ashx?moduleinstanceid=7166&dataid=16190&FileName=Predominant%20Prior%20Care%20-%20English.pdf";;;"x";"x";;;"https://www.aacps.org/cms/lib/MD02215556/Centricity/Domain/1382/WestAnnapolisEStoppic.png";"8:30AM - 2:55PM";"8:30AM - 2:55PM";"8:30AM - 2:55PM";"8:30AM - 2:55PM";"8:30AM - 2:55PM";"Closed";"Closed";
1176037;"This Little Light of Mine Learning Center";"1950 Drew Street";"Annapolis";"MD";21401;"ANNE ARUNDEL";"(443) 214-5843";;"tinaross497@yahoo.com";"Philosophy: As your day, evening, and night provider. I will strive to provide a program that meets the needs of each child.";;"https://www.facebook.com/thislittlelightofmineLLC/";;;;;;;;;;"https://scontent.fskp2-1.fna.fbcdn.net/v/t1.0-1/p200x200/18767735_422621891454325_5178807996609578353_n.jpg?_nc_cat=0&oh=f0a451e2b12ea5b43cba1793a5ed7c5e&oe=5B8A86A7";"6AM - 12PM";"6AM - 12PM";"6AM - 12PM";"6AM - 12PM";"6AM - 12PM";"Closed";"Closed";
1176036;"Y Head Start Anne Arundel @ Annapolis Garden";"213 Croll Drive";"Annapolis";"MD";21401;"ANNE ARUNDEL";"(443) 379-3878";"https://ymaryland.org/";"annearundelheadstart@ymaryland.org";"Y Head Start in Anne Arundel County helps children from low income families achieve the best possible start in life so they can enter school ready to learn and succeed! We provide an Early Head Start program for pregnant woman, infants and toddlers, and a traditional Head Start program for preschool children ages 3–5.";"https://ymaryland.org/locations/headstart/annearundelcountyheadstart";"https://www.facebook.com/ycentralmaryland";"https://ymaryland.org/employment";;;;;"x";"x";;;"https://ymaryland.org/App_Style/images/branding/branding-big-01.png";"8:30AM - 2:30PM";"8:30AM - 2:30PM";"8:30AM - 2:30PM";"8:30AM - 2:30PM";"8:30AM - 2:30PM";"Closed";"Closed";
1176042;"Y Head Start Anne Arundel @ Lloyd Keaser";"5757 Belle Grove Road";"Brooklyn Park";"MD";21225;"Anne Arundel";"(443) 379-3878";"https://ymaryland.org/";"annearundelheadstart@ymaryland.org";"Y Head Start in Anne Arundel County helps children from low income families achieve the best possible start in life so they can enter school ready to learn and succeed! We provide an Early Head Start program for pregnant woman, infants and toddlers, and a traditional Head Start program for preschool children ages 3–5.";"https://ymaryland.org/locations/headstart/annearundelcountyheadstart";"https://www.facebook.com/ycentralmaryland";"https://ymaryland.org/employment";;;;;"x";"x";;;"https://ymaryland.org/App_Style/images/branding/branding-big-01.png";"8:30AM - 2:30PM";"8:30AM - 2:30PM";"8:30AM - 2:30PM";"8:30AM - 2:30PM";"8:30AM - 2:30PM";"Closed";"Closed";
1176041;"Little Smiles with Big Dreams Learning Center";"5505 A Ritchie Highway";"Baltimore";"MD";21225;"BALTIMORE CITY";"(410) 207-9750";;"kishaxoxo@aol.com";"Little Smiles with Big Dreams Learning Center is a Childcare Center located in the Brooklyn Park Area. Ages 6 weeks to 12 years old.";;"https://www.facebook.com/Little-Smiles-with-Big-Dreams-Learning-Center-504690229865368/";;;;"x";"x";"x";"x";;;;"6AM - 6PM";"6AM - 6PM";"6AM - 6PM";"6AM - 6PM";"6AM - 6PM";"Closed";"Closed";
1176040;"Park Elementary Child Enrichment Center";"201 East 11th Avenue";"Baltimore";"MD";21225;"BALTIMORE CITY";"(410) 222-6593";"http://www.aacounty.org";"rplugo29@aacounty.org";"As the most centrally-located county in Maryland and site of the state capital of Annapolis, Anne Arundel County is in many ways the heart of Maryland. Half a million people call the county home.";"http://www.aacounty.org/locations-and-directions/park-elementary-school";"https://www.facebook.com/myannearundel";"http://www.aacounty.org/departments/personnel/employment-information/index.html";;;;;"x";"x";;;"http://www.aacounty.org/sebin/v/p/anne-arundel-county-updated-logo.fw.png";;;;;;;;
1176039;"Belle Grove Elementary Child Enrichment Center";"4502 Belle Grove Road";"Baltimore";"MD";21225;"BALTIMORE CITY";"(410) 222-6589";"http://www.aacounty.org";"rplugo29@aacounty.org";"As the most centrally-located county in Maryland and site of the state capital of Annapolis, Anne Arundel County is in many ways the heart of Maryland. Half a million people call the county home.";"http://www.aacounty.org/locations-and-directions/belle-grove-elementary-school";"https://www.facebook.com/myannearundel";"http://www.aacounty.org/departments/personnel/employment-information/index.html";;;;;"x";"x";;;"http://www.aacounty.org/sebin/v/p/anne-arundel-county-updated-logo.fw.png";;;;;;;;
1176046;"Y Head Start Anne Arundel @ Freetown";"282 Whitaker Street";"Pasadena";"MD";21122;"ANNE ARUNDEL";"(443) 379-3878";"https://ymaryland.org/";"annearundelheadstart@ymaryland.org";"Y Head Start in Anne Arundel County helps children from low income families achieve the best possible start in life so they can enter school ready to learn and succeed! We provide an Early Head Start program for pregnant woman, infants and toddlers, and a traditional Head Start program for preschool children ages 3–5.";"https://ymaryland.org/locations/headstart/annearundelcountyheadstart";"https://www.facebook.com/ycentralmaryland";"https://ymaryland.org/employment";;;;;"x";"x";;;"https://ymaryland.org/App_Style/images/branding/branding-big-01.png";"8:30AM - 2:30PM";"8:30AM - 2:30PM";"8:30AM - 2:30PM";"8:30AM - 2:30PM";"8:30AM - 2:30PM";"Closed";"Closed";
1176045;"Chesapeake Christian Learning Center";"206 Weston Woods Court";"Pasadena";"MD";21122;"ANNE ARUNDEL";"(410) 317-5340";"http://c2lcenter.wixsite.com/c2lc";"info@c2lc.com";"We are a Christian learning center. We serve children ages six-weeks old to five-years old. We also have a half-day preschool program in place.";"http://c2lcenter.wixsite.com/c2lc";"https://www.facebook.com/ChesapeakeChristianLearningCenter/";;;;"x";"x";"x";"x";;;"https://static.wixstatic.com/media/d8da49_d13394c0fe1a490ba8e5da6b64ec4dd6~mv2.png/v1/fill/w_313,h_187,al_c,usm_0.66_1.00_0.01/d8da49_d13394c0fe1a490ba8e5da6b64ec4dd6~mv2.png";"6AM - 6PM";"6AM - 6PM";"6AM - 6PM";"6AM - 6PM";"6AM - 6PM";"Closed";"Closed";
1176044;"Pasadena's Mini Miracles Child Care Inc.";"8164 Hog Neck Road";"Pasadena";"MD";21122;"ANNE ARUNDEL";"(443) 867-0702";;"valerie616306@verizon.net";;;;;;;;;;;;;;;;;;;;;
1176047;"Y Head Start Anne Arundel @ Meade Village";"1710 Meade Village Circle";"Severn";"MD";21144;"ANNE ARUNDEL";"(443) 379-3878";"https://ymaryland.org/";"annearundelheadstart@ymaryland.org";"Y Head Start in Anne Arundel County helps children from low income families achieve the best possible start in life so they can enter school ready to learn and succeed! We provide an Early Head Start program for pregnant woman, infants and toddlers, and a traditional Head Start program for preschool children ages 3–5.";"https://ymaryland.org/locations/headstart/annearundelcountyheadstart";"https://www.facebook.com/ycentralmaryland";"https://ymaryland.org/employment";;;;;"x";"x";;;"https://ymaryland.org/App_Style/images/branding/branding-big-01.png";"8:30AM - 2:30PM";"8:30AM - 2:30PM";"8:30AM - 2:30PM";"8:30AM - 2:30PM";"8:30AM - 2:30PM";"Closed";"Closed";
1176049;"KAKS KIDS Early Learning Child Care Center,";"1214 Bayard Street";"Baltimore";"MD";21230;"BALTIMORE CITY";"(443) 844-6607";;"keepa.kidsmilin@gmail.com";"Md. Excels Childcare & Special Events Where Kids can Play. Everyday is a Learning Experience in Everyway. Provides Resources & Opportunities for families.";;"https://www.facebook.com/KEEPAKIDSMILIN/";;;;"x";"x";"x";"x";;;;"7AM - 6PM";"7AM - 6PM";"7AM - 6PM";"7AM - 6PM";"7AM - 6PM";"Closed";"Closed";
1176048;"Y Head Start Anne Aundel @Lula Scott";"6243 Shadyside Road";"Shady Side";"MD";20764;"ANNE ARUNDEL";"(443) 379-3878";"https://ymaryland.org/";"annearundelheadstart@ymaryland.org";"Y Head Start in Anne Arundel County helps children from low income families achieve the best possible start in life so they can enter school ready to learn and succeed! We provide an Early Head Start program for pregnant woman, infants and toddlers, and a traditional Head Start program for preschool children ages 3–5.";"https://ymaryland.org/locations/headstart/annearundelcountyheadstart";"https://www.facebook.com/ycentralmaryland";"https://ymaryland.org/employment";;;;;"x";"x";;;"https://ymaryland.org/App_Style/images/branding/branding-big-01.png";"8:30AM - 2:30PM";"8:30AM - 2:30PM";"8:30AM - 2:30PM";"8:30AM - 2:30PM";"8:30AM - 2:30PM";"Closed";"Closed";
1176051;"Ages and Stages Learning Center Inc,";"5301 Belleville Avenue";"Baltimore";"MD";21207;"BALTIMORE CITY";"(443) 345-7078";;"agesandstageslrn@gmail.com";;;;;;;;;;;;;;;;;;;;;
1176050;"Bright Beginnings Learning Center";"3201 Belair Road";"Baltimore";"MD";21213;"BALTIMORE CITY";"(443) 682-7770";;"kallen@brightbegininngslearningcenter.net";"Bright Beginnings learning Center, providing exceptional learning experiences for children between the ages of 6 weeks- and 12 years old.";;"https://www.facebook.com/LearningatBrightBeginnings/";;;;;;"x";"x";;;"https://scontent.fskp2-1.fna.fbcdn.net/v/t1.0-1/c3.0.200.200/p200x200/14572317_1683101108671862_1698890413721801471_n.jpg?_nc_cat=0&oh=bb15edf11538c41e5154fdaea5c9fd08&oe=5B7CAA9E";"9AM - 5PM";"9AM - 5PM";"9AM - 5PM";"9AM - 5PM";"9AM - 5PM";"Closed";"Closed";
1176052;"Me &You Before & After  School  Care     , David";"6100 Cross Country Boulevard";"Baltimore";"MD";21215;"BALTIMORE CITY";"(443) 813-1447";"http://www.baltimorecityschools.org/";"LAStanfield@bcps.k12.md.us";"At Cross Country, our Vision is to provide a safe, supportive, and accepting school of high quality interactive learning in S.T.E.M and the humanities that inspire students to become active engaged citizens who collaborate effectively with all stakeholders to improve our global society";"http://www.baltimorecityschools.org/domain/804";;;"http://www.baltimorecityschools.org/Page/25376";;;;"x";"x";"x";;"http://www.baltimorecityschools.org/cms/lib/MD01001351/Centricity/Template/8/logos/247.png";"9AM - 3:40PM";"9AM - 3:40PM";"9AM - 3:40PM";"9AM - 3:40PM";"9AM - 3:40PM";"Closed";"Closed";
1176053;"Heart Prints Child Care Center";" 1515 N Fulton Ave";"Baltimore";"MD";21223;"BALTIMORE CITY";"(410) 517-4279";;"heartprintsacademy@gmail.com ";"Success is when what you see on the Inside...materialize on the Outside";;"https://www.facebook.com/Heart-Prints-Child-Care-Center-1721654948048863/";;;;"x";"x";"x";"x";"x";"x";"https://scontent.fskp2-1.fna.fbcdn.net/v/t1.0-9/13103446_1721829361364755_3242058479847947421_n.jpg?_nc_cat=0&oh=ab1818ebe1dbb543d0da6bb0d0fd7860&oe=5B8A6B4B";"7:30AM - 6PM";"7:30AM - 6PM";"7:30AM - 6PM";"7:30AM - 6PM";"7:30AM - 6PM";"Closed";"Closed";
1176055;"Smart Steps @ Callaway Elementary School,";"3701 Fernhill Avenue";"Baltimore";"MD";21215;"BALTIMORE CITY";"(410) 921-8707";"http://www.smartstepschildrenscenters.com/";"shill@smartstepschildrenscenters.com";"Due to a new partnership with the Boys & Girls Club, Smart Steps @ Callaway offers a variety of enrichment activities in its school based aftercare program. ";"http://www.smartstepschildrenscenters.com/Site---Callaway-Elementary.html";"https://www.facebook.com/Smartstepscc/";"http://www.smartstepschildrenscenters.com/Employment---Training.html";"http://www.smartstepschildrenscenters.com/Registration.html";"http://www.baltimorecityschools.org/cms/lib/MD01001351/Centricity/Domain/3126/Student%20Handbook%202017-2018%20Callaway.pdf";;;"x";"x";"x";"x";"http://www.smartstepschildrenscenters.com/bg-1-25806.jpeg?u=656435400";"2:30PM - 5:30PM";"2:30PM - 5:30PM";"2:30PM - 5:30PM";"2:30PM - 5:30PM";"2:30PM - 5:30PM";"Closed";"Closed";
1176054;"The Junior Scholar Center,LLC";"631 E. 35th Street";"Baltimore";"MD";21218;"BALTIMORE CITY";"(443) 469-8970";"https://juniorscholarcenter.wordpress.com/";"chanelherriott@gmail.com";"The Junior Scholar Center is a licensed and insured childcare facility offering a safe environment and trusted staff so you can work and have peace of mind.";"https://juniorscholarcenter.wordpress.com/";"https://www.facebook.com/juniorscholarcenter/";;;;"x";"x";"x";"x";;;"https://juniorscholarcenter.files.wordpress.com/2016/12/nellie-choo1.jpg?w=249";"6AM - 12AM";"6AM - 12AM";"6AM - 12AM";"6AM - 12AM";"6AM - 12AM";"Closed";"Closed";
1176056;"IMPROVE Children Program@ Abbottston Elementary,";"1300 Gorsuch Avenue";"Baltimore";"MD";21218;"BALTIMORE CITY";"(410) 825-3028";"https://www.improvechildren.org/";"improvechildren@ymail.com";"The I.M.P.R.O.V.E. Children Program offers before, after and extended care in 3 different locations in the Baltimore City area. We cover various topics in a disciplined, structured environment inclusive of academic enrichment, field trips, and lots of fun activities.";"https://www.improvechildren.org/abbottston";"https://www.facebook.com/ImproveChildren/";;"https://docs.wixstatic.com/ugd/ef8a97_c00e0a3ff0b9436c9f132e0efd12f68c.pdf";;;;;;"x";"x";"https://static.wixstatic.com/media/d25800_2f0cfe5d6bcd4159b7694f7e8858bd9d~mv2.jpg/v1/fill/w_127,h_83,al_c,q_80,usm_0.66_1.00_0.01/d25800_2f0cfe5d6bcd4159b7694f7e8858bd9d~mv2.webp";"7AM - 6PM";"7AM - 6PM";"7AM - 6PM";"7AM - 6PM";"7AM - 6PM";"Closed";"Closed";
1176058;"Fitness Fun & Games at Mt. Royal,";"121 McMechen Street";"Baltimore";"MD";21217;"BALTIMORE CITY";"(443)763-0289";"http://www.fitnessfunandgames.org/";"MtRoyal@FitnessFunandGames.org";"Fitness Fun & Games is a non-profit organization established to provide quality programs for children, ages 2 to 18, which support healthy growth of the individual including cognitive, physical, social and emotional development, during out-of-school hours. ";"http://www.fitnessfunandgames.org/";;"http://www.fitnessfunandgames.org/jobs.html";"http://www.fitnessfunandgames.org/forms.html";;;;"x";"x";"x";"x";"http://www.fitnessfunandgames.org/images/logo.svg";"7AM - 6PM";"7AM - 6PM";"7AM - 6PM";"7AM - 6PM";"7AM - 6PM";"Closed";"Closed";
1176059;"Dayspring Head Start Dukeland Site,";"2803 North Dukeland Street";"Baltimore";"MD";21216;"BALTIMORE CITY";"(443) 835-3700";"http://www.dayspringbaltimore.com/";" Day1Sp@aol.com";"Dayspring is a Head Start delegate agency providing services to 584 children ages three to five year in 18 classrooms at 8 sites.";"http://www.dayspringbaltimore.com/head-start/locations/";;;"http://www.dayspringbaltimore.com/head-start/head-start-documents/";;;;"x";"x";;;"http://www.dayspringbaltimore.com/wp-content/themes/twentyten-child/images/dayspring_logo.png";;;;;;;;
1176061;"Bridging the Gap, Inc";"1406 North Ellamont Street";"Baltimore";"MD";21216;"BALTIMORE CITY";"(443)722-9656";"http://www.btgactivitycenters.com/";"info@btgactivitycenters.com";"Bridging The Gap, Inc puts an emphasis on education through REAL LIFE applications and physical activities!";"http://www.btgactivitycenters.com/services.html";"https://www.facebook.com/BTGactivitycenters/";;;;;;;;"x";;"https://scontent.fskp2-1.fna.fbcdn.net/v/t31.0-8/13690907_1170911772972876_4220800556801457202_o.jpg?_nc_cat=0&oh=eb94ddddd87a11b264c438b68566e276&oe=5BBAEC4D";"6:30AM -6PM";"6:30AM -6PM";"6:30AM -6PM";"6:30AM -6PM";"6:30AM -6PM";"Closed";"Closed";
1176062;"Heart Prints Child Care,";"1515 North Fulton Street";"Baltimore";"MD";21217;"BALTIMORE CITY";"(410)517-4279";;"heartprintsacademy@gmail.com";"Success is when what you see on the Inside...materialize on the Outside";;"https://www.facebook.com/Heart-Prints-Child-Care-Center-1721654948048863/";;;;"x";"x";"x";"x";"x";"x";"https://scontent.fskp2-1.fna.fbcdn.net/v/t1.0-9/13103446_1721829361364755_3242058479847947421_n.jpg?_nc_cat=0&oh=ab1818ebe1dbb543d0da6bb0d0fd7860&oe=5B8A6B4B";"7:30AM - 6PM";"7:30AM - 6PM";"7:30AM - 6PM";"7:30AM - 6PM";"7:30AM - 6PM";"Closed";"Closed";
1176063;"Baltimore City Health Department Early Head Start,";"2200 North Monroe Street";"Baltimore";"MD";21217;"BALTIMORE CITY";"(410) 396-7414";"https://human-services.baltimorecity.gov/";"shannon.burroughscampbell@baltimorecity.gov";"Baltimore City Head Start provides educational, health, nutritional, social/emotional,  and other services to enrolled children and actively engages parents in their children's learning and development by supporting parents’ pursuit of their own goals toward self sufficiency. ";"https://human-services.baltimorecity.gov/head-start";;;"https://human-services.baltimorecity.gov/head-start/application";;;;"x";"x";;;"https://human-services.baltimorecity.gov/sites/default/files/headstart_logo.png";;;;;;;;
1176060;"Dayspring Headstart @ Dunbar,";"621 North Eden Street";"Baltimore";"MD";21205;"BALTIMORE CITY";"(410) 522-1457";"http://www.dayspringbaltimore.com/";" Day1Sp@aol.com";"Dayspring is a Head Start delegate agency providing services to 584 children ages three to five year in 18 classrooms at 8 sites.";"http://www.dayspringbaltimore.com/head-start/locations/";;;"http://www.dayspringbaltimore.com/head-start/head-start-documents/";;;;"x";"x";;;"http://www.dayspringbaltimore.com/wp-content/themes/twentyten-child/images/dayspring_logo.png";;;;;;;;
1176064;"Y Head Start Baltimore City @ Pennsylvania Avenue";"1200 Pennsylvania  Avenue";"Baltimore";"MD";21217;"BALTIMORE CITY";"(443) 379-3878";"https://ymaryland.org/";" ycityheadstart@ymaryland.org.";"Baltimore City Y Head Start operates a full-day program, Monday-Friday from September through June for children who turn three years old by September 1st. To participate at Y Head Start Baltimore City, you must reside in Baltimore City.";"https://ymaryland.org/locations/headstart/baltimorecityheadstart";"https://www.facebook.com/ycentralmaryland";"https://ymaryland.org/employment";;;;;"x";"x";;;"https://ymaryland.org/App_Style/images/branding/branding-big-01.png";;;;;;;;
1176066;"Our House Early Head Start,";"2707 Sethlow Road";"Baltimore";"MD";21225;"BALTIMORE CITY";"(410) 396-8471";"https://human-services.baltimorecity.gov/head-start/directory";"fmiller@marylandfamilynetwork.org";"Baltimore City Head Start provides educational, health, nutritional, social/emotional,  and other services to enrolled children and actively engages parents in their children's learning and development by supporting parents’ pursuit of their own goals toward self sufficiency. ";"https://human-services.baltimorecity.gov/head-start/directory";;;"https://human-services.baltimorecity.gov/head-start/application";;"x";"x";"x";"x";;;"https://human-services.baltimorecity.gov/sites/default/files/headstart_logo.png";;;;;;;;
1176067;"Work, Learn and Play";"1327 Washington Boulevard";"Baltimore";"MD";21230;"BALTIMORE CITY";"(443) 348-5985";;"kiddykingdomlove@gmail.com";;;;;;;;;;;;;;;;;;;;;
1176068;"Treasures Daycare Center,";"210 West Saratoga Street";"Baltimore";"MD";21201;"BALTIMORE CITY";"(443) 469-3453";;"llerrehs@yahoo.com";;;;;;;;;;;;;;;;;;;;;
1176070;"The Goddard School in White Marsh-Crossroads";"11560 Crossroads Circle  Suite 114";"Baltimore";"MD";21220;"BALTIMORE CITY";"(410) 600-1014";"https://www.goddardschool.com/";"whitemarsh2md@goddardschools.com";"We offer year-round, half-day and full-day programs for children ages six weeks through five years. ";"https://www.goddardschool.com/baltimore/middle-river-crossroads-circle-md";"https://www.facebook.com/goddardschool";"https://www.goddardschool.com/baltimore/middle-river-crossroads-circle-md/careers";;;"x";"x";"x";"x";;"x";"https://www.goddardschool.com/Image%20Library/Local/GoddardLogo_Icon_White-Web.png";"7AM - 6PM";"7AM - 6PM";"7AM - 6PM";"7AM - 6PM";"7AM - 6PM";"Closed";"Closed";
1176069;"Great Beginnings";"9440 Belair Rd";"Baltimore";"MD";21236;"BALTIMORE CITY";"(443) 442-6263";;"greatbeginningsccc@gmail.com";"Our mission is to provide a safe, nurturing and developmentally appropriate environment for children 6 weeks to 5 years of age.";;"https://www.facebook.com/Great-Beginnings-Child-Care-445567705568392/";;;;"x";"x";"x";"x";;;"https://scontent.fskp2-1.fna.fbcdn.net/v/t31.0-8/14468168_575190165939478_1770754524343630900_o.jpg?_nc_cat=0&oh=eda5d94f234be3753f796acf3d939b1f&oe=5BC215E7";"7AM - 6PM";"7AM - 6PM";"7AM - 6PM";"7AM - 6PM";"7AM - 6PM";"Closed";"Closed";
1176072;"Woodhome Pre-K Center 2";"1776 E Joppa Rd";"Baltimore";"MD";21234;"BALTIMORE CITY";"(410) 668-7587";"http://www.woodhomeprek.com/";" info@woodhomeprek.com";"Selecting the best preschool program for your child is an important process. Besides a safe, healthy and happy experience, you want a setting where your child can thrive, experience, learn and grow. Your family needs to feel welcome to visit or call anytime during the day.";"http://www.woodhomeprek.com/programs.html";"https://www.facebook.com/Woodhome-Pre-K-Center-LLC-764061280361457/";;"http://www.woodhomeprek.com/admission.html";;;;"x";"x";;;"http://www.woodhomeprek.com/banner.jpg";"7AM - 6PM";"7AM - 6PM";"7AM - 6PM";"7AM - 6PM";"7AM - 6PM";"Closed";"Closed";
1176071;"Woodlawn Stages Before and After Care";"7215A Dogwood Road";"Baltimore";"MD";21244;"BALTIMORE CITY";"(410) 944-5144";;"ujenki4@aol.com";;;;;;;;;;;;;;;;;;;;;
1176074;"Kiddie Learning Center";"1108 N Rolling Rd";"Baltimore";"MD";21228;"BALTIMORE CITY";"(410)747-3700";"http://kiddielearning.com/";"kiddielearning@yahoo.com";"At Kiddie learning comprehensive curriculum that is recommended by the Maryland State Department of Education and fully aligns with Maryland's college and career ready standards. The curriculum is supplemented with foreign language, dance, computer/technology, fine arts, and physical education. Our qualified teachers work diligently to provide a loving environment for the children where each child's individual needs are met.";"http://kiddielearning.com/";"https://www.facebook.com/Kiddie-Learning-Center-574516726061173/";;;;"x";"x";"x";"x";;;"http://kiddielearning.com/wp-content/uploads/2018/02/Kiddie-Learning-Logo-3.jpg";"7AM - 6PM";"7AM - 6PM";"7AM - 6PM";"7AM - 6PM";"7AM - 6PM";"Closed";"Closed";
1176073;"Our Little Blessings";"6903 Mornington Rd";"Baltimore";"MD";21222;"BALTIMORE CITY";"(410) 288-1234";"http://www.ourlittleblessingsdaycare.com/";"bonnie@ourlittleblessingsdaycare.com";"The mission of Our Little Blessings Daycare is to ensure child safety as well as a stimulating and caring environment for children ages 2 years to 12 years old. At Our Little Blessings Daycare (of Dundalk), we believe you should have peace of mind when it comes to those who matter most; your children. ";"http://www.ourlittleblessingsdaycare.com/";"https://www.facebook.com/ourlittleblessings/";;;;;;"x";"x";"x";;"http://www.ourlittleblessingsdaycare.com/wp-content/uploads/2016/09/cropped-olb.png";"6AM - 6PM";"6AM - 6PM";"6AM - 6PM";"6AM - 6PM";"6AM - 6PM";"Closed";"Closed";
1176077;"Mays-Woodson Christian Early Learning Center";"7111 Windsor Blvd";"Baltimore";"MD";21244;"BALTIMORE CITY";"(410) 265-6800";"http://www.mayseec.org/";"info@mayseec.org";"The goal of the Mays-Woodson Christian Early Learning Center is to provide warm, loving and quality child care for children between ages 2 and 5.";"http://www.mayseec.org/";"https://www.facebook.com/mayswoodsonelc/";;;"http://www.mayseec.org/parent-resources/";;;"x";"x";;;"http://www.mayseec.org/wp-content/uploads/2016/05/mwcelc-logo-black2.png";"6:30AM -6PM";"6:30AM -6PM";"6:30AM -6PM";"6:30AM -6PM";"6:30AM -6PM";"Closed";"Closed";
1176076;"Sweet Potato Kids @ Hebbville Elementary";"3335 Washington Ave";"Baltimore";"MD";21244;"BALTIMORE CITY";"(410) 887-0708";"https://hebbvillees.bcps.org/";"mhall.davis@comcast.net";"It is our mission to create a community of excellence where students are being prepared to be globally competitive. ";"https://hebbvillees.bcps.org/";"https://www.facebook.com/HebbvilleES/";;;"http://www.bcps.org/system/handbooks/Student-Handbook.pdf";;;"x";"x";;;"https://p3cdn4static.sharpschool.com/UserFiles/Servers/Server_142748/Image/giraffe.png";;;;;;;;
1176078;"Y Before and After School Enrichment at Catonsville Ele";"106 Bloomsbury Avenue";"Catonsville";"MD";21228;"BALTIMORE";"(410) 788-2196";"https://aftercare.ymaryland.org/";" customerservice@ymaryland.org";"The Y offers healthy, fun and enriching programs for all ages. Use the fields below to search and register for programs that require registration like swim lessons, youth sports, Y Camp, Y Before & After School Enrichment, and more";"https://aftercare.ymaryland.org/";"https://www.facebook.com/ycentralmaryland";;"https://programs.ymaryland.org/register";;;;"x";"x";;;"https://scontent.fskp2-1.fna.fbcdn.net/v/t1.0-1/1613850_10153618316898559_1426026628487307348_n.jpg?_nc_cat=0&oh=63a8f7f436ad4c78c633fe185bfc399b&oe=5B776A4B";;;;;;;;
1176080;"Children R US Learning Center,";"120 Back River Neck Rd";"Essex";"MD";21221;"BALTIMORE";"(443) 467-0655";"http://www.childrenrus.org/";"info@childrenrus.org";"children R Us Learning Center where a child can be a child at a fun loving nurturing education and safe environment. we are currently enrolling for summer";"http://www.childrenrus.org/";"https://www.facebook.com/Children-R-Us-Learning-Center-LLC-1050640538336094/";;"http://www.childrenrus.org/child-care-registration";;;;"x";"x";;;"http://www.childrenrus.org/wp-content/themes/childrenrus/images/comp-logo.png";"6:30AM -6PM";"6:30AM -6PM";"6:30AM -6PM";"6:30AM -6PM";"6:30AM -6PM";"Closed";"Closed";
1176079;"Kid's Revolution Childcare Center";"100 Lakefront Dr";"Cockeysville";"MD";21030;"BALTIMORE";"(410) 666-8000";"https://kidsrevolutioncockeysville.com/";"info@kidsrevolutioncockeysville.com";"Kid's Revolution is Cockeysville's Best Childcare Center! Formerly known as Kim's Karate, we have been a licensed childcare facility since 1998 and part of the Cockeysville community since 1990.";;"https://www.facebook.com/kidsrev";;;;;;"x";"x";"x";;"https://static1.squarespace.com/static/582d9ba2c534a5fce52b1832/t/582da62ed2b857b782dc98b0/1525808752136/?format=1500w";"6:30 AM - 10:00 AM, 2:30 PM - 8:30 PM";"6:30 AM - 10:00 AM, 2:30 PM - 8:30 PM";"6:30 AM - 10:00 AM, 2:30 PM - 8:30 PM";"6:30 AM - 10:00 AM, 2:30 PM - 8:30 PM";"6:30 AM - 10:00 AM, 2:30 PM - 8:30 PM";"11AM - 1PM";"Closed";
1176081;"Improve Children Program II";"1111 Halstead Road";"Parkville";"MD";21234;"BALTIMORE";"(410 )825-3028";"https://www.improvechildren.org/";" improvechildren@ymail.com";"We are a disciplined and structured program where your child will learn and have fun. We provide an enriching environment with positive, well-educated mentors and group leaders. Through our before and after care programs, we teach our children to respect themselves as well as others. Our creative clubs give children an opportunity to express themselves positively through song and dance";"https://www.improvechildren.org/halstead";"https://www.facebook.com/ImproveChildren/";;"https://docs.wixstatic.com/ugd/ef8a97_ccb007cbba384bfea985b9218eb86b2f.pdf";;;;;;"x";"x";"https://static.wixstatic.com/media/d25800_2f0cfe5d6bcd4159b7694f7e8858bd9d~mv2.jpg/v1/fill/w_127,h_83,al_c,q_80,usm_0.66_1.00_0.01/d25800_2f0cfe5d6bcd4159b7694f7e8858bd9d~mv2.webp";"7:30AM - 6PM";"7:30AM - 6PM";"7:30AM - 6PM";"7:30AM - 6PM";"7:30AM - 6PM";"Closed";"Closed";
1176082;"Best Buddies Learning Center II";"9715 Philadelphia Road";"Rosedale";"MD";21237;"BALTIMORE";"(410) 391-0011";"http://www.bestbuddieslearningcenter.com/";"bestbuddieslc@gmail.com";"Christian Based Licensed Child Care - Live Animals on Site - Indoor Gym - Large Outdoor Fenced in Playgrounds - Hands on Learning - Creative Curriculum";"http://www.bestbuddieslearningcenter.com/contact";"https://www.facebook.com/Bestbuddieswhitemarsh/";"http://www.bestbuddieslearningcenter.com/job-opportunities";"http://www.bestbuddieslearningcenter.com/paperwork";"http://www.bestbuddieslearningcenter.com/paperwork";"x";"x";"x";"x";"x";;;"6AM - 6PM";"6AM - 6PM";"6AM - 6PM";"6AM - 6PM";"6AM - 6PM";"Closed";"Closed";
1176083;"Successful Children II";"2112 N  Rolling Rd";"Windsor Mill";"MD";21244;"BALTIMORE";"(410) 298-4824";;"ecollins225@aol.com";"We provide quality child care that meet the need of working parents who are seeking a safe, nurturing and developmentally appropriate learning environment.";;"https://www.facebook.com/successfulchildrenlearningcenterII/";;;;"x";"x";"x";"x";;;;"6:30AM -6PM";"6:30AM -6PM";"6:30AM -6PM";"6:30AM -6PM";"6:30AM -6PM";"Closed";"Closed";
1176086;"Harford Heights Child Care at Gerstell Academy";"2500 Old Westminster Pike";"Finksburg";"MD";21048;"CARROLL";"(410) 323-4140";"https://www.harfordheightschildcare.com/";" amanda@harfordheightschildcare.com";"Harford Heights Child Care ON CAMPUS programs allow for a smooth transition with all school extracurricular activities (such as sports, clubs, etc.), so children stay safe and engaged before school and until pick up. Holiday and break camps offered. ";"https://www.harfordheightschildcare.com/gerstell-academy-harford-heights";"https://www.facebook.com/HarfordHeights/";;"https://www.harfordheightschildcare.com/childcare-registration";"https://docs.google.com/forms/d/e/1FAIpQLSc1vostOTOB3GWF67yX5ISGx7KCbdM-s1BkwkPjvfadLVrT_w/viewform?c=0&w=1";;;;"x";"x";"x";"https://static.wixstatic.com/media/e0597c_731e6dc78b5a4f82a636e15da5b89641~mv2.jpg/v1/fill/w_89,h_88,al_c,q_80,usm_0.66_1.00_0.01/e0597c_731e6dc78b5a4f82a636e15da5b89641~mv2.webp";"7AM - 6PM";"7AM - 6PM";"7AM - 6PM";"7AM - 6PM";"7AM - 6PM";"Closed";"Closed";
1176085;"Merritt Athletic Club Before and After Care";"1388 Progress Way";"Eldersburg";"MD";21784;"Carroll";"(410) 549-8855";"https://merrittclubs.com/locations/eldersburg/";" rwise@merrittclubs.com";"Whether you’re looking for a Zumba class, a one-on-one training session, or a fun place to take the kids on a hot summer day, our largest location offers something for everyone.";"https://merrittclubs.com/programs/youth-families/";;"https://merrittclubs.com/careers/";"https://merritt.motionvibe.com/(S(dip1hbqmc5xtqhdajxzd3r2b))/LoginMerrittPortal.aspx";;;;;;"x";"x";"https://merrittclubs.com/wp-content/uploads/2016/12/mc-logo-sm.png";"8:30AM–12PM , 4:30PM–8:30PM";"8:30AM–12PM , 4:30PM–8:30PM";"8:30AM–12PM , 4:30PM–8:30PM";"8:30AM–12PM , 4:30PM–8:30PM";"8:30AM–12PM , 5PM–8PM";"8AM - 1PM";"8AM - 1PM";
1176084;"The Tot Spot";"25 Dalrymple Road Suite 107";"Sunderland";"MD";20689;"CALVERT";"(443) 624-4840";;"totspotlearning@gmail.com";"The Tot Spot is an in home childcare facility run by a highly qualified teacher who is an Education major.";;"https://www.facebook.com/The-Tot-Spot-1483610941938596/";;;;;;;;;;;;;;;;;;
1176087;"Y Before and After School Enrichment Spring Garden ES";"700 Boxwood Drive";"Hampstead";"MD";21074;"CARROLL";"(410) 374-3547";"https://aftercare.ymaryland.org/";" customerservice@ymaryland.org";"The Y offers healthy, fun and enriching programs for all ages. Use the fields below to search and register for programs that require registration like swim lessons, youth sports, Y Camp, Y Before & After School Enrichment, and more";"https://aftercare.ymaryland.org/";"https://www.facebook.com/ycentralmaryland";;"https://programs.ymaryland.org/register";;;;"x";"x";;;"https://scontent.fskp2-1.fna.fbcdn.net/v/t1.0-1/1613850_10153618316898559_1426026628487307348_n.jpg?_nc_cat=0&oh=63a8f7f436ad4c78c633fe185bfc399b&oe=5B776A4B";;;;;;;;
1176089;"Fresh Start Early Learning Center,";"111 Main Street";"Westminster";"MD";21157;"CARROLL";"(443) 876-3400";"http://www.freshstartelc.com/";"info@freshstartelc.com";"We offer childcare for infants, toddlers, preschoolers, and school age children. We work with an MSDE approved curriculum. All our teachers are certified to teach in the State of Maryland and continue their education on a yearly basis. Our schools are primarily child and family orientated. We work with students on an individual level to address each of their needs.";"http://www.freshstartelc.com/locations.php";;;"http://www.freshstartelc.com/blog/enrollment-forms/";;"x";"x";"x";"x";;;"http://www.freshstartelc.com/images/logo.png";"6AM - 6PM";"6AM - 6PM";"6AM - 6PM";"6AM - 6PM";"6AM - 6PM";"Closed";"Closed";
1176090;"Lil Einstein's Learning Center";"2470 Singerly Road";"Elkton";"MD";21921;"CECIL";"(410) 942-9090";"https://www.lelaonline.com/";"info@lelaonline.com";"We are committed to providing each and every child a safe and loving environment with care that meets their unique needs.";"https://www.lelaonline.com/locations/elkton-preschool-daycare-learning-academy/";"https://www.facebook.com/elktondaycare/";"https://www.lelaonline.com/career/";;;"x";"x";"x";"x";"x";"x";"https://www.lelaonline.com/wp-content/uploads/2017/01/new-logo-transparent.png";"6:30AM -6PM";"6:30AM -6PM";"6:30AM -6PM";"6:30AM -6PM";"6:30AM -6PM";"Closed";"Closed";
1176095;"Visions and Dreams Learning Center,";"2200 Old Washington Road";"Waldorf";"MD";20601;"CHARLES";"(240) 448-3830";"http://www.visionsanddreamslc.com/";"vision.dreamslc@gmail.com";"Visions & Dreams Learning Center is a provider of Child Education and Summer Enrichment Programs with the commitment to place your child’s education as our very utmost priority.";"http://www.visionsanddreamslc.com/child-care-contact-us";;"http://www.visionsanddreamslc.com/child-care-careers";"http://www.visionsanddreamslc.com/child-care-enrollment";;"x";"x";"x";"x";"x";"x";"http://www.visionsanddreamslc.com/wp-content/themes/visionsanddreams/images/comp-logo.png";"5:45AM - 7PM";"5:45AM - 7PM";"5:45AM - 7PM";"5:45AM - 7PM";"5:45AM - 7PM";"Closed";"Closed";
1176094;"Discovery Lane, LLC,";"3081 Old Washington Road";"Waldorf";"MD";20601;"CHARLES";"(240) 803-5263";"http://thediscoverylane.com/";"info@thediscoverylane.com";"Discovery Lane is a preschool serving students, 2-5. Discovery Lane was developed for families desiring an alternative childcare program that would encourage student interest and promote a gamut of healthy living experiences. Teachers are encouraged to promote a classroom environment that motivates students to investigate their environment and act as co-researchers to scaffold knowledge.";"http://thediscoverylane.com/";"https://www.facebook.com/thediscoverylane/?ref=hl";"http://thediscoverylane.com/careers/";"http://thediscoverylane.com/enrollment-request/";;;;"x";"x";;;"http://thediscoverylane.com/wp-content/uploads/2016/04/Screen-Shot-2016-04-02-at-7.53.57-PM-2-e1459647028279.png";"6AM - 6:30PM";"6AM - 6:30PM";"6AM - 6:30PM";"6AM - 6:30PM";"6AM - 6:30PM";"Closed";"Closed";
1176093;"Aunies Learning Center,";"3635 Leonardtown Road";"Waldorf";"MD";20602;"CHARLES";"(240) 270-1882";"http://aunies-learning-center.business.site/";"darlena_ford@yahoo.com";"Aunies Learning Center is a Prepatory Kindergarten Preschool. We believe in providing our students with a strong academic foundation so when they depart from us they excel in public or private school.  Our family friendly staff work hard to ensure that all who enter our school feel welcomed and know that THEY WERE BORN TO MAKE DIFFERENCE!!";"http://aunies-learning-center.business.site/";;;;;;;"x";"x";;;;"7AM - 6PM";"7AM - 6PM";"7AM - 6PM";"7AM - 6PM";"7AM - 6PM";"Closed";"Closed";
1176096;"Uniquely ""U"" Childcare and Learning Center, LLC,";"10545 Middleport Lane";"White Plains";"MD";20695;"CHARLES";"(240) 754-7871";;"uniquelyuchildcare@gmail.com";"Providing a safe, quality program that will allow children to grow, learn and play! Our focus is to ""Cultivate the Uniqueness in EVERY Child!""";;"https://www.facebook.com/uniquelyuchildcare/";;;;;;;;;;"https://scontent.fskp2-1.fna.fbcdn.net/v/t1.0-1/c0.0.200.200/p200x200/13178829_695801633890903_1726902304092677068_n.jpg?_nc_cat=0&oh=71340cd10369b4f2eab9cf8c9923ebfe&oe=5B830185";"6:30AM -6PM";"6:30AM -6PM";"6:30AM -6PM";"6:30AM -6PM";"6:30AM -6PM";"Closed";"Closed";
1176098;"The Goddard School in Frederick";"2080 Yellow Springs  Road";"Frederick";"MD";21702;"FREDERICK";"(301) 631-6699";"https://www.goddardschool.com/";"tgssheeba@aol.com";"Our Maryland State and NECPA accredited preschool is located in the Walnut Ridge Shopping Center, perfect for families living and working in the Fort Detrick area.";"https://www.goddardschool.com/washington/frederick-yellow-springs-road-md";"https://www.facebook.com/GoddardSchoolFrederickMD/";;;;"x";"x";"x";"x";"x";"x";"https://www.goddardschool.com/Image%20Library/Local/GoddardLogo_Icon_White-Web.png";"6:30AM -6PM";"6:30AM -6PM";"6:30AM -6PM";"6:30AM -6PM";"6:30AM -6PM";"Closed";"Closed";
1176099;"Kitzmiller After School Program";"288 W  Main St";"Kitzmiller";"MD";21538;"GARRETT";"(301) 895-5498";"http://www.garrettcac.org/index.php/educationlifelonglearning/child-development/after-school-program";"tabithaupton@ymail.com";"The Grantsville Partner’s After School Program offers afterschool care for children grades K-8. The program operates Monday through Friday from 3:00-6:00pm following the Board of Education schedule. Program components include: enrichment activities, homework assistance, tutoring, cultural enrichment, field trips, and recreational activities.";"http://www.garrettcac.org/index.php/educationlifelonglearning/child-development/after-school-program";;;;;;;;;"x";;;"3AM - 6PM";"3AM - 6PM";"3AM - 6PM";"3AM - 6PM";"3AM - 6PM";"Closed";"Closed";
1176100;"Oh, The Places You'll Go!";"14689 Garrett Highway";"Oakland";"MD";21550;"GARRETT";"(301) 501-1579";;"meggan.humberson@gmail.com";"Welcome to Oh the Places You'll Go! We are excited to offer Oakland families an enriching peaceful learning environment!";;"https://www.facebook.com/OhThePlacesYoulgo/";;;;"x";"x";"x";"x";;;"https://scontent.fskp2-1.fna.fbcdn.net/v/t1.0-1/p200x200/18920507_450055562031472_8493043854971065627_n.jpg?_nc_cat=0&oh=eaa48f7d8c7df77d9c6a6ec2fc754397&oe=5B8C113B";"7:30AM - 5:30PM";"7:30AM - 5:30PM";"7:30AM - 5:30PM";"7:30AM - 5:30PM";"7:30AM - 5:30PM";"Closed";"Closed";
1176102;"YMCA at Wilson Center";"1024 Main St";"Darlington";"MD";21034;"HARFORD";"(410) 836-5555";;"obettejamison@ymaryland.org";"To put Christian principles into practice through programs that build healthy spirit, mind, and body for all.";;"https://www.facebook.com/wilsonfamilyymca/";;;;;;;;;;"https://scontent.fskp2-1.fna.fbcdn.net/v/t1.0-1/c31.0.200.200/p200x200/10422555_888706591163603_4453427063731095014_n.jpg?_nc_cat=0&oh=18a5751872c98fa0b9acb38210a021d6&oe=5B83CCBD";"5AM - 10PM";"5AM - 10PM";"5AM - 10PM";"5AM - 10PM";"5AM - 9PM";"7AM - 6PM";"1PM - 6PM";
1176103;"Eco-Tots Early Learning Center,";"9270 Homespun Drive";"Columbia";"MD";21045;"HOWARD";"(410) 381-1326";"http://ecototslearning.com/";" info@ecototslearning.com";"The mission of Eco-Tots Early Learning Center is to provide high quality education and child care in an eco-healthy learning environment, allowing for optimal health and development in all aspects of life.";"http://ecototslearning.com/";"https://www.facebook.com/ecototslearning/";;"http://www.ecototslearning.com/docs/Registration%20and%20Parent%20Agreement%202018.pdf";"http://www.ecototslearning.com/docs/ELC%20Parent%20Handbook%202017-2018.pdf";"x";"x";"x";"x";"x";"x";"http://ecototslearning.com/images/main-logo.png";"6:30AM -6PM";"6:30AM -6PM";"6:30AM -6PM";"6:30AM -6PM";"6:30AM -6PM";"Closed";"Closed";
1176104;"All Aboard Early Learning Center,";"11625 Little Patuxent Parkway";"Columbia";"MD";21044;"HOWARD";"(443) 935-9500";;"ypmoore@allaboardelc.com";;;;;;;;;;;;;;;;;;;;;
1176105;"Children's Magnet Montessori School";"6135 Old Washington Road";"Elkridge";"MD";21075;"HOWARD";"(410) 220-3792";"https://childrensmanor.com/";"info@childrensmanor.com";"At Children's Magnet, we combine the educational precepts of Dr. Maria Montessori with a 21st century outlook. We are dedicated to preparing children to excel in a global society by providing an academically rigorous, engaging, and supportive learning environment that cultivates curiosity, creativity, and critical thinking. We are confident that our innovative and comprehensive program will nurture your child’s development, attract them to a world of knowledge, and prepare your child for a complex and ever-changing world.";"https://childrensmanor.com/elkridge/";;;;;;;"x";"x";;;"https://childrensmanor.com/wp-content/uploads/2017/10/cropped-ChildrensManorMontessori_logo.png";"7AM - 6PM";"7AM - 6PM";"7AM - 6PM";"7AM - 6PM";"7AM - 6PM";"Closed";"Closed";
1176106;"Little Eggs Child Care Center";"7005 Banbury Drive";"Hanover";"MD";21076;"ANNE ARUNDEL";"(410) 712-4700";"http://littleeggschildcare.com/";"info@littleeggschildcare.com";"Little Eggs Child Care Center is for parents who want a center committed to providing quality care, a secure and safe environment for their children.";"http://littleeggschildcare.com/contact-us/";"https://www.facebook.com/littleeggschildcare/";"http://littleeggschildcare.com/resources/job-opportunities/";"http://littleeggschildcare.com/enrollment-forms-hanover/";;"x";"x";"x";"x";;;"https://scontent.fskp2-1.fna.fbcdn.net/v/t1.0-1/c44.0.200.200/p200x200/12919744_1027290624020148_7351487243545897404_n.png?_nc_cat=0&oh=ff61c617f8b6a07c2ac9927d3a57cd7f&oe=5BBDE5ED";"6:30AM -6:30PM";"6:30AM -6:30PM";"6:30AM -6:30PM";"6:30AM -6:30PM";"6:30AM -6:30PM";"Closed";"Closed";
1176108;"Alphabest @ Garnett";"320 Calvert St";"Chestertown";"MD";21620;"QUEEN ANNES";"(410) 708-4636";;"bkimble@alphabest.org";;;;;;;;;;;;;;;;;;;;;
1176107;"A Sound Beginning,";"12470 Old Frederick Road";"Marriottsville";"MD";21104;"CARROLL";"(410) 926-2961";"http://www.asoundbeginning.net/contact_us";"info@asoundbeginning.net";"Children with hearing loss, who use hearing aids and/or cochlear implants, are provided intensive intervention in a small classroom setting to learn to listen and speak.  Our staff is comprised of an auditory-verbal therapist and special educators who are dedicated to helping our children reach their listening and speaking potential in a supportive, nurturing, and fun classroom environment.";"http://www.asoundbeginning.net/spoken_language_preschool";;;;;;;;;;;;"9AM - 12:30PM";"9AM - 12:30PM";"9AM - 12:30PM";"9AM - 12:30PM";"9AM - 12:30PM";"Closed";"Closed";
1176110;"Bar-T at Wood Acres";"5800 Cromwell Dr";"Bethesda";"MD";20816;"MONTGOMERY";"(301) 948-3172";"http://www.bar-t.com";"LDANIELSON@Bar-T.com";"Bar-T is pleased to offer our Kids Camp programs in week-long sessions to help ensure that we are able to meet all of your family’s summer needs and your busy schedule. Although single weeks are available, we believe that the Bar-T camp experience is most complete when enjoyed in increments of two or more weeks!";"http://www.bar-t.com/summer/kids-camp/contact-info-directions/";"https://www.facebook.com/BarTMountainside/";"http://www.bar-t.com/employment-opportunities/";"http://www.bar-t.com/summer/kids-camp/dates-rates-enrollment/";"http://www.bar-t.com/wp/wp-content/uploads/2013/01/MD-Parent-Handbook-2017-18-for-Web-12.1.17.pdf";;;;;"x";"x";"http://www.bar-t.com/wp/wp-content/themes/bar-t/img/logo-top.png";"Open 24/7";"Open 24/7";"Open 24/7";"Open 24/7";"Open 24/7";"Open 24/7";"Open 24/7";
1176111;"The Manor Montessori School,";"5450 Massachusetts Ave";"Bethesda";"MD";20816;"MONTGOMERY";"(301) 299-7400";"http://www.manormontessori.com/";"themanormontessori@gmail.com";"Our school motto, “Learn to love to do well and you shall,” exemplifies the attitude of our children, parents, and teachers. Given this ideal learning environment, children will develop a lifelong love of learning and will strive to reach their fullest potential.";"http://www.manormontessori.com/";;;"http://www.manormontessori.com/admissions/";;;"x";"x";"x";;;"http://www.manormontessori.com/banner7_1.gif";"7:30AM - 6PM";"7:30AM - 6PM";"7:30AM - 6PM";"7:30AM - 6PM";"7:30AM - 6PM";"Closed";"Closed";
1176112;"Bar-T at Rock Creek Forest";"8330 Grubb Rd";"Chevy Chase";"MD";20815;"MONTGOMERY";"(301) 585-3417";"http://www.bar-t.com";"LDANIELSON@Bar-T.com";"Bar-T is pleased to offer our Kids Camp programs in week-long sessions to help ensure that we are able to meet all of your family’s summer needs and your busy schedule. Although single weeks are available, we believe that the Bar-T camp experience is most complete when enjoyed in increments of two or more weeks!";"http://www.bar-t.com/summer/ranch/transportation-extended-care/";"https://www.facebook.com/BarTMountainside/";"http://www.bar-t.com/employment-opportunities/";"http://www.bar-t.com/summer/kids-camp/dates-rates-enrollment/";"http://www.bar-t.com/wp/wp-content/uploads/2013/01/MD-Parent-Handbook-2017-18-for-Web-12.1.17.pdf";;;;;"x";"x";"http://www.bar-t.com/wp/wp-content/themes/bar-t/img/logo-top.png";"Open 24/7";"Open 24/7";"Open 24/7";"Open 24/7";"Open 24/7";"Open 24/7";"Open 24/7";
1176114;"Watch Me Grow Child Development Center,";"22610 Gateway Center Drive Suite 200";"Clarksburg";"MD";20871;"MONTGOMERY";"(240) 686-0572 ";"http://www.fs-inc.org/services/programs/early-childhood-services/watch-me-grow-child-development-center";"wmginfo@fs-inc.org";"Watch Me Grow is dedicated to providing high quality child care for children 6 weeks through age 5 (Pre-K) and Before and After Care for K-5th grade!";"www.wmgclarksburg.org";"https://www.facebook.com/WMGClarksburg/";;;;"x";"x";"x";"x";;;"http://www.fs-inc.org/_assets/images/program-logos/watchmegrow-logo.jpg";"7AM - 6:30PM";"7AM - 6:30PM";"7AM - 6:30PM";"7AM - 6:30PM";"7AM - 6:30PM";"Closed";"Closed";
1176113;"Wonders Extended Day at Concord Hill";"6050 Wisconsin Ave";"Chevy Chase";"MD";20815;"MONTGOMERY";"(301) 656-4270";"http://wonderslearning.org/";"eellis@wonderslearning.org";"Wonders Extended Day at Concord Hill has been warmly welcomed by the Concord Hill community since 2016! We offer flexible enrollment options including full time, part time and drop in enrollment. After school care will be at Concord Hill until 6:30 pm Monday through Friday for children age 3 through Grade 3. We offer full day programs for parent teacher conference dates and other school holidays. Wonders Extended Day programs demonstrate our belief that children learn through play in a supportive and nurturing environment.  ";"http://wonderslearning.org/concord-hill/";"http://wonderslearning.org/enroll/";"http://wonderslearning.org/careers/";"http://wonderslearning.org/enroll/wonders-forms/";;;;"x";"x";;;"http://wonderslearning.org/wp-content/uploads/Wonders_web-logo-smaller-1.png";;;;;;;;
1176115;"Georgetown Hill Clarksburg";"13530 Redgrave Pl";"Clarksburg";"MD";20871;"MONTGOMERY";"(301) 569-7732";"https://georgetownhill.com/";"shelbymonsini@georgetownhill.com";"For 35 years and counting, Georgetown Hill Early School has offered top-notch programs for infants, preschoolers, and elementary children in Maryland.";"https://georgetownhill.com/daycare-locations/clarksburg/";"https://www.facebook.com/GeorgetownHillEarlySchool";"https://georgetownhill.com/careers/";"https://campscui.active.com/orgs/GeorgetownHillEarlySchool?_ga=2.123173579.1338276254.1527769483-1778935001.1527769483";;"x";"x";"x";"x";;;"https://georgetownhill.com/wp-content/uploads/2017/12/logo.png";"7:30AM - 6:30PM";"7:30AM - 6:30PM";"7:30AM - 6:30PM";"7:30AM - 6:30PM";"7:30AM - 6:30PM";"Closed";"Closed";
1176116;"Montgomery Child Care Jones Lane";"15110 Jones Ln";"Gaithersburg";"MD";20878;"MONTGOMERY";"(301) 947-1200";"http://www.mccaedu.org";"shannon.dorsey@mccaedu.org";"For children ages 5";"http://www.mccaedu.org/centers/jones_lane.html";;"http://www.mccaedu.org/careers.html";;"http://www.mccaedu.org/pdf/Family%20Handbook%20August%202017%20as%20of%20082117%20FINAL.pdf";;;;"x";;;"http://www.mccaedu.org/images/jones%20lane/jones%20lane.jpg";"6:30AM -6:30PM";"6:30AM -6:30PM";"6:30AM -6:30PM";"6:30AM -6:30PM";"6:30AM -6:30PM";"Closed";"Closed";
1176117;"Bar-t at Darnestown Elementary";"15030 Turkey Foot Rd";"Gaithersburg";"MD";20878;"MONTGOMERY";"(301) 948-3172";"http://www.bar-t.com";"ddiederichsen@bar-t.com";"Bar-T is pleased to offer our Kids Camp programs in week-long sessions to help ensure that we are able to meet all of your family’s summer needs and your busy schedule. Although single weeks are available, we believe that the Bar-T camp experience is most complete when enjoyed in increments of two or more weeks!";"http://registration.bar-t.com/School-Year";"https://www.facebook.com/BarTMountainside/";"http://www.bar-t.com/employment-opportunities/";"http://www.bar-t.com/summer/kids-camp/dates-rates-enrollment/";"http://www.bar-t.com/wp/wp-content/uploads/2013/01/MD-Parent-Handbook-2017-18-for-Web-12.1.17.pdf";;;;;"x";"x";"http://www.bar-t.com/wp/wp-content/themes/bar-t/img/logo-top.png";"Open 24/7";"Open 24/7";"Open 24/7";"Open 24/7";"Open 24/7";"Open 24/7";"Open 24/7";
1176118;"Bar-T at Clopper Mill";"18501 Cinnamon Dr";"Germantown";"MD";20874;"MONTGOMERY";"(301) 948-3172";"http://www.bar-t.com";"ddiederichsen@bar-t.com";"Bar-T is pleased to offer our Kids Camp programs in week-long sessions to help ensure that we are able to meet all of your family’s summer needs and your busy schedule. Although single weeks are available, we believe that the Bar-T camp experience is most complete when enjoyed in increments of two or more weeks!";"http://registration.bar-t.com/School-Year";"https://www.facebook.com/BarTMountainside/";"http://www.bar-t.com/employment-opportunities/";"http://www.bar-t.com/summer/kids-camp/dates-rates-enrollment/";"http://www.bar-t.com/wp/wp-content/uploads/2013/01/MD-Parent-Handbook-2017-18-for-Web-12.1.17.pdf";;;;;"x";"x";"http://www.bar-t.com/wp/wp-content/themes/bar-t/img/logo-top.png";"Open 24/7";"Open 24/7";"Open 24/7";"Open 24/7";"Open 24/7";"Open 24/7";"Open 24/7";
1176119;"Celebree Learning Center of Germantown";"20407 Seneca Meadows Pkwy";"Germantown";"MD";20876;"MONTGOMERY";"(301) 540-4600";"http://www.celebree.com/";"pdgermantown@celebree.com";"Our professional and dedicated team nurtures and educates infants, preschool & school age children in a wide range of child care programs. Our children develop positive social skills and values and learn about their world through age-appropriate play, projects and activities. We provide a stable, secure, learning environment that fosters a solid foundation for lifelong success.";"http://www.celebree.com/locations-2/";"https://www.facebook.com/celebreegermantown/";"http://www.celebree.com/resources/celebree-careers/";;"http://www.celebree.com/resources/parental-resources/parent-and-family-handbook/";"x";"x";"x";"x";;;"https://scontent.fskp2-1.fna.fbcdn.net/v/t1.0-1/16806672_746305815525319_4412866262330094569_n.png?_nc_cat=0&oh=0a5c029cf65bf314ef4ffabf87488e48&oe=5B80E242";"6:30AM -6:30PM";"6:30AM -6:30PM";"6:30AM -6:30PM";"6:30AM -6:30PM";"6:30AM -6:30PM";"Closed";"Closed";
1176120;"B'nai Shalom of Olney,";"18401 Burtfield Dr";"Olney";"MD";20832;"MONTGOMERY";"(301) 570-0699";"http://www.ecsolney.org/";"sarah.meytin@bnaishalomofolney.org";"t is our belief that early childhood should be a time of fun, exploration, warmth, security, and celebration. Children are creative and receptive individuals; our staff will strive to strengthen and nurture these qualities in a stimulating and respectful environment. We will provide the highest quality secular and Judaic education to children from our Toddler & Me class through our pre-K, creating challenging learning experiences that encourage social, emotional, physical, and intellectual growth and development of your child as a whole.";"http://www.ecsolney.org/programs/";"https://www.facebook.com/bnaishalomofolney/";;"http://www.ecsolney.org/admission/application-form/";"http://www.ecsolney.org/parents/handbook/";;"x";"x";"x";;;"http://www.ecsolney.org/wp-content/uploads/2014/12/BSO_ECS_website_logo-e1419135739904.jpg";"9AM - 5PM";"9AM - 5PM";"9AM - 5PM";"9AM - 5PM";"9AM - 5PM";"Closed";"Closed";
1176122;"Gurim/Junior K Program at CESJDS,";"1901 E  Jefferson St";"Rockville";"MD";20852;"MONTGOMERY";"(301) 881-1400";"https://www.cesjds.org/";"cesjds@cesjds.org";"Gurim (Cubs), is a school-based, early childhood program at CESJDS that balances academics and play in a developmentally appropriate setting. The program focuses on real world experiences, structured fun, learning through play and song, and building community.";"https://www.cesjds.org/admission/gurim-junior-kindergarten-program";"https://touch.facebook.com/CESJDSConnect/?__tn__=%2AsH-R";;"https://cesjds.schooladminonline.com/users/sign_in";;;"x";"x";"x";;;;"8:15AM - 3:15PM";"8:15AM - 3:15PM";"8:15AM - 3:15PM";"8:15AM - 3:15PM";"8:15AM - 3:15PM";"Closed";"Closed";
1176123;"KidsCo Junior @ Fallsmead Elementary School,";"1800 Greenplace Terrace";"Rockville";"MD";20850;"MONTGOMERY";"(301) 417-8732";"http://www.kidscojr.com/";"davi@kidscoonline.com";"Our vision at KidsCo Jr. is to provide a home away from home that fosters growth and learning in a comfortable, nurturing, and consistent environment.";"http://www.kidscojr.com/fallsmead-location/";;"http://www.kidscojr.com/career-2/";"http://www.kidscojr.com/enrollment-2/";"http://www.kidscojr.com/wp-content/uploads/2017-2018-Jr.-Parent-Handbook-3.pdf";"x";"x";"x";"x";;;"http://www.kidscojr.com/wp-content/uploads/Web_Logo_JR_2017-1.png";"6:30AM -6:30PM";"6:30AM -6:30PM";"6:30AM -6:30PM";"6:30AM -6:30PM";"6:30AM -6:30PM";"Closed";"Closed";
1176126;"Parkland Middle School";"4610 W Frankfort Dr";"Rockville";"MD";20853;"MONTGOMERY";"(301) 517-5995";"http://www.montgomeryschoolsmd.org/";" ASKMCPS@mcpsmd.org";"Parkland is one of the three schools of the Middle School Magnet Consortium that offers a focus and rigorous academic environment in the areas of math and science through aerospace technology and robotic engineering for students in grades 6, 7 and 8.  ";"http://www.montgomeryschoolsmd.org/schools/parklandms/";;"http://montgomeryschoolsmd.org/departments/careers/";"http://montgomeryschoolsmd.org/info/enroll/";;;;"x";"x";;;"http://greenparkland.weebly.com/uploads/6/5/1/9/65197421/4102387.gif?111";"8:15AM - 3PM";"8:15AM - 3PM";"8:15AM - 3PM";"8:15AM - 3PM";"8:15AM - 3PM";"Closed";"Closed";
1176125;"KidsCo @ Luxmanor Elementary";"6201 Tilden Ln";"Rockville";"MD";20852;"MONTGOMERY";"(301) 740-9600";"http://www.kidscoonline.com/";"ESaur@KidsCoOnline.com";"KidsCo offers Before and After School Programs in Montgomery County, Maryland with locations in Rockville, Olney, Bethesda, Germantown, Gaithersburg, Damascus, Clarksburg, Montgomery Village, and Silver Spring. Our programs incorporate a family atmosphere with all the fun of a club-style program! We are 100% devoted to making sure that the expectations are met for quality before and after school care in our schools and communities.";"http://www.kidscoonline.com/before-after-school-locations/";"https://www.facebook.com/KidsCo/";"http://www.kidscojr.com/career-2/";;;"x";"x";"x";"x";"x";;"http://www.kidscoonline.com/wp-content/uploads/kidsco-logo-smaller.png";"6:30AM -6:30PM";"6:30AM -6:30PM";"6:30AM -6:30PM";"6:30AM -6:30PM";"6:30AM -6:30PM";"Closed";"Closed";
1176124;"Feynman School,";"6300 Tilden Ln";"Rockville";"MD";20852;"MONTGOMERY";"(301) 770-4370";"http://feynmanschool.org/";"info@feynmanschool.org";"Feynman School helps young gifted students grow. We celebrate each student’s intellectual curiosity and sense of self, promote inquisitive and creative thinking, and foster caring and concern for others. Here, children revel in learning and prepare for full, fulfilling lives.";"http://feynmanschool.org/";"https://www.facebook.com/feynmanschool/";;"http://feynmanschool.org/admissions/how-to-apply/";;;;"x";"x";;;"http://www.feynmanschool.org/wp-content/uploads/2013/10/131017-New-Feynman-Logo.jpg";"7:30AM - 6PM";"7:30AM - 6PM";"7:30AM - 6PM";"7:30AM - 6PM";"7:30AM - 6PM";"Closed";"Closed";
1176127;"KAH @ Sandy Spring Friends School";"16923 Norwood Rd";"Sandy Spring";"MD";20860;"MONTGOMERY";"(301) 774-7455";"https://www.kidsafterhours.com/s";"SSFS@kidsafterhours.com";"Kids After Hours is a Before and After School Care program (plus, we have camps during the summer too!) Our programs are run in over 20 elementary schools throughout Maryland! We provide kids with as much fun as possible through activities, games, clubs, and so much more!";"https://www.kidsafterhours.com/school-year-programs//locations/sandy-spring/";"https://www.facebook.com/kids.hours";;;"https://www.kidsafterhours.com/kidsafterhours/assets/file/forms/Parent_Handbook.pdf";;;;;"x";;"https://www.kidsafterhours.com/KidsAfterHours/assets/Image/v3/main-logo.png";"7AM - 6:30PM";"7AM - 6:30PM";"7AM - 6:30PM";"7AM - 6:30PM";"7AM - 6:30PM";"Closed";"Closed";
1176128;"Champions @ Cresthaven Elementary School";"1234 Cresthaven Dr";"Silver Spring";"MD";20903;"MONTGOMERY";"(301) 891-1145";"http://www.discoverchampions.com/";;"Champions has a great solution for busy working families: activities that combine fun and learning, together with the safety and convenience of a high-quality program right inside your school. Champions offers a variety of group and individual activities designed to keep your child exploring and growing.";"http://www.discoverchampions.com/our-locations/silver-spring/md/005446?utm_campaign=Champions_Local&utm_source=L3M_Local&utm_medium=A&utm_content=005446&_google";"https://www.facebook.com/KCEChampions";"http://www.discoverchampions.com/about/careers";"https://connect.klcschoolpartnerships.com/";;;;;"x";"x";;"https://scontent.fskp2-1.fna.fbcdn.net/v/t1.0-1/10277705_783110731722286_4555101298130770415_n.png?_nc_cat=0&oh=5a7ad8234f67aec0a35bfe11229df9c4&oe=5BB41BB5";"7:30AM - 6:30PM";"7:30AM - 6:30PM";"7:30AM - 6:30PM";"7:30AM - 6:30PM";"7:30AM - 6:30PM";"Closed";"Closed";
1176129;"Glen Haven Elementary School @ AlphaBEST Education";"10900 Inwood Ave";"Silver Spring";"MD";20902;"MONTGOMERY";"(301)649-8051";"http://www.montgomeryschoolsmd.org/";"glenhavenelementary@alphabest.org";"To engage in ongoing professional development to foster high academic achievement for all students. To promote a positive social emotional learning environment through the enacted Glen Haven Eagles’ Code of Conduct, SOAR (S-Successful, O-Organized, A-Always Safe, R-Respectful). To foster a culture of respect among students, parents, staff, and community members, to achieve a true collaborative learning environment. To develop students’ critical thinking and academic success skills to prepare them for college and career ";"http://www.montgomeryschoolsmd.org/schools/glenhavenes/";;;;"http://www.montgomeryschoolsmd.org/schools/glenhavenes/parentresources.aspx";;;"x";"x";"x";;;"9AM - 3:25PM";"9AM - 3:25PM";"9AM - 3:25PM";"9AM - 3:25PM";"9AM - 3:25PM";"Closed";"Closed";
1176130;"Global Children's Center @ Stonegate ES";"14811 Notley Rd";"Silver Spring";"MD";20905;"MONTGOMERY";"(301) 972-5982";"https://globalchildrenscenter.com";"globalchildrenscenter@verizon.net";"Global Children’s Center’s mission is to provide an all-inclusive, developmentally appropriate learning experience in every program that we offer. We aim to work collaboratively with our families, schools, and communities, to provide a positive learning environment that prepares our children to be lifelong learners, critical thinkers, and innovative pioneers.";"https://globalchildrenscenter.com/hours-locations/";"https://www.facebook.com/globalchildrenscenter/";"https://globalchildrenscenter.com/join-our-team/";"https://globalchildrenscenter.com/2018-2019-fall-registration/";"https://globalchildrenscenter.com/wp-content/uploads/2018/03/Global_Parent_Handbook_2017-2018.pdf";;;;;"x";"x";"https://globalchildrenscenter.com/wp-content/uploads/2018/03/logo-2018.png";"6:30AM -6:30PM";"6:30AM -6:30PM";"6:30AM -6:30PM";"6:30AM -6:30PM";"6:30AM -6:30PM";"Closed";"Closed";
1176131;"One Village Kids Academy,";"627 Sligo Avenue";"Silver Spring";"MD";20910;"MONTGOMERY";"(301) 851-1115";"https://onevillagekidsacademy.com/";"onevillagekidsacademy@gmail.com";"Our centre provides a stimulating and fun environment to enhance your child’s learning in their early years. Learning in fact starts long before school";"https://onevillagekidsacademy.com/";;;;;"x";"x";"x";"x";;;"https://onevillagekidsacademy.com/wp-content/uploads/2018/05/cropped-Onevillagekidsacademy-transparency-210x70.png";"7AM - 6PM";"7AM - 6PM";"7AM - 6PM";"7AM - 6PM";"7AM - 6PM";"Closed";"Closed";
1176133;"Kinder Kidz Early Learning Center";"1925 Mitchellville Road";"Bowie";"MD";20716;"PRINCE GEORGE'S";"(240)432-6122";"http://cccbowie.org/about-us/partner-organizations/";"Rhondaa.miller@maryland.gov";"Kinderkidz Early Learning Center is a Christian based center. We are an example of Christian love where children are taught Christian values.  ";"https://kkidzelc.weebly.com/";;;;;;;"x";"x";;;"https://kkidzelc.weebly.com/uploads/8/4/7/4/84744240/kkelc1_1.jpg?1476134639";"7AM - 6PM";"7AM - 6PM";"7AM - 6PM";"7AM - 6PM";"7AM - 6PM";"Closed";"Closed";
1176132;"YMCA of Metropolitan Washington";"6600 Laure-Bowie Road";"Bowie";"MD";20715;"PRINCE GEORGE'S";" (202)232-6700";"https://www.ymcadc.org/";;"The YMCA of Metropolitan Washington fosters the spiritual, mental and physical development of individuals, families and communities according to the ideals of inclusiveness, equality and mutual respect for all.";"https://www.ymcadc.org/";"https://www.facebook.com/YMetroDc/";"https://www.ymcadc.org/careers/";"https://easytoenroll.ymcadc.org/register/";;"x";"x";"x";"x";;;"https://www.ymcadc.org/wp-content/themes/ymcadc/assets/images/yLogoBlue.png";;;;;;;;
1176135;"My Passion Early Learning Center,";"13515 Brandywine Road";"Brandywine";"MD";20613;"PRINCE GEORGE'S";"(301) 782-3790";;"vl124children@gmail.com";"The My Passion ELC exists to provide a safe, developmentally appropriate environment for preschool and school age children.";;"https://www.facebook.com/mypassionELC/";;;;;;"x";"x";"x";"x";;"6:30AM -6:30PM";"6:30AM -6:30PM";"6:30AM -6:30PM";"6:30AM -6:30PM";"6:30AM -6:30PM";"Closed";"Closed";
1176134;"AlphaBest @Brandywine Elementary,";"14101 Brandywine Road";"Brandywine";"MD";20613;"PRINCE GEORGE'S";"(301) 606-9186";"http://www1.pgcps.org/brandywine/";"brandywineelementary@alphabest.org";;;;;;;;;;;;;;;;;;;;;
1176136;"Stable Foundation Day Care Center,";"810 Rollins Avenue";"Capitol Heights";"MD";20743;"PRINCE GEORGE'S";"(240) 779-1336";;"junepearsall7@gmail.com";;;;;;;;;;;;;;;;;;;;;
1176137;"Kidz of the Kingdom,";"6805 Old Alexander Ferry";"Clinton";"MD";20735;"PRINCE GEORGE'S";"(240) 318-5736";;"kidzofthekingdom@yahoo.com";;;;;;;;;;;;;;;;;;;;;
1176138;"Alpha Best@ Apple Grove Elementary,";"7400 Bellefield Drive";"Fort Washington";"MD";20744;"PRINCE GEORGE'S";"(240) 448-5027";"http://www1.pgcps.org/schools/school_details.aspx?id=111292";"dmitchell@alphabest.org";;;;;;;;;;;;;;;;;;;;;
1176139;"Fort Washington Forest Community Center,";"1200 Fillmore Road";"Fort Washington";"MD";20744;"PRINCE GEORGE'S";"(301) 292-4300";"http://www.pgparks.com/";;"The Maryland-National Capital Park and Planning Commission (M-NCPPC) is a bi-county agency serving Prince George's and Montgomery counties in Maryland with parks, recreation, and planning.";"http://www.pgparks.com/Facilities/Facility/Details/Fort-Washington-Forest-Community-Center-11";;"https://www.governmentjobs.com/careers/mncppc";"http://www.pgparksdirect.com/";;;;;;;;"http://www.pgparks.com/ImageRepository/Document?documentID=2155";"9AM - 9PM";"9AM - 9PM";"9AM - 9PM";"9AM - 9PM";"9AM - 7PM";"9AM - 5PM";"12AM - 4PM";
1176140;"Alpha Best@Avalon Elementary,";"7302 Webster Lane";"Fort Washington";"MD";20744;"PRINCE GEORGE'S";"(240) 573-7258";"http://www.pgcps.org/avalon/";;;;;;;"http://www.pgcps.org/uploadedFiles/Schools_and_Centers/Elementary_Schools/Avalon/PDF/2017-18%20AvalonParentHandbook.pdf";;;;;;;;;;;;;;;
1176141;"Pee Wee Piano,";"6717 Glenn Dale Road";"Glenn Dale";"MD";20769;"PRINCE GEORGE'S";"(301) 350-5397";"http://www.peeweepiano.com/";"info@peeweepiano.com";"Offering Musical Instruction for Kids ages 4-13. Private Piano, Drums, and Guitar Lessons. Excellent After School Program and Summer Camp";"http://www.peeweepiano.com/";"https://www.facebook.com/peeweepiano/";;"http://www.peeweepiano.com/registration.html";;;;;"x";;;"http://www.peeweepiano.com/images/header_img1.jpg";"6:45AM -6PM";"6:45AM -6PM";"6:45AM -6PM";"6:45AM -6PM";"6:45AM -6PM";"Closed";"Closed";
1176142;"Go Tell It Learning Center,";"1798 Brightseat Road";"Landover";"MD";20785;"Prince George's";"(301) 322-4844";"http://gotellitlearningcenter.com/";"mhouston@gotellitlearningcenter.com";"Each child is a special gift from God, and has been uniquely created and designed by God with their own Talents and Gifts. It is our desire to see each child find their own special gift through learning, play, and discovery.";"http://gotellitlearningcenter.com/";"https://www.facebook.com/gotellitlearningcenter/";;"http://gotellitlearningcenter.com/enrollment.html";"http://gotellitlearningcenter.com/tuition-fees.html";;;;;;;"http://gotellitlearningcenter.com/images/logo.png";"6:30AM -6PM";"6:30AM -6PM";"6:30AM -6PM";"6:30AM -6PM";"6:30AM -6PM";"9AM - 5PM";"Closed";
1176143;"Alpha BEST @ Suitland Elementary,";"4650 Homer Avenue";"Suitland";"MD";20746;"PRINCE GEORGE'S";"(301) 817-3770";"http://www1.pgcps.org/suitlandes/";"pamela.preston@pgcps.org";;;;;;;;;;;;;;;;;;;;;
1176144;"AlphaBest @ Hillcrest Heights Elementary,";"4305 22nd Place";"Temple Hills";"MD";20748;"PRINCE GEORGE'S";"(301) 632-6804";"http://www1.pgcps.org/schools/school_details.aspx?id=159757";;;;;;;;;;;;;;;;;;;;;;
1176145;"Klub Kid LLC";"4522 Beech Road";"Temple Hills";"MD";20748;"PRINCE GEORGE'S";"(240) 583-9175";"https://www.klub-kid.com/";"klubkidllc@yahoo.com";"Klub Kid LLC is a family owned company geared towards giving children a positive environment outside of school to socialize in different settings, which encourages camaraderie. In addition, Klub Kid  is centered around giving children a means to be active, as this current generation has become accustomed to being house bodies in a sense. ";"https://www.klub-kid.com/";"https://www.facebook.com/klubkidllc/";"https://www.klub-kid.com/copy-of-program-information";"https://www.klub-kid.com/programs";;;;;;"x";"x";"https://static.wixstatic.com/media/18c2d0_c79acf84c2134c9b8407c9f3280b2ff5~mv2.png/v1/fill/w_176,h_120,al_c,usm_0.66_1.00_0.01/18c2d0_c79acf84c2134c9b8407c9f3280b2ff5~mv2.png";;;;;;;;
1176146;"AlphaBest @ Panorama Elementry School,";"2002 Callaway St";"Temple Hills";"MD";20748;"PRINCE GEORGE'S";"(301) 702-3870";"http://www.pgcps.org/panorama/";"Panoramalementary@alphabest.org";;;;;;;;;;;;;;;;;;;;;
1176147;"Alpha Best @ Overlook Elementary,";"3298 Curtis Drive";"Temple Hills";"MD";20748;"PRINCE GEORGE'S";"(336) 712-3258";"http://www.pgcps.org/overlook/parents.htm";" lharrod@alphabest.org";;;;;;;;;;;;;;;;;;;;;
